(Do Not Modify) Centre,(Do Not Modify) Row Checksum,(Do Not Modify) Modified On,Name,Category,Centre URL,Country,City,Latitude,Longitude,Agency,Created On,Publishing Status,Principal,ISO3 code (Member) (Member/Partner)
dc044cb6-6fe8-e911-a9a5-000d3a44b27c,gTbDSdD3yZndJI3rR0XZWdCR+KKIJubV/GAqRrJvtpgd/uNm7xUCJ63CXZUAruRsoJRsPL0tYnUG5B5N7rzgPg==,25.01.2020 09:54,AGRHYMET (Niamey),DCPC,www.agrhymet.ne/,Niger,Niamey,13.520000,2.120000,Direction de la météorologie nationale du Niger,06.10.2019 21:30,Published,GISC Casablanca,NER
6c8c78ba-44e9-e911-a9a5-000d3a44b27c,pcDCLPjV+qWyfbThSxUER4pjx+/Mkqc5pUk4gcl5m3W+sb02RvHtmPVQeSGB8Bt40quaOS6b8YgVgUmwr3bliw==,25.01.2020 09:54,Air Resources Laboratory (ARL) (Washington),DCPC,www.arl.noaa.gov/,United States of America,Washington,38.910000,-77.020000,National Oceanic and Atmospheric Administration (NOAA),07.10.2019 22:55,Published,GISC Washington,USA
849f2da4-23e9-e911-a99e-000d3a44bf07,1HpT+LJkFE2alJEPjgdy3OgeKJpB/kv7nordULM9PPWsy4EyhkJ00YPUvAmsh2q4A0fcthrMqnzrKFF/ytPLyg==,25.01.2020 09:54,Arctic Data Centre (Helsinki),DCPC,,Finland,Helsinki,60.170000,24.940000,Finnish Meteorological Institute,07.10.2019 18:58,Published,GISC Offenbach,FIN
01dc1050-3ce9-e911-a9a5-000d3a44b27c,rADCP7lfvRmu2ASV4WqUm/cK+W2WXW5U+3XxMclm6hb69uUL4xcuyGRZjGUi3I5LtgiWXeyeONF8ZTJWRFyAuw==,25.01.2020 09:54,ASEAN Specialised Meteorological Centre (ASMC) (Singapore),DCPC,wis.weather.gov.sg/openwis-user-portal/,Singapore,Singapore,1.283333,103.850000,Meteorological Service Singapore,07.10.2019 21:55,Published,GISC Melbourne,SGP
f1db1050-3ce9-e911-a9a5-000d3a44b27c,l47ZPPsN2cqGQ+71d5Q6PovaouV6CLrdP2KtU9tgLlbzgOnP4MzVvV35SJ13Xic5LqOqY5zIGuqsu+n4itxZVA==,25.01.2020 09:54,Aviation Centre (ASECNA) (Dakar),DCPC,https://asecnaonline.asecna.aero/index.php/en/,Senegal,Dakar,14.666667,-17.416667,Direction de l'Exploitation de l'ASECNA,07.10.2019 21:55,Published,GISC Casablanca,ASE
8d932015-5be8-e911-a9a5-000d3a44b27c,2W69HGaeJV0XFswlLJQLeQ69Sk7yJbGHzFzI2hva+oFSubiXvB3Jc6P+FPb03bJRu2MZwt84dA0CG68jX+vGYg==,25.01.2020 08:38,Aviation Centre (Doha),NC,qweather.gov.qa/,Qatar,Doha,25.283333,51.533333,Civil Aviation Authority,06.10.2019 19:02,Published,GISC Jeddah,QAT
6e8c78ba-44e9-e911-a9a5-000d3a44b27c,/HNU6RXpZT81HjlFFIn8A/6szE0U2BsX3jZul4TWxj7gWVdp8h/KzegX1HsQ9FdegyPfLRNl/Q2cbahuGcdygg==,25.01.2020 09:54,COMET (Boulder),DCPC,www.comet.ucar.edu/,United States of America,Boulder,40.017624,-105.271339,National Oceanic and Atmospheric Administration (NOAA),07.10.2019 22:55,Published,GISC Washington,USA
a74aa1b3-6be8-e911-a9af-000d3a442d08,D2RqOgjAoaVm078Qm4ABtOCTEavVoHG7xufhr4HUDMfYsJ5E0vgHsz5bZO03bbBJhbq5sS8vTnAAirqdnsKlUw==,25.01.2020 08:39,FSM Weather Station (Palikir),NC,weather.noaa.gov/weather/FM_cc.html,"Micronesia, Federated States of",Palikir,6.916667,158.183333,FSM Weather Station - Chuuk,06.10.2019 21:01,Published,GISC Melbourne,FSM
1bafee12-30e9-e911-a9af-000d3a4429b3,GL71VbxW7lyAudh7uKJsVJ0WPHZADtOqMPcTENOgqJtnGEMtbfc3Gtc9SiAO/9l4G3muJMF0s2XLS0H9P8GUOg==,25.01.2020 09:54,GCC (Hamburg),DCPC,www.dwd.de/EN/ourservices/gcc/gcc.html,Germany,Hamburg,53.550000,10.000000,Deutscher Wetterdienst (DWD),07.10.2019 20:27,Published,GISC Offenbach,DEU
508c78ba-44e9-e911-a9a5-000d3a44b27c,vJw4FRStmBDoJSjWOwT3P0vMCJ5iRTpNQTnrEC63873tqbzWThFvHtYzAARixyjB5lmglce/LnGqGn70H0YNmQ==,25.01.2020 09:54,GCOS Lead Centre for Antarctica (BAS Cambridge),DCPC,,United Kingdom,"Cambridge,  England",52.200000,0.116667,Met Office,07.10.2019 22:55,Published,GISC Exeter,GBR
b073e691-73e8-e911-a99f-000d3a4421be,nh+xOXwXDREcfpB4RJh+Uy+U2i05I6JxvU+1aLOmxOCDYJMLfUwWqgKrQDM50dbpJz2JEmXN8DcP5BlU6XmbGg==,25.01.2020 09:54,GDC (Solar Radiation) (St. Petersburg),DCPC,,Russian Federation,Saint Petersburg,59.930000,30.320000,Russian Federal Service for Hydrometeorology and Environmental Monitoring (ROSHYDROMET),06.10.2019 21:58,Published,GISC Moscow,RUS
e7a20a66-6be7-e911-a99e-000d3a44bf07,BE12DswWd7sjdjS2LZFFYX9t8QrQ70kRtIqbLmPKy5I1c7nHGTHe7UK+guemBBfgF/9Wn0V0cNlg9FKn1thjMQ==,25.01.2020 08:26,GISC Beijing,GISC,gisc.wis.cma.cn/wis,China,Beijing,39.904200,116.407400,China Meteorological Administration (CMA),05.10.2019 14:27,Published,,CHN
d7a20a66-6be7-e911-a99e-000d3a44bf07,JivbZgRemSI8gza4WNu0QZjFLsSdlJcOG1ba1fOaTU14TM1ocU6F9yPSVEA+Jsetl8D44bVNX6HCXqrXnUMFMA==,03.04.2020 21:15,GISC Brasilia,GISC,gisc.inmet.gov.br/,Brazil,Brasilia,-15.826700,-47.921800,Instituto Nacional de Meteorología (INMET),05.10.2019 14:27,Published,,BRA
e5a20a66-6be7-e911-a99e-000d3a44bf07,UgyCGvhbVl3f6z+U++pP7csozWVwqaOaHy0aX8Zi1xpW4P+hr2D4YJyE8jkfoxQJ8N5kpoWD8qvhE3MTtFzs1Q==,25.01.2020 08:26,GISC Casablanca,GISC,gisc.marocmeteo.ma/,Morocco,Casablanca,33.573100,-7.589800,Department of National Meteorology of Morocco,05.10.2019 14:27,Published,,MAR
efa20a66-6be7-e911-a99e-000d3a44bf07,FfkSesQ8z/tsifBju5kl33uyPIn8eRF9MQWT0v/qZjbUzSIheY0Y6OsvGmazoJTDsE558YcnQiYPINGfsIht8Q==,25.01.2020 08:26,GISC Exeter,GISC,gisc.metoffice.gov.uk,United Kingdom,Exeter,50.718400,-3.533900,Met Office,05.10.2019 14:27,Published,,GBR
db725c08-7ce7-e911-a9d0-000d3a38a95d,N1e9l/jupp5G6zBw7Kvo74hEPTSoFA/TJuo9ZOVlR3DhMCS/5in3y9n0b0Emd+YuHLM+/8Mxzwj5CJwQYmVltA==,25.01.2020 08:26,GISC Jeddah,GISC,https://wis.pme.gov.sa,Saudi Arabia,Jeddah,21.485800,39.192500,General Authority of Meteorology and Environmental Protection (GAMEP),05.10.2019 16:25,Published,,SAU
e9a20a66-6be7-e911-a99e-000d3a44bf07,Yy1SbpNxlzyURBVvXMpPXo0J/48T5wxC21CwI8QzvLbueADcbpQ1gn+e17BCeE49Lp1ZDlldr1Dj80rUMirGkQ==,25.01.2020 08:26,GISC Melbourne,GISC,wis.bom.gov.au/,Australia,Melbourne,-37.813600,144.963100,Bureau of Meteorology,05.10.2019 14:27,Published,,AUS
eba20a66-6be7-e911-a99e-000d3a44bf07,daW3Tg2eGDB2SVWtk//2Www0dlB9skBfQphcBAFtQToHoEqifICHqg0d1FlVJCRnXVw/YCGuth8MwvqLnMLCwg==,25.01.2020 08:26,GISC Moscow,GISC,gisc.mecom.ru,Russian Federation,Moscow,55.755800,37.617300,Russian Federal Service for Hydrometeorology and Environmental Monitoring (ROSHYDROMET),05.10.2019 14:27,Published,,RUS
dfa20a66-6be7-e911-a99e-000d3a44bf07,1bNWeGDE7QZTfkFUYs2hOwz1hwHfDVxp50Mb9AKW7XAtyAEx7nJ9oKZ6jbLmS8YgzH18b56qrR8dDHr7o78NaQ==,25.01.2020 08:26,GISC New Delhi,GISC,wis.imd.gov.in/,India,New Delhi,28.613900,77.209000,India Meteorological Department,05.10.2019 14:27,Published,,IND
dda20a66-6be7-e911-a99e-000d3a44bf07,P/1m8cR02t7KLks9OsUezuRMYutMT/jdysATGUb6WcarQuWNAicsyGbNBJmq1t7h7r9ab2mInD2ff2i+1jymhQ==,25.01.2020 08:26,GISC Offenbach,GISC,gisc.dwd.de,Germany,Offenbach,50.095600,8.776100,Deutscher Wetterdienst (DWD),05.10.2019 14:27,Published,,DEU
eda20a66-6be7-e911-a99e-000d3a44bf07,vwIbmvAZBXz3wZ379Zus2QRhle445ewHVVD8b3xYCSN0yPmA7SdRQcqoA5xwX7JURMNPFg2O6lLBAOHvMDu6YA==,25.01.2020 08:26,GISC Pretoria,GISC,gisc.weathersa.co.za/,South Africa,Pretoria,-25.747900,28.229300,South African Weather Service,05.10.2019 14:27,Published,,ZAF
d25b32f9-38e7-e911-a9a5-000d3a44b27c,lD1VLS4daukTZJNE0xymBns6SNCs0xtV0R+4KW4p9Jq0yw0RfwK4V1eVGAUQReYHgp5egek+dpTE93QbpJYD0w==,25.01.2020 08:26,GISC Seoul,GISC,gisc.kma.go.kr/openwis-user-portal/srv/en/main.home,"Korea, Republic of",Seoul,37.550000,126.983333,Korea Meteorological Administration (KMA),05.10.2019 08:25,Published,,KOR
e1a20a66-6be7-e911-a99e-000d3a44bf07,g+wLoUcGCaE5p9fgm0RKu8BDalVr/ZGh2OibTJ9FabRmSaeZPq5289QqKuRAI79RE01/qgxH4qGq4+Ew/fyiHQ==,25.01.2020 08:26,GISC Tehran,GISC,gisc.irimo.ir/,"Iran, Islamic Republic of",Tehran,35.689200,51.389000,Islamic Republic of Iran Meteorological Organization (IRIMO),05.10.2019 14:27,Published,,IRN
e3a20a66-6be7-e911-a99e-000d3a44bf07,uwHWbkif71bkL5xisErgdmNbQaPxiwCfq9p1E0uNJl1WgbkA8qJV/BT5RWBvP7cLRCHN2wLtaxFoKUYgDm0tPw==,25.01.2020 08:26,GISC Tokyo,GISC,www.wis-jma.go.jp/cms/,Japan,Tokyo,35.676200,139.650300,Japan Meteorological Agency (JMA),05.10.2019 14:27,Published,,JPN
dba20a66-6be7-e911-a99e-000d3a44bf07,XhxBztBspJL4kVSGT2RHwa3ao9gAoVkUtptcKJYWNq+EkIwbk+1O3AoW3ZrrXs2Y3gj91DqG0vf6DSMCXm/YBw==,25.01.2020 08:26,GISC Toulouse,GISC,gisc.meteo.fr/,France,Toulouse,43.604700,1.444200,Météo-France (Toulouse),05.10.2019 14:27,Published,,FRA
f1a20a66-6be7-e911-a99e-000d3a44bf07,lstmUeWlWjYZ++f/6XObQ+X2HpztDpRIXcRyovl5aD8XjeaW5iCz4cLzOIhJ4Jz/pUtkcD1RkOYsQYLxV/S25Q==,25.01.2020 08:26,GISC Washington,GISC,giscportal.washington.weather.gov/,United States of America,Washington,38.907200,-77.036900,NOAA National Weather Service,05.10.2019 14:27,Published,,USA
708c78ba-44e9-e911-a9a5-000d3a44b27c,Fvja0bQ3mYcXX/s1fHcDEanMxZUxu3dAzkgq7ykSKZPx3bdrAG7IqpWR/fN7S5M2/l02JN6MALY69MTjEo1H8Q==,25.01.2020 09:54,GOSIC (Asheville),DCPC,gosic.org/,United States of America,Asheville,35.592413,-82.556419,National Oceanic and Atmospheric Administration (NOAA),07.10.2019 22:55,Published,GISC Washington,USA
5920ebc8-883f-ea11-b698-0003ff43d654,iFhNM4QHr2bpSu3ExgWOuNojGbUL0hczx4BxowqSF6RFd7rj+ctkAdRi1WbPdlh7Y4ndv8DUSFNxf2FqFcE4Jw==,25.01.2020 16:04,GPC (Beijing),Other,http://www.cma.gov.cn/en2014/,China,Beijing,39.900000,116.383333,China Meteorological Administration (CMA),25.01.2020 16:38,Published,,CHN
9657dae2-6d3f-ea11-b698-0003ff43d654,cEqdXUqbfRyv0QfxlE0uKAxrqS4T63Kjjnn0bUal4cYKMPEv0eWy4EeYX9Jly/o5K/s/nNaup1rog5nRC86cig==,25.01.2020 12:37,GPC (ECMWF),Other,https://www.ecmwf.int/,United Kingdom,Reading,51.270000,-0.580000,European Centre for Medium-Range Weather Forecasts (ECMWF),25.01.2020 13:26,Published,,ECM
bbd10fcc-623f-ea11-b698-0003ff43d654,Z5Edi/Gs8h9JORY1pF3Rdqhm7LEUPfv75ywcaCuRndMrdwqWQlvPcmKhCcxAq+GplpI9t+pOE8DcjHov1rYiWw==,25.01.2020 12:02,GPC (Melbourne),Other,http://www.bom.gov.au/wmo/operational.shtml,Australia,Melbourne,-37.810000,144.960000,Bureau of Meteorology,25.01.2020 12:06,Published,,AUS
6aa0df68-8b3f-ea11-b698-0003ff43d654,2jufayEn6ybKyRCZXE/f3dildO/rnpXaZmKJSHpYeerglPAHOpUnYxJZ4GTx3PgdCmpxKKpd1cIe7kARYkJbww==,25.01.2020 16:04,GPC (Montreal),Other,http://weather.gc.ca,Canada,Montreal,45.520000,-73.570000,Meteorological Service of Canada (MSC),25.01.2020 16:57,Published,,CAN
908768c9-8b3f-ea11-b698-0003ff43d654,rnVVVNOhjh4FnnNL85YeQO1rMeEv48XO8Qmh7REig0gMyQb4qAGwTz7ClwU3oybusIfEUvDVCyt4B9XKHktX/g==,25.01.2020 16:03,GPC (Moscow),Other,http://government.ru/en/department/49/,Russian Federation,Moscow,55.750000,37.620000,Russian Federal Service for Hydrometeorology and Environmental Monitoring (ROSHYDROMET),25.01.2020 17:00,Published,,RUS
c2a4d107-8a3f-ea11-b698-0003ff43d654,dyCM6Y3id8A3iro04Ao81XCk/C5h473VtV+OskiK7ZvT6gfr837V0Mg6+5rj22cajp2zhnrLj3DkhFlOLCAohg==,25.01.2020 16:03,GPC (Offenbach),Other,http://www.dwd.de,Germany,Offenbach,50.133333,8.783333,Deutscher Wetterdienst (DWD),25.01.2020 16:47,Published,,DEU
014db8d6-8a3f-ea11-b698-0003ff43d654,yN6LtM1+IKxJWxDuUyGvONrT4kYB8j33/OXYUezXf8Ezw+m4PFtWCTlXhe3akLpDyaNt9iqnuernsjLbZPeyUw==,25.01.2020 16:02,GPC (Pretoria),Other,http://www.weathersa.co.za/,South Africa,Pretoria,-25.730000,28.220000,South African Weather Service,25.01.2020 16:53,Published,,ZAF
11dc1050-3ce9-e911-a9a5-000d3a44b27c,HSPDNiMn8oCnTX3+RQN7fi7067MExbqlaM2JDXk+mE/imMkPkRhM3D4fvlN3tmwzfTKB/fkUSQixNBhSvwW9zw==,25.01.2020 09:54,GPC / LC-LRFMME (Seoul),DCPC,www.wmolc.org/,"Korea, Republic of",Seoul,37.550000,126.983333,Korea Meteorological Administration (KMA),07.10.2019 21:55,Published,GISC Seoul,KOR
5fc353a6-893f-ea11-b698-0003ff43d654,KCkKTq11rQWxojJtAGJKdwa4Zey02LZtIDLYE8UsYhBY89+QH+iZQM+rBim2jrrNiVDuaX6bh6ueNOvDB4Yfhw==,25.01.2020 16:02,GPC CPTEC (Brazil),Other,http://www.cptec.inpe.br,Brazil,Brasilia,-15.780000,-47.910000,Centro de Previsão do Tempo e Estudos Climáticos,25.01.2020 16:45,Published,,BRA
728c78ba-44e9-e911-a9a5-000d3a44b27c,JKkWGbWavn6gK0g1/w59jMCF2kfZJFffqUNSjITVjs/Bo6/+WHY5E3iloGPE5RXqqzelBu5NtF57mDj4Fa3gsg==,25.01.2020 09:54,GPC/LC-LRFMME (Washington),DCPC,,United States of America,Washington,38.910000,-77.020000,National Oceanic and Atmospheric Administration (NOAA),07.10.2019 22:55,Published,GISC Washington,USA
528c78ba-44e9-e911-a9a5-000d3a44b27c,dHd9YvO5vxwLoERRsTmkuZL3lvK1DShID70ohfOixRL0TQBHnz83DgEPL0eknD3vyimle2ml3wW9HCTBF9uMdg==,25.01.2020 13:44,GPC/LRF (Exeter),DCPC,,United Kingdom,Exeter,50.716667,-3.533333,Met Office,07.10.2019 22:55,Published,GISC Exeter,GBR
61932015-5be8-e911-a9a5-000d3a44b27c,5tEs4EdcCpL1DEK095ccCt9DBtyR9v0Q6YHQM4Ma3C3p00NR6dj9yXbtDtMNx+t6ivE4XJopDirfY3aO2bKRwg==,25.01.2020 09:54,GPC/LRF (Tokyo),DCPC,ds.data.jma.go.jp/tcc/tcc/products/model/index.html,Japan,Tokyo,35.683333,139.766667,Japan Meteorological Agency (JMA),06.10.2019 19:02,Published,GISC Tokyo,JPN
889f2da4-23e9-e911-a99e-000d3a44bf07,XngdivsXrx2JxHrqQ534s+C0nAhkZQ/8CH0zU0xUbxRmF9sdN1aQ+VsBWnkxCFhbH0dlO3APfXO9a7W+gq00QQ==,25.01.2020 09:54,GPC/LRF (Toulouse),DCPC,,France,Toulouse,43.604444,1.443889,Météo-France (Toulouse),07.10.2019 18:58,Published,GISC Toulouse,FRA
1dafee12-30e9-e911-a9af-000d3a4429b3,1MSdIc4Yjti59yjWSdo60HSRiXt8dZT1kqr4t6JGqXMYWwFQrIzT6a7afkTzezSxqhR1STZ2/ziyjWYK53XSCA==,25.01.2020 09:54,GPCC (Offenbach),DCPC,www.dwd.de/EN/ourservices/gpcc/gpcc.html,Germany,Offenbach,50.133333,8.783333,Deutscher Wetterdienst (DWD),07.10.2019 20:27,Published,GISC Offenbach,DEU
1fafee12-30e9-e911-a9af-000d3a4429b3,9GqaXKArxHp2apmJeqLb/PGDZ6XpkSvRyWgqLftioJLgamJKaO0I6yb0HeFtexJuPybIzlw6sh4qEiIZEA+bLg==,25.01.2020 09:54,GRDC (Koblenz),DCPC,www.bafg.de/GRDC/EN/Home/homepage_node.html,Germany,Koblenz,50.359042,7.590179,Deutscher Wetterdienst (DWD),07.10.2019 20:27,Published,GISC Offenbach,DEU
21afee12-30e9-e911-a9af-000d3a4429b3,MuAcyfRf5dVKf3XTYnWbHAt6D51t/Uw516R7+A/P08Ar38JQ2+/lGAziIKw2CbquSwYid4KK8JcWorhCJw4QRA==,25.01.2020 09:54,GRUAN-LC (Lindenberg),DCPC,www.dwd.de/EN/research/international_programme/gruan/lc.html,Germany,Lindenberg,47.603385,9.887781,Deutscher Wetterdienst (DWD),07.10.2019 20:27,Published,GISC Offenbach,DEU
8f932015-5be8-e911-a9a5-000d3a44b27c,QWS6KTTThNm4vz8z80U/FM8WQ219U8ll4XLad9cznJ5ogAv/ZdMIPvu7dQz20PlkakWOdViwoGh1+1mHWnxlfg==,25.01.2020 09:54,Gulf Marine Centre (GMC) (Doha),DCPC,gmc.dcpc.gov.qa/,Qatar,Doha,25.283333,51.533333,Civil Aviation Authority,06.10.2019 19:02,Published,GISC Jeddah,QAT
946c4c14-47e9-e911-a9af-000d3a4429b3,dv5WpkKlxicg7sAcDESjgDzYN21rnzdHX55r/QCYFY0HDhsGJZCoAfo4JZiElBkR8UvOCnEVz3QWMJN04MGKrg==,25.01.2020 09:54,Indian Ocean Tsunami Warning Centre (IOTWC) (Jakarta),DCPC,wis.bmkg.go.id/index.php?portal=dcpc&lang=en,Indonesia,Jakarta,-6.180000,106.830000,"Meteorological, Climatological and Geophysical Agency (BMKG)",07.10.2019 23:12,Published,GISC Melbourne,IDN
969f4406-76e8-e911-a99f-000d3a4421be,u4niU4OG7qnGwAegEuNCjZvPkJX0sww3ti83R9zXe1ulcWRUA/SC+iECD2n9ucd2/NkRD4Ai25eGmWaQ2CceoA==,25.01.2020 09:54,IPS (Space Weather) (Sydney),DCPC,www.ips.gov.au/,Australia,Sydney,-33.870000,151.210000,Bureau of Meteorology,06.10.2019 22:15,Published,GISC Melbourne,AUS
989f4406-76e8-e911-a99f-000d3a4421be,iKgRTChbroFRbHg8e+1PqiCq1RI8U1amhvchzbmYh/wWV7kWKOfZdaDMujsWXm4Zs9TDuEOXVkWdtmbU1Zt0qA==,25.01.2020 09:54,JATWC (Melbourne),DCPC,www.bom.gov.au/tsunami/,Australia,Melbourne,-37.810000,144.960000,Bureau of Meteorology,06.10.2019 22:15,Published,GISC Melbourne,AUS
99290124-7de8-e911-a99e-000d3a44bf07,en4HyCtvacyck7cacYT9Qf/gmroreJrd+vC7FJkxbJh29ESGlrG0NW5IkSw7A637KlZUGsY5PUMHxkqFqwjsiQ==,25.01.2020 09:54,Marine Meteorological Centre (Split),DCPC,www.ammc.hr:8080/geoportal/catalog/main/home.page,Croatia,Split,43.507725,16.439667,Meteorological and Hydrological Service of Croatia,06.10.2019 23:06,Published,GISC Offenbach,HRV
548c78ba-44e9-e911-a9a5-000d3a44b27c,A+oK9rVzX6x8pp8aJ37WduGoWIVtAaAUd7/XjZG14KEsKoPfAeGtOwZ2HDTM3bdqZv+ugATDGfnexsmBCuELLg==,25.01.2020 09:54,Marine Observations Centre (Edinburgh),DCPC,,United Kingdom,"Edinburgh,  Scotland",55.950000,-3.200000,Met Office,07.10.2019 22:55,Published,GISC Exeter,GBR
17dc1050-3ce9-e911-a9a5-000d3a44b27c,mgvMhKuR+bBYbGpC+keWDcjLfMI8/xYZz9C/Cv0chhEfAKYjmcjv3CwMvsDl+Z53dNuNlBw8nEJqckYFDyS9ig==,25.01.2020 09:54,MEDARE (Tarragona),DCPC,app.omm.urv.cat/urv/index.php,Spain,Tarragona,41.124884,1.237335,Agencia Estatal de Meteorología (AEMET),07.10.2019 21:55,Published,GISC Toulouse,ESP
400077cc-41e9-e911-a9af-000d3a4429b3,q4dz7WjWEqLrWTt3zfN72W/ZzsfSwbmjf/tX6z5U7y6zqEY6EPl/bmixGjxpQcHpIgRQvnwxFDuPlYoNGtr1gw==,03.04.2020 21:43,Met Office (Pitcairn Islands),NC,no.url.available,United Kingdom,Adamstown,-24.376800,-128.324200,Met Office,07.10.2019 22:34,Published,GISC Exeter,GBR
85290124-7de8-e911-a99e-000d3a44bf07,Nw0l+JbYwb7ja0OhHOXTKZKoEIGgJwEhUZ6MbxG2fWIp9rXTU9GT6JAAO4KP6uw+KyrZP5GD0Ic16Frexh5E+A==,25.01.2020 09:54,National Satellite Meteorological Centre (NSMC) (Beijing),DCPC,,China,Beijing,39.900000,116.383333,China Meteorological Administration (CMA),06.10.2019 23:06,Published,GISC Beijing,CHN
748c78ba-44e9-e911-a9a5-000d3a44b27c,GBkH2W6/ZHBIGOyRO/kADkwNy651bg4K9pjGvZww5+FpMoU9u3AA9Cl47xRF/audIwyzOXnikOn6kXA23xyQYg==,25.01.2020 09:54,NCAR (Boulder),DCPC,ncar.ucar.edu,United States of America,Boulder,40.017624,-105.271339,National Oceanic and Atmospheric Administration (NOAA),07.10.2019 22:55,Published,GISC Washington,USA
9a9f4406-76e8-e911-a99f-000d3a4421be,4upAVFJze2cPh7mDvmxhZEZkWv8eC63vZHH/ZjdEXBsw5A3eGQ8g4w1ZDNjIcDMl1QKeW3wuBdpHNpSmLE8kTg==,25.01.2020 09:54,NCC (Melbourne),DCPC,www.bom.gov.au/climate/,Australia,Melbourne,-37.810000,144.960000,Bureau of Meteorology,06.10.2019 22:15,Published,GISC Melbourne,AUS
768c78ba-44e9-e911-a9a5-000d3a44b27c,30UXa+QynwkN9LiUlbC05bQ/aJZ9af17zlB6hZErAQuyZeprdchkYtTc45S5sYZMYVZ71CkZHNyCAYjEwHJtXw==,25.01.2020 09:54,NCEI (Washington),DCPC,www.ncei.noaa.gov,United States of America,Washington,38.910000,-77.020000,National Oceanic and Atmospheric Administration (NOAA),07.10.2019 22:55,Published,GISC Washington,USA
788c78ba-44e9-e911-a9a5-000d3a44b27c,irlsmvwVXMP7Fn89+hpvAQ30SCE4OsKgAhbR08rjHBZTA0i7NIhyBAxgt9ah8f+01pZsEbC5TPa2kN1gZc7p7w==,25.01.2020 09:54,NCEP (Washington),DCPC,www.ncep.noaa.gov/,United States of America,Washington,38.910000,-77.020000,National Oceanic and Atmospheric Administration (NOAA),07.10.2019 22:55,Published,GISC Washington,USA
50e509f3-4ae8-e911-a9b0-000d3a44bd9c,Wl1RmT3mOn9sJgEWogzO9V92gwdfhmCNY/8GC4E2KoLBEemhHhKJJ/ZsGlVdxXqrt6XJfcUU3v+ukB2wmYIdlw==,25.01.2020 08:39,NHS (Canberra),NC,www.bom.gov.au/australia/flood/,Australia,"Canberra,  Australian Capital Territory",-35.283333,149.133333,Bureau of Meteorology,06.10.2019 17:07,Published,GISC Melbourne,AUS
73932015-5be8-e911-a9a5-000d3a44b27c,C3/AeDRxmxaWm2dbre0eo/CHqvqBspfBGlWz/iIl3F1QUrErzkKJMF/DdOF0kA8bGS+5fmRXDVpvRAkWgQvGxw==,25.01.2020 09:54,NICT (Space Weather) (Tokyo),DCPC,swc.nict.go.jp/contents/index_e.php,Japan,Tokyo,35.683333,139.766667,Japan Meteorological Agency (JMA),06.10.2019 19:02,Published,GISC Tokyo,JPN
18f7ae20-34e9-e911-a9b0-000d3a44bd9c,lG8Ms6R7jO1wUZYko5UH1GosRE/fbvK9AyWLkqoeAO8bsLBOyRwZCGdd0luNGXh83eHtdFEXXdo/uFOhjm8jBg==,06.04.2020 21:21,NMC (Abidjan),NC,http://www.sodexam.ci,Côte d'Ivoire,Abidjan,5.330000,-4.030000,Direction de la Météorologie Nationale (SODEXAM),07.10.2019 20:56,Published,GISC Casablanca,CIV
4fdc1050-3ce9-e911-a9a5-000d3a44b27c,Cxe2IHq8QH9EkdfFYCrkINrC2FU9GlHK/KxiQxsAR8KAjZijoswoFbdPthflgAzNVBWTFMywG7sJIZUf7+6TIg==,25.01.2020 08:39,NMC (Abu Dhabi),NC,www.ncms.ae/english/,United Arab Emirates,Abu Dhabi,24.480000,54.370000,"Environment Agency, Abu Dhabi",07.10.2019 21:55,Published,GISC Jeddah,ARE
7779ba7d-31e9-e911-a9af-000d3a4429b3,62Jguv3GJVzfNm1e9xVsslDiTdejI3M6Sd/Dlys2ng4ZNvt3G+S3eo3DrSygHUksnTbQtGxrvCx743tK75+sWw==,25.01.2020 08:38,NMC (Accra),NC,www.meteo.gov.gh/,Ghana,Accra,5.560000,-0.200000,Ghana Meteorological Agency,07.10.2019 20:37,Published,GISC Casablanca,GHA
4863d7a0-21e9-e911-a9b0-000d3a44bd9c,clgT/sUcxfWzMpjRC4OpVayUqxElfbDWYOmr/yqegGog70IhrCkbyZP9Q6PclSx40e65vr0P895+OIEHrl1N9g==,25.01.2020 16:20,NMC (Addis Ababa),NC,www.ethiomet.gov.et/,Ethiopia,Addis Ababa,9.033333,38.733333,National Meteorological Agency,07.10.2019 18:44,Published,GISC Offenbach,ETH
343359d3-76e8-e911-a9af-000d3a4429b3,huL9G2s7vWqaoHZcE7sDyfL6ka5HfMoBvUN/YQi/B6c/l9FRpV0AjeKmeqC+aGtuCa2Y1vKfd/h/OX8RG3nqNw==,25.01.2020 16:20,NMC (Algiers),NC,www.meteo.dz,Algeria,Algiers,36.770000,3.040000,Office national de la météorologie (ONM),06.10.2019 22:21,Published,GISC Toulouse,DZA
725014c9-63e8-e911-a9b0-000d3a44bd9c,SxrI+onmUL6I47APzkE+mEuP+2HIqUqvxpBJJyfKQzY3LJQ252zNUMFMnQpzNKeuoeJdV1obvBoQ9OO+Bpj2/w==,25.01.2020 08:39,NMC (Alofi),NC,informet.net/niuemet,New Zealand,Alofi,-19.166667,-169.916667,Niue Meteorological Service,06.10.2019 20:05,Published,GISC Melbourne,NZL
b9c55af3-50e8-e911-a9af-000d3a4429b3,8hwzRTmkzJ66tX49WeYrm8l1qoHg/kSSqyJ/TjS/6ao0C20Hv49vlmT5MW6Z6IhYe62uo8XizBxKjfAYYsAUUw==,25.01.2020 16:20,NMC (Amman),NC,www.jometeo.gov.jo/,Jordan,Amman,31.950000,35.933333,Jordan Meteorological Department,06.10.2019 17:50,Published,GISC Offenbach,JOR
f3db1050-3ce9-e911-a9a5-000d3a44b27c,uVZIm+XIlGRUULgzZadBA7CQ9oaDSUBFRXMeZGsE+Erbs1OQkLU7TraOPTm0yVK6A2ftSgUkqAqTq4/Q10PVkw==,25.01.2020 08:38,NMC (ANACIM) (Dakar),NC,www.meteo-senegal.net/,Senegal,Dakar,14.720000,-17.480000,Agence nationale de l'Aviation Civile et de la Météorologie (ANACIM),07.10.2019 21:55,Published,GISC Casablanca,SEN
360077cc-41e9-e911-a9af-000d3a4429b3,sCpGDttMQqmqTUgJ07QF6vX96wi0tbx/Yx8BSfi4JQKjBtPOIfFC1VbXDf7XidC3zV+iCrJ8lVEG6gvjeYflow==,25.01.2020 16:20,NMC (Ankara),NC,www.mgm.gov.tr,Turkey,Ankara,39.930000,32.850000,Turkish State Meteorological Service (TSMS),07.10.2019 22:34,Published,GISC Offenbach,TUR
61cf3bca-6ae8-e911-a9af-000d3a442d08,CXghOqMjZX3aA8wBLtXofcfxemUYZwS/aqSUtD9aOGSz6L+pWvh8CwnC0STsA8JQ8EP8LWPyAdAUn6YwcpS1FA==,25.01.2020 08:38,NMC (Antananarivo),NC,www.meteomadagascar.mg/,Madagascar,Antananarivo,-18.890000,47.510000,Direction Générale de la météorologie,06.10.2019 20:55,Published,GISC Casablanca,MDG
e5db1050-3ce9-e911-a9a5-000d3a44b27c,lv+IbyTquqBQeYLV91l6cJNC8XzXUZKmMmvQpmYUrSDdmeprmSmSXo24L/uSGyCmGqjKnHVGLTWeYEm3Rt6b5g==,25.01.2020 08:39,NMC (Apia),NC,www.mnre.gov.ws/,Samoa,Apia,-13.833333,-171.833333,Samoa Meteorology Division,07.10.2019 21:55,Published,GISC Melbourne,WSM
3a0077cc-41e9-e911-a9af-000d3a4429b3,0xPSt8XxclHc9EebYNH1ck4TLT3cddItPELaSXoWI0SUkSFHeJFIJ6BzUbLVaAix8I5iwgCA+voBAHsWARA6ZQ==,25.01.2020 16:20,NMC (Ashgabat),NC,no.url.available,Turkmenistan,Ashgabat,37.966667,58.333333,Hydrometeorology Service of the Ministry of Agriculture and Environmental Protection of Turkmenistan,07.10.2019 22:34,Published,GISC Moscow,TKM
80c55af3-50e8-e911-a9af-000d3a4429b3,zXpJ5dEm3F8k83qU3xVVq4dCBCaHRA9yNRhyUxfmZQeBdOvAMuwxzynIAYw5myxT9Gjx0IHsnEHYwCHaDhwnLA==,25.01.2020 16:20,NMC (Asmara),NC,no.url.available,Eritrea,Asmara,15.333333,38.933333,Civil Aviation Authority,06.10.2019 17:50,Published,GISC Casablanca,ERI
bbc55af3-50e8-e911-a9af-000d3a4429b3,0tKcAGFo9gc+xguRZzKddxKJYa30e3AYYdky1dzwol5h+KaBg7Nd6ak11w+iXbGgQhOzDyTzf7hbJ0sjupXjMQ==,25.01.2020 16:20,NMC (Astana),NC,no.url.available,Kazakhstan,Astana,51.166667,71.433333,Kazhydromet,06.10.2019 17:50,Published,GISC Moscow,KAZ
2812f6eb-71e8-e911-a9a5-000d3a44b27c,jtAL9EZqrW1LtuaT55fWcODTB8GJsb/1ON3i9iSvq+noue3D2qqzqbc1lWst8qlkj9JxIZqjbrAG5jCrWnCyOA==,25.01.2020 08:39,NMC (Asunción),NC,www.meteorologia.gov.py,Paraguay,Asunción,-25.300000,-57.630000,Dirección de Meteorología e Hidrología - DINAC,06.10.2019 21:46,Published,GISC Brasilia,PRY
35afee12-30e9-e911-a9af-000d3a4429b3,Mhw9YPGFgiEkGUDFjLDailMW5Egq0wNGAb5aBN/NURps6FPiR+v2+HmVbxPZ84j0KGE0aeY1p53UXRY+av/cIw==,25.01.2020 16:20,NMC (Athens),NC,www.hnms.gr/,Greece,Athens,37.980000,23.730000,Hellenic National Meteorological Service (HNMS),07.10.2019 20:27,Published,GISC Offenbach,GRC
95290124-7de8-e911-a99e-000d3a44bf07,sCYmXxpLAK3kSvQNSPBbt11sQ6gk3TuKVESXoaglDxg8I8944xdoGDApFuF0sfq+wfh1ME7L0Rkf3rQhjJKTdA==,25.01.2020 16:20,NMC (Avarua),NC,www.cookislands.pacificweather.org/,Cook Islands,Avarua,-21.200000,-159.766667,Cook Islands Meteorological Service,06.10.2019 23:06,Published,GISC Melbourne,COK
24f7ae20-34e9-e911-a9b0-000d3a44bd9c,Zng0em1iwzEZZxVUB512geO+M0+UoT8+ppu2kuSVpCf4Mp4UPJxuK9DFCSKeJfzL0r1ejaMr4xXgjLyARi1t5g==,25.01.2020 16:20,NMC (Bagd?d),NC,no.url.available,Iraq,Bagd?d,33.330000,44.440000,Iraqi Meteorological Organization & Seismology,07.10.2019 20:56,Published,GISC Tehran,IRQ
a69f4406-76e8-e911-a99f-000d3a4421be,yh3ZY+kw/r51FFDL54rRoPqkBmlVCKYPM/hbAeU2oEHrM3bnVm2DVgS0XycWbgu/0HgxrWGmGR4xWUNPtI7Vyg==,25.01.2020 16:20,NMC (Baku),NC,www.eco.gov.az/,Azerbaijan,Baku,40.390000,49.860000,National Hydrometeorological Department,06.10.2019 22:15,Published,GISC Moscow,AZE
1c6bae9b-4fe8-e911-a9af-000d3a4429b3,7EQzPooZjxofK2vXkUnadMrJToPObDM8dYUvRdehCiL7lj9ISYUAHDtUuqQmgwOdekTtVxA5xlW5n7p2loNV2w==,25.01.2020 16:20,NMC (Bandar Seri Begawan),NC,www.bruneiweather.com.bn/,Brunei Darussalam,Bandar Seri Begawan,4.883333,114.933333,Brunei Darussalam Meteorological Department,06.10.2019 17:40,Published,GISC Melbourne,BRN
31dc1050-3ce9-e911-a9a5-000d3a44b27c,fteUbXSUO3kVr1T6Wkw+yV/rL/yobLShiFITBqaTFtuwJxCpm/2Nl404+FsYY0qdV30LfvR2PhgQ3i1RHVcVPw==,25.01.2020 16:20,NMC (Bangkok),NC,www.tmd.go.th/,Thailand,Bangkok,13.730000,100.500000,Thai Meteorological Department,07.10.2019 21:55,Published,GISC Tokyo,THA
7f290124-7de8-e911-a99e-000d3a44bf07,RL/pxaFyZKoW6WFuPMJ2w4l15Rs1KeMRYQPFBYmQRn2wj13W18UhEB47pOUJPQwoUtbsHfDWbc+qkGVSBJZxyA==,25.01.2020 16:20,NMC (Bangui),NC,no.url.available,Central African Republic,Bangui,4.360000,18.560000,Direction de la Météorologie et de l'Hydrologie,06.10.2019 23:06,Published,GISC Casablanca,CAF
8dc55af3-50e8-e911-a9af-000d3a4429b3,ltZuEGCGfCNWpqAQqRWReCMfgkJoPJpmOnPJk3pNHT2ojxuGPo2x7ltKo6UA97ten+PxoxIG0Lt42XEjAggoHA==,25.01.2020 16:20,NMC (Banjul),NC,no.url.available,Gambia,Banjul,13.450000,16.566667,,06.10.2019 17:50,Published,GISC Casablanca,GMB
e1db1050-3ce9-e911-a9a5-000d3a44b27c,P13Jx1Zu3vfdqAOdouNJFtSeJQC/icN8ixOD33heNt+D1BXFJxy0O+4pba/8YCDyqR92dr3sgRc73EZuuPf9ag==,25.01.2020 16:20,NMC (Basseterre),NC,no.url.available,Saint Kitts and Nevis,Basseterre,17.300000,-62.733333,,07.10.2019 21:55,Published,GISC Washington,BCT
87290124-7de8-e911-a99e-000d3a44bf07,rl9mDDjZzEZSpp5EVzGxeC3vIQryMN/hikaXXUsw7Nei+9TaY2ZD/A70pH6ErxDj0MLm+iYHgs+4hbv5KwMi9w==,25.01.2020 08:39,NMC (Beijing),NC,www.cma.gov.cn/,China,Beijing,39.900000,116.383333,China Meteorological Administration (CMA),06.10.2019 23:06,Published,GISC Beijing,CHN
79932015-5be8-e911-a9a5-000d3a44b27c,Hc1K49P8B43bAmAqQKw2m2lbAY6E8/a17HTLqDHZe8nFccKVUgAVVfGaZhG1tawC0ihQz1hMZ+wKSvKsPkapdQ==,25.01.2020 16:20,NMC (Beirut),NC,no.url.available,Lebanon,Beirut,33.883333,35.516667,Service météorologique,06.10.2019 19:02,Published,,LBN
f9db1050-3ce9-e911-a9a5-000d3a44b27c,34Q/Q8c5jJ27irtm5W2UHtSxcDS90xOksAsvqeT4dkj0/B7ZktwDjmU1wLhxjZkT4jYaHslgkUIsYQjHPlkxlg==,25.01.2020 16:20,NMC (Belgrade),NC,wis-geo.hidmet.gov.rs,Serbia,Belgrade,44.830000,20.500000,Republic Hydrometeorological Service of Serbia,07.10.2019 21:55,Published,GISC Offenbach,SRB
58e509f3-4ae8-e911-a9b0-000d3a44bd9c,We6A8h6JiBrlJ3DYLXKjAUwZpGgkOwat1yNaEmgRGxbr0hNqQCOB5LZdWGkh3GU2jZU5GpU8ihv2ECPSCDLRHA==,25.01.2020 16:20,NMC (Belize City),NC,www.hydromet.gov.bz/,Belize,Belize City,17.500000,-88.183333,"Meteorological Service, Jamaica",06.10.2019 17:07,Published,GISC Washington,BLZ
75932015-5be8-e911-a9a5-000d3a44b27c,SGkoDV2P3lvrk/CLjzWIMUfaeeCsJc9xcU57AU7ly+wleWvCn/gAHz/87g1FJK1Q+mw1wBr+4PrhUZVALlHVJA==,25.01.2020 16:20,NMC (Bishkek),NC,www.meteo.ktnet.kg/,Kyrgyzstan,Bishkek,42.866667,74.616667,Agency of Hydrometeorology under the Ministry of Emergency Situations of the Kyrgyz Republic-Kyrgyzhydromet,06.10.2019 19:02,Published,GISC Moscow,KGZ
3bafee12-30e9-e911-a9af-000d3a4429b3,VAVBMvKzmPlk3E8r8edCKzosTYdvlWk0TWqLQhUDtdaBhvfsUPZ52JsuQrctITNcK8CX7ydDoOoJ4h1RoxHElw==,25.01.2020 08:38,NMC (Bissau),NC,www.meteo-guinee-bissau.net/,Guinea-Bissau,Bissau,11.850000,-15.566667,Instituto Nacional de la Meteorológia (INM-GB),07.10.2019 20:27,Published,GISC Casablanca,GNB
966c4c14-47e9-e911-a9af-000d3a4429b3,3tosTsVsciIVUvx5VuxPy/mHhR0WwvUPc/NG5M85B+aHup3gX6zDIsvW9Sp1m6MA2swcmJN9blEfllidnwXXaA==,03.04.2020 21:14,NMC (Bogotá),NC,www.ideam.gov.co/,Colombia,Bogotá,4.711000,-74.072100,"Instituto de Hidrología, Meteorología y Estudios Ambientales - IDEAM",07.10.2019 23:12,Published,GISC Brasilia,COL
14edd240-79e8-e911-a99f-000d3a4421be,YTMLhSdxBBKTQTnUdRvi/zZ71ZG03c1TMNp4eX1LE394XzlPDi04hA6GG+zFIBZcMpI6X+VzIbIw0x0cWrxswQ==,25.01.2020 08:39,NMC (Brasília),NC,www.inmet.gov.br/portal/,Brazil,Brasília,-15.780000,-47.910000,Instituto Nacional de Meteorología (INMET),06.10.2019 22:38,Published,GISC Brasilia,BRA
05dc1050-3ce9-e911-a9a5-000d3a44b27c,3m5wbefylYxpohKoYNXN8pkaVU4gNhWDEG2OuJSf6yQs289dxos5O7x7K2XKAAt5tkE5cxYtR+Zy4IZzESkN7A==,25.01.2020 16:20,NMC (Bratislava),NC,www.shmu.sk/,Slovakia,Bratislava,48.150000,17.116667,Slovak Hydrometeorological Institute,07.10.2019 21:55,Published,GISC Offenbach,SVK
6e5014c9-63e8-e911-a9b0-000d3a44bd9c,sNta+63QZuKEZfwbxIRyzJH8E3Ho+S7tvy4bV0KKdbbga4h/VkU7lZ9TNhWRrf88zN2zGs7owvb8Pc9oNYg6pg==,25.01.2020 08:38,NMC (Brazzaville),NC,www.meteo-congo-brazza.net/,"Congo, Republic of the",Brazzaville,-4.250000,15.260000,"Direction de la météorologie, Congo",06.10.2019 20:05,Published,GISC Casablanca,COG
56e509f3-4ae8-e911-a9b0-000d3a44bd9c,WaqdKVpC1PdMy2+3CeWSwa6ft4bbK3omRZEpW1qCa9QEIZXUJHBzY1Rcy6R11vivifNtXl+mGUtGC8R2xQuK4A==,25.01.2020 16:20,NMC (Bridgetown),NC,www.barbadosweather.org/,Barbados,Bridgetown,13.116667,-59.616667,Barbados Meteorological Services,06.10.2019 17:07,Published,GISC Washington,BRB
0cedd240-79e8-e911-a99f-000d3a4421be,gNdrec6azrORhIx+9mA66VHhwTlblEEg/yGxMpwlPoAr1LFRGC01NkQsXTKZna6y6aJp9zhIsAKk2hqu7xVu8Q==,25.01.2020 16:20,NMC (Brussels),NC,www.meteo.be/,Belgium,Brussels,50.830000,4.330000,Institut royal météorologique,06.10.2019 22:38,Published,GISC Toulouse,BEL
ae73e691-73e8-e911-a99f-000d3a4421be,sGo2bA8Uw9vHzLI2gHbyYloFI3uU3CB08df8RfqLEIu34kf6sOeKQnTFEeOKhCsRAVPTD6O6oQWXJQ0Snah42w==,25.01.2020 16:20,NMC (Bucharest),NC,www.meteoromania.ro,Romania,Bucharest,44.440000,26.100000,"National Meteorological Administration, Romania",06.10.2019 21:58,Published,GISC Offenbach,ROU
cb7e910f-32e9-e911-a9a5-000d3a44b27c,dKe9GzvpRqSix0eBLAFo7I2QoUFpWIVc3YNIIGPY/mMsUQoifaTgK2Qp5yUjcXcYmbi0/cbEZ/LhEjJRyzfSww==,25.01.2020 16:20,NMC (Budapest),NC,www.met.hu/omsz.php,Hungary,Budapest,47.510000,19.080000,Hungarian Meteological Service (OMSZ),07.10.2019 20:41,Published,GISC Offenbach,HUN
889f4406-76e8-e911-a99f-000d3a4421be,t1X4OE+MCPiLr5CcMlHT1VOYpKBZePGoRkdwwglKmajjDTvW/IOv8zWomXQmBP8G/ovmaC9TRBkn2hCMmLdo1w==,25.01.2020 08:39,NMC (Buenos Aires),NC,www.smn.gov.ar/,Argentina,Buenos Aires,-34.610000,-58.370000,Servicio Meteorológico Nacional (SMN),06.10.2019 22:15,Published,GISC Brasilia,ARG
206bae9b-4fe8-e911-a9af-000d3a4429b3,cnENdDqlYb5/rHCLhIa2lWCNpUqjxptMutRf6R9gpY02fNTF6qOvuanDaKB+NWzslbwU4PZBFD8n2SxeZLmStw==,25.01.2020 16:20,NMC (Bujumbura),NC,no.url.available,Burundi,Bujumbura,-3.383333,29.366667,Institut Géographique du Burundi (IGEBU),06.10.2019 17:40,Published,GISC Casablanca,BDI
3863d7a0-21e9-e911-a9b0-000d3a44bd9c,9r4Ayw9/7DrPY6TL3zWCYv4Fxf8WuyoX/tSfuBlAKCz6wXp+3NGHB8aDQwWb737C2xbXBheU9v15+1E6VN1+EA==,25.01.2020 08:38,NMC (Cairo),NC,www.nwp.gov.eg/,Egypt,Cairo,30.060000,31.250000,The Egyptian Meteorological Authority,07.10.2019 18:44,Published,GISC Casablanca,EGY
19dc1050-3ce9-e911-a9a5-000d3a44b27c,iWxF39zzWFeD1y+VSxPW2JNILTbVXrIxtEK56mGswegSuU2BgGYf41iVHlG40HhbAXcH7FQme0nJlWaNr9IxeQ==,25.01.2020 16:20,NMC (Canary Islands),NC,no.url.available,Spain,"Santa Cruz de Tenerife,  Canary Islands",28.466667,-16.250000,Agencia Estatal de Meteorología (AEMET),07.10.2019 21:55,Published,GISC Toulouse,ESP
43e192c6-6ce8-e911-a9af-000d3a442d08,rM2K1EhxZYnF4cQ4Ib4SdZeUMiiWZyW8N/Ng00bq4B/1SYIBQHe/RmviPKn8Tj60WeOFW/RfMsyj8u18Aooslw==,25.01.2020 08:38,NMC (Casablanca),NC,www.marocmeteo.ma/,Morocco,Casablanca,33.600000,-7.620000,Department of National Meteorology of Morocco,06.10.2019 21:09,Published,GISC Casablanca,MAR
e3db1050-3ce9-e911-a9a5-000d3a44b27c,OMEguDd1nX0HEmWvTgWlZGZNi1ja5iTqn0k5hUSZqxvHg8XIMymHRdza6wfmCBWPOJogU4Vq1RWu0uTR+wQBEw==,25.01.2020 16:20,NMC (Castries),NC,www.cdera.org/weather/stlucia.php,Saint Lucia,Castries,14.016667,-60.983333,Meteorological Services,07.10.2019 21:55,Published,GISC Washington,LCA
226bae9b-4fe8-e911-a9af-000d3a4429b3,3sv5r4eSPmGidj+b7fXpMGkFZacvbrCWpbBTcArTw83TLFYZ3GafbaNzgeBy86NlSBuJCs1R5GGaT8hnKy73Lg==,03.04.2020 21:18,NMC (Cayman Islands),NC,no.url.available,Cayman Islands,"George Town, Grand Cayman",-19.300000,-81.366667,Caribbean Meteorological Organization,06.10.2019 17:40,Published,GISC Washington,GBR
1ddc1050-3ce9-e911-a9a5-000d3a44b27c,ogrlzFsqjSaLNGnxfc1W5wcB4a6/wkYo/sSwnKyoBvhTus696Y3DtOIgcvos3qntI4vktotmp7KJxfJHH+ehvw==,25.01.2020 16:20,NMC (Colombo),NC,www.meteo.slt.lk/,Sri Lanka,Colombo,6.930000,79.850000,Department of Meteorology of Sri Lanka,07.10.2019 21:55,Published,GISC New Delhi,LKA
39afee12-30e9-e911-a9af-000d3a4429b3,E0YQhVlmfWqVLLOK59wMuHwuYjxm9xq/m4120ie9vH6RkuvuVRgFYVkiY9vElKuxWiL3QY3xdzvM3yAYmn88+w==,25.01.2020 08:38,NMC (Conakry),NC,www.meteo-guinee-conakry.net/,Guinea,Conakry,9.550000,-13.670000,"Direction nationale de la météorologie, Guinea",07.10.2019 20:27,Published,GISC Casablanca,GIN
7ac55af3-50e8-e911-a9af-000d3a4429b3,qhwqRCzrlK/yoEHqxAsCJm/dkSCnBD65knnzDlWkSpQS6SgEoewsoAvvxXPFYjHm8ZmT+WL7mJtVlGcUCabKuw==,25.01.2020 16:20,NMC (Copenhagen),NC,www.dmi.dk/,Denmark,Copenhagen,55.716667,12.566667,Geological Survey of Denmark and Greenland,06.10.2019 17:50,Published,GISC Offenbach,DNK
0eedd240-79e8-e911-a99f-000d3a4421be,NDCW+1fjZkkAVF+M1t68fB/0ASwf7TB+WkGN12/Eva0eOTuCFpsdziFzHWw5PmKoc8SzoRU14DnMCN1cM0WuLQ==,25.01.2020 08:38,NMC (Cotonou),NC,www.meteo-benin.net/,Benin,Cotonou,6.360000,2.440000,Agence Nationale de la Météorologie (METEO BENIN),06.10.2019 22:38,Published,GISC Casablanca,BEN
2bdc1050-3ce9-e911-a9a5-000d3a44b27c,DvNJU7tIjb3LI2MvzO5M2eucUZG38NIOBLrurLJXi0ghaTnVpGixo1MIYPqVy+o6wkS+GYD051xaR575jYrK2A==,25.01.2020 16:20,NMC (Damascus),NC,no.url.available,Syrian Arab Republic,Damascus,33.500000,36.320000,Syrian Meteorological Department,07.10.2019 21:55,Published,GISC Tehran,SYR
300077cc-41e9-e911-a9af-000d3a4429b3,MeC4i45bWs4+w3kgoDX/M00/XM8bmmiF1rMX1CLZscETzBC44Aa7SNdb/Z+kpw/hw0N3vTR5uFyowB+Oa8KCCA==,25.01.2020 08:39,NMC (Dar es Salaam),NC,www.meteo.go.tz/,"Tanzania, United Republic of",Dar es Salaam,-6.820000,39.280000,Tanzania Meteorological Agency (TMA),07.10.2019 22:34,Published,GISC Exeter,TZA
54e509f3-4ae8-e911-a9b0-000d3a44bd9c,xRG4vcl1NWYsveltcGSaFn+mJh48swBctkl3KuL8C6wlzvRM5Miujbzl5vbcbMYBAPRH22HMM64/80XmSsjf2g==,25.01.2020 16:20,NMC (Dhaka),NC,www.bmd.gov.bd/,Bangladesh,Dhaka,23.700000,90.383333,Bangladesh Meteorological Department,06.10.2019 17:07,Published,GISC New Delhi,BGD
320077cc-41e9-e911-a9af-000d3a4429b3,YzFNZyWwkxDxAD+hO7bxujQgmeSnH2nhpjLMoHkV//8EBUpERPmEA0QyN7PTNjPGu44BSP0UOoLrY0N02meFGA==,25.01.2020 16:20,NMC (Dili),NC,www.dnmg.gov.tl/,Timor-Leste,Dili,-8.566667,125.566667,c/o Permanent Mission of the Democratic Republic of Timor-leste,07.10.2019 22:34,Published,GISC Melbourne,TLS
3063d7a0-21e9-e911-a9b0-000d3a44bd9c,bIuTVn3tZi5BhLEG8IgiRf9MtmVIYbAOkHIj6lo/JDqEk5WUZ2jXJEdBMJxtpzaAoS08Y+zqp9aadSs9wqBVNg==,25.01.2020 16:20,NMC (Djibouti),NC,no.url.available,Djibouti,Djibouti,11.590000,43.150000,Direction de l'aviation civile et de la météorologie,07.10.2019 18:44,Published,GISC Casablanca,DJI
8b932015-5be8-e911-a9a5-000d3a44b27c,qCyGTg4rAZs9PEZosT71QhN6Z4sk4hvu+tk4CcrLmG3QmevPadHMahMXFhFEmbv7k0Van4eMheTIOTtpzEUpYw==,25.01.2020 08:38,NMC (Doha),NC,qweather.gov.qa/,Qatar,Doha,25.283333,51.533333,Civil Aviation Authority,06.10.2019 19:02,Published,GISC Jeddah,QAT
77290124-7de8-e911-a99e-000d3a44bf07,83XpcgfJ4VbYiD6bVaLR9mteT9YDtajgxja3sUjx3n2F8VKqMyAzZTzbetO1vq90kmpwvoJKXBVr6Q7fEb5mNA==,25.01.2020 08:38,NMC (Douala),NC,www.meteo-cameroon.net/,Cameroon,Douala,4.060000,9.710000,Direction de la météorologie nationale du Cameroun,06.10.2019 23:06,Published,GISC Casablanca,CMR
26f7ae20-34e9-e911-a9b0-000d3a44bd9c,4Gd7ychMWDptVOQ3rtMWuIeXI62k1hN8aN+3KMWgGp/80vI2USbtTzOCMlJ5sR4Syq/GHjkzUDx2uIcoblPTiw==,25.01.2020 08:39,NMC (Dublin),NC,www.met.ie/,Ireland,Dublin,53.330000,-6.250000,The Irish Meteorological Service (Met Éireann),07.10.2019 20:56,Published,GISC Exeter,IRL
2e0077cc-41e9-e911-a9af-000d3a4429b3,JCJKPq+X6HO+PDTXyFt1p6APDZOdUgzuOy8NFjpFyQZU/p0U2FAuObAYiYVCPXBWygg0Yj6YeQyzz9QDDdZSDQ==,25.01.2020 16:20,NMC (Dushanbe),NC,www.meteo.tj/,Tajikistan,Dushanbe,38.570000,68.780000,Agency for Hydrometeorology,07.10.2019 22:34,Published,GISC Moscow,TJK
4bdc1050-3ce9-e911-a9a5-000d3a44b27c,fhFYEib+z9Bc+1Yc8U1/+9IVVjk52jzGePwD9yZOd7ZEl5VykNxT/eUwwt+nnK2P45nBdhGM0lY/npFOr1vQlQ==,25.01.2020 08:38,NMC (Entebbe),NC,www.meteo-uganda.net/,Uganda,Entebbe,0.066667,32.450000,Uganda National Meteorological Authority (UNMA),07.10.2019 21:55,Published,GISC Casablanca,UGA
568c78ba-44e9-e911-a9a5-000d3a44b27c,aiQ6zsKkzATW4i27F/sxrcd2GeYSRoD8jrWm4eHen01wy1pu4M/w10DZSHLl+6nur6s2SuEEpSr5C2oNvYXpFw==,25.01.2020 08:39,NMC (Exeter),NC,www.metoffice.gov.uk/,United Kingdom,"Exeter,  England",50.716667,-3.533333,Met Office,07.10.2019 22:55,Published,GISC Exeter,GBR
ffdb1050-3ce9-e911-a9a5-000d3a44b27c,BRwQkVN9XScDtR25+JJq5vUrBGksYzeIvMEwX6ZcygzRxNbmrONYSzFRs69W280stVLfsLJYSH3Vj6udNVloAw==,25.01.2020 16:20,NMC (Freetown),NC,no.url.available,Sierra Leone,Freetown,8.490000,-13.240000,Meteorological Department,07.10.2019 21:55,Published,GISC Casablanca,SLE
49dc1050-3ce9-e911-a9a5-000d3a44b27c,6cFSnyIzRLoIY1+qGP8ZnDGWg+WxlH0D6RbZojqewpLZN3lxlBlZ08cyUNO6Sz47Sa22A1EO5ef3aJ7yLj9UoQ==,25.01.2020 16:20,NMC (Funafuti),NC,iinformet.net/tuvmet/,Tuvalu,Funafuti,-8.516667,179.216667,,07.10.2019 21:55,Published,GISC Melbourne,TUV
5ee509f3-4ae8-e911-a9b0-000d3a44bd9c,f5BDU2vgZDnxtCTY5BPuYDgqPzAD0M/uLzA8gnhMI+kHmcbmuQ+R5by7Ot1h/4zssBG1sjdKcfBz2OPB9jh6vw==,25.01.2020 16:20,NMC (Gaborone),NC,www.weather.info.bw/,Botswana,Gaborone,-24.650000,25.900000,Botswana Meteorological Services,06.10.2019 17:07,Published,GISC Pretoria,BWA
93c55af3-50e8-e911-a9af-000d3a4429b3,OjhWdr0D6onvUf3CO2x/Z9f9sVdeQvHsfxZEfNxVNfutKfjXbtmkgKbormh6OaoRl8odu0QxGhAK6zx/h/6+pA==,25.01.2020 16:20,NMC (Georgetown),NC,no.url.available,Guyana,Georgetown,6.800000,-58.166667,Hydrometeorological Service,06.10.2019 17:50,Published,GISC Brasilia,GUY
37afee12-30e9-e911-a9af-000d3a4429b3,IZSF0iWyIcLQZjl5NEPUt64Dm9z3xyREc03daUqmHvD23REa9on1+/IcUsH/GIZRcYNW6fxOLN2mpn1XwnVJ8A==,25.01.2020 16:20,NMC (Guatemala),NC,www.insivumeh.gob.gt/,Guatemala,Guatemala,14.630000,-90.550000,"Instituto Nacional de Sismología, Vulcanología, Meteorologiá e Hidrología (INSIVUMEH)",07.10.2019 20:27,Published,GISC Washington,GTM
ce3ac789-46e9-e911-a9af-000d3a4429b3,q9Uv4BENh/ZPblUpgYvha9TFcYMkfSn6o2faH3bwhFHJByOeL8uT3T84zr8r/6aqE8JHTmrMs6xI4lpP/rJD+g==,25.01.2020 16:20,NMC (Hanoi),NC,www.nchmf.gov.vn/,Viet Nam,Hanoi,21.033333,105.850000,Viet Nam Meteorological and Hydrological Administration,07.10.2019 23:08,Published,GISC Tokyo,VNM
9d290124-7de8-e911-a99e-000d3a44bf07,6X2T8SZZ9MZ+SJshYt1eHEzFhlUNbBebkK2MdPmP0qZCbFDJGuGKlt5mi1Rako/NluS+Zbfv/CJoLe5X+5Qfqg==,25.01.2020 16:20,NMC (Havanna),NC,www.insmet.cu/asp/genesis.asp?TB0=PLANTILLAS&TB1=INICIAL,Cuba,Havanna,23.130000,-82.390000,Instituto de Meteorología de Cuba,06.10.2019 23:06,Published,GISC Washington,CUB
869f2da4-23e9-e911-a99e-000d3a44bf07,fGkjQK7O+tkdTiIAyIz8s2bh0ifrx1DKIJsDM68Gn/gwL/ey6mce+dH9ljl3rUt03Tq218oueDP/6q7zY24PUw==,25.01.2020 16:20,NMC (Helsinki),NC,www.fmi.fi/,Finland,Helsinki,60.170000,24.940000,Finnish Meteorological Institute,07.10.2019 18:58,Published,GISC Offenbach,FIN
c67e910f-32e9-e911-a9a5-000d3a44b27c,m5QCU4V5KZzfdYxzo7IjGQLmXkUUv2qlKRpCEux4Xn9Ik+h+gmbDvQ+5C/GKS5GJ3zlspsvzaMySI7zATGzqJA==,19.03.2020 07:26,NMC (Hong Kong),NC,https://www.hko.gov.hk,"Hong Kong, China",Hong Kong,22.283333,114.133333,Hong Kong Observatory,07.10.2019 20:41,Published,GISC Beijing,HKG
09dc1050-3ce9-e911-a9a5-000d3a44b27c,2RXcGjfXKcnxBqwTgRL4REzcrLw1/PXdq1zsTT8KPpzWLroXH+Sc6NS1r93UjjKTiiFsjmasMBokG6n1zEtbSA==,25.01.2020 16:20,NMC (Honiara),NC,www.met.gov.sb/,Solomon Islands,Honiara,-9.466667,159.816667,Solomon Islands Meteorological Service,07.10.2019 21:55,Published,GISC Melbourne,SLB
bf921f37-6ee8-e911-a99f-000d3a4421be,bwtWxGir2+jisem8B67hQigg3/fdpuDc2KHEkDlsbyfGUQzCkP8pEYxNkbnOTI+C8dgapljJmjwM59IISdXBUQ==,25.01.2020 08:39,"NMC (includes European part of Netherlands and Bonaire, St Eustatius, Saba) (De Bilt)",NC,www.knmi.nl/,Netherlands,De Bilt,52.120000,5.180000,Royal Netherlands Meteorological Institute (KNMI),06.10.2019 21:19,Published,GISC Exeter,NLD
986c4c14-47e9-e911-a9af-000d3a4429b3,2/KWB8tvMDa0bXYeUZzWdLT0UbbMk2eJMvDfW/dZdVFaavCTRw6MflQqXaIP5XfpufT3Q4kdvnMJMuxSmnDHUQ==,25.01.2020 16:20,NMC (Jakarta),NC,www.bmkg.go.id/,Indonesia,Jakarta,-6.180000,106.830000,"Meteorological, Climatological and Geophysical Agency (BMKG)",07.10.2019 23:12,Published,GISC Melbourne,IDN
e9db1050-3ce9-e911-a9a5-000d3a44b27c,lJrohUCNdb7WMqxMjed75q8SkKCLfrQo4I27zdKabROZtOJZD4jXd4Uu5yJ5DjqsylxQCt57pvl5ziX8zr4M4g==,25.01.2020 08:39,NMC (Jeddah),NC,pme.gov.sa,Saudi Arabia,Jeddah,21.833333,39.266667,General Authority of Meteorology and Environmental Protection (GAMEP),07.10.2019 21:55,Published,GISC Jeddah,SAU
303359d3-76e8-e911-a9af-000d3a4429b3,1s/8Ctdb0hLc+ClDYiQal+ty9mfHHwToHwz8qiR00V1KDgzCikvql0CxpATRCio1lCKfRgLj0vpdNVpkhKuJqw==,25.01.2020 16:20,NMC (Kabul),NC,no.url.available,Afghanistan,Kabul,34.530000,69.170000,"Afghanistan Civil Aviation Authority (ACCA), Meteorological Department",06.10.2019 22:21,Published,GISC Tehran,AFG
2212f6eb-71e8-e911-a9a5-000d3a44b27c,Ufg1M79mf0nQOXXky9fBlWTbGu50CZoxqE1IqyM08PV6zyt0n72EEJRbCYIfBtEjgB4VnDwUuEYrs5J/SiGhWg==,25.01.2020 08:38,NMC (Kar?chi),NC,www.pmd.gov.pk/cp/metdata.htm,Pakistan,Kar?chi,24.860000,67.010000,Pakistan Meteorological Department,06.10.2019 21:46,Published,GISC Beijing,PAK
c5f9551d-6de8-e911-a9af-000d3a442d08,dJgxqmfb3is3uTvs0Oz0hsQ/U1MIbZzVMwXBknB0jAZFE4XGj7n082+Znu5NUr8eqsDUQe9yjTp1k8EgiQsPUg==,25.01.2020 08:39,NMC (Kathmandu),NC,www.dhm.gov.np/,Nepal,Kathmandu,27.710000,85.310000,Department of Hydrology and Meteorology,06.10.2019 21:11,Published,GISC Beijing,NPL
1fdc1050-3ce9-e911-a9a5-000d3a44b27c,8EypWrtl5KTt58cLATRP39/gC3zsWWIkrPUYCVJmpBx2F9vqIWZnpwF174YGMra6yNcH+8jVnCDFtQVDKfOaGQ==,25.01.2020 16:20,NMC (Khartoum),NC,www.ersad.gov.sd/,Sudan,Khartoum,15.580000,32.520000,Sudan Meteorological Authority,07.10.2019 21:55,Published,GISC Pretoria,SDN
3e0077cc-41e9-e911-a9af-000d3a4429b3,EvQsgRDRIIvMBv2yMnqY5c+6+Yr7EauD9gAQt65McLSpbaPXsaltLC1NyZgxQka2BhoA6LQhyeo9PuJy7GlaxQ==,25.01.2020 16:20,NMC (Kiev),NC,www.meteo.gov.ua/,Ukraine,Kiev,50.430000,30.520000,Ukrainian Hydrometeorological Center (UHMC),07.10.2019 22:34,Published,GISC Moscow,UKR
c873e691-73e8-e911-a99f-000d3a4421be,KLOHU1Q/ZZZsEUKkonuybCakU9/Rxv5S0pvaFG+xndxH4C8MMzQkDfc1jn3VSqQfwRvsX6LrtZUMa+ZDo0sqSg==,25.01.2020 08:38,NMC (Kigali),NC,www.meteorwanda.gov.rw/,Rwanda,Kigali,-1.940000,30.060000,Rwanda Meteorological Service,06.10.2019 21:58,Published,GISC Casablanca,RWA
32f7ae20-34e9-e911-a9b0-000d3a44bd9c,gzm2zMI3wkR5VNXPJAuEZK6OWj6MHaLuRQ7v545Gxfn7FG1kBuWRSfZDFjU1yhUGQ1/oEH9vxG+5ZG3Pt3uEUg==,25.01.2020 16:20,NMC (Kingston),NC,www.metservice.gov.jm/,Jamaica,Kingston,17.990000,-76.800000,"Meteorological Service, Jamaica",07.10.2019 20:56,Published,GISC Washington,JAM
ac73e691-73e8-e911-a99f-000d3a4421be,2JGwr2eZsoWA9NFaXBhjp91pX+3dHoFiKFQf8Kh2pmvmb9amV+b+b5692GRgVj7Q1r3etNcMfQCWQs8upu5qqg==,25.01.2020 08:38,NMC (Kinshasa),NC,www.meteo-congo-kinshasa.net/,"Congo, The Democratic Republic of the",Kinshasa,-4.310000,15.320000,Agence nationale de la Météorologie et de Télédétection par satellite (METTELSAT),06.10.2019 21:58,Published,GISC Casablanca,COD
705014c9-63e8-e911-a9b0-000d3a44bd9c,NZo7ShcwAMgBygz/3dfySH1KXzP69hHy0peLhvf7PGXo9auSNzc8vtCeAQLoVmeQt4yGFT42V77jxSbdldT7mA==,25.01.2020 08:38,NMC (Kinshasa),NC,www.meteo-congo-kinshasa.net/,"Congo, The Democratic Republic of the",Kinshasa,-4.310000,15.320000,Agence nationale de la Météorologie et de Télédétection par satellite (METTELSAT),06.10.2019 20:05,Published,GISC Casablanca,COD
aa73e691-73e8-e911-a99f-000d3a4421be,m8RdQqqbR0zRr8wXpyZ8zEr5VJ0MMPukvl9FJPfcmJgSeU+s8h9wPCfQsamv+c6QsrYUbkLCB2Rn2i7Milhpcg==,25.01.2020 16:20,NMC (Kishenev),NC,no.url.available,Republic of Moldova,Kishenev,47.010833,28.868889,State Hydrometeorological Service,06.10.2019 21:58,Published,GISC Moscow,MDA
f20d95f3-68e8-e911-a99e-000d3a44bf07,WtMgpqOLYZN04Tjjh52Cxc8FtUsWYbslb2aMlZXGac4QnDQUhs02QwlWCKRHwki/wQz0L+qnWPhybRJSGk9NQA==,25.01.2020 16:20,NMC (Kuala Lumpur),NC,www.met.gov.my/,Malaysia,Kuala Lumpur,3.160000,101.710000,Malaysian Meteorological Department,06.10.2019 20:41,Published,GISC Melbourne,MYS
5c720406-66e8-e911-a9b0-000d3a44bd9c,R/0bFksHjZGlOfODOnQP4fF5s7CSr3ow6C0ylTURIcNLVMDl2fOrx8zerWUDUPLAgO9WbQpS1oFvjB5P8m3RAw==,25.01.2020 08:38,NMC (Kuwait City),NC,www.met.gov.kw,Kuwait,Kuwait City,29.366667,47.966667,Directorate General of Civil Aviation,06.10.2019 20:21,Published,GISC Jeddah,KWT
12edd240-79e8-e911-a99f-000d3a4421be,Co6ggXsoYXpMxjWuerRWuWn/eOJTG2phsnMdqPpHCpkozm6N+jZ6yavUU707EuzXRReou9bmcDy4cwJ07AH6hw==,25.01.2020 16:20,NMC (La Paz),NC,no.url.available,Bolivia,La Paz,-16.500000,-68.150000,Servicio Nacional de Meteorología e Hidrología (SENAMHI),06.10.2019 22:38,Published,GISC Brasilia,BOL
e6044cb6-6fe8-e911-a9a5-000d3a44b27c,SpY2+p1caOwmFxy1UD8ByMLsYyoomSidsjv46d3LSJMD/lO+34Cta/LZzXa0xzC1wLyACq6jYA1eqY4Lgky0YA==,25.01.2020 08:38,NMC (Lagos),NC,nimet.gov.ng/,Nigeria,Lagos,6.500000,3.350000,Nigerian Meteorological Agency (NIMET),06.10.2019 21:30,Published,GISC Casablanca,NGA
ae9f2da4-23e9-e911-a99e-000d3a44bf07,NqTsaAmht1g37jQuYAo1P1ykji41TPvRRzmD9jhVI/Mmvoq82fKNZN8GO6xzYvKv4rMqsA2MjCwPBFLA8QiX0A==,25.01.2020 16:20,NMC (Libreville),NC,no.url.available,Gabon,Libreville,0.390000,9.450000,"Department of Meteorology, Ministère du Pétrole, de l'Energie et des Ressources Hydrauliques",07.10.2019 18:58,Published,GISC Casablanca,GAB
63cf3bca-6ae8-e911-a9af-000d3a442d08,rKLtv3adQDtx39WGfTWuShcI+Oyke73jSyTgBvO3XFCgYV522QqqnHVpxd9IwEr4ZABq/z1srtBmVTMUv7oneQ==,25.01.2020 16:20,NMC (Lilongwe),NC,www.metmalawi.com/,Malawi,Lilongwe,-13.970000,33.800000,Department of Climate Change & Meteorological Services,06.10.2019 20:55,Published,GISC Pretoria,MWI
2a12f6eb-71e8-e911-a9a5-000d3a44b27c,VXz6SrdCs3q1s+ElPG8r9Cs/qsRhOPoSJpSVA18qAx0OVR5UXO6uXBnJ7IuLsnjJ6lQtkDuoietyAwuooOPgIA==,25.01.2020 08:39,NMC (Lima),NC,www.senamhi.gob.pe/,Peru,Lima,-12.070000,-77.050000,Servicio Nacional de Meteorologia e Hidrologia (SENAMHI) Peru,06.10.2019 21:46,Published,GISC Brasilia,PER
3012f6eb-71e8-e911-a9a5-000d3a44b27c,du+V/Lf47WaM4WjbmffZwuDbTfFkWu6s9k8Ret51x7+GflpBV9cqB/9gbQhg4x6yLe6wC4gouBOgBAbQ1LIgvw==,19.02.2020 15:27,NMC (Lisbon),NC,http://www.ipma.pt,Portugal,Lisbon,38.700000,-9.183333,Instituto Português do Mar e da Atmosfera,06.10.2019 21:46,Published,GISC Toulouse,PRT
07dc1050-3ce9-e911-a9a5-000d3a44b27c,m5M3wg4OqDM2bHmYjI+bRXY9rahQP8bg3CAmXfIqozdZMNF/lHWHakj2BMEoBxhrMNt36LAXudFiH27RI9ccHQ==,25.01.2020 16:20,NMC (Ljubljana),NC,www.rzs-hm.si/,Slovenia,Ljubljana,46.050000,14.500000,Meteorological Office,07.10.2019 21:55,Published,GISC Offenbach,SVN
340077cc-41e9-e911-a9af-000d3a4429b3,RQV66Ax9HMa+M28y//yIiALLnOdOPEB+MojI06J/vlnOrT4Owre2IXaRKA0kQTkaavZIQaxV3+gzkCIGWNO7ZQ==,25.01.2020 16:20,NMC (Lomé),NC,no.url.available,Togo,Lomé,6.170000,1.350000,Direction générale de la météorologie nationale,07.10.2019 22:34,Published,GISC Casablanca,TGO
829f4406-76e8-e911-a99f-000d3a4421be,fXsEjsiPJ8z93k/mnmXsuwzBrfiYYAkHhOVnxgCBp4Px2BzJ+GleHE19udqOhbXdnKyhBK8dgrlog7Qbgf6zsg==,25.01.2020 16:20,NMC (Luanda),NC,no.url.available,Angola,Luanda,-8.820000,13.240000,Instituto Nacional de Meteorología e Geofísica - INAMET,06.10.2019 22:15,Published,GISC Pretoria,AGO
ea0d95f3-68e8-e911-a99e-000d3a44bf07,Fp7fZPCxPq1F+Qxjgr1iJ3zFukUubSg0/DmFercQJ2XTleyNempyCu+vUorOYDMQOBG7D2FJwo1B7smgToMqQg==,25.01.2020 16:20,NMC (Luxembourg),NC,www.aeroport.lu/,Luxembourg,Luxembourg,49.616667,6.133333,Service de la météorologie et de l'hydrologie,06.10.2019 20:41,Published,GISC Toulouse,LUX
3212f6eb-71e8-e911-a9a5-000d3a44b27c,+tV5BHwrVR1TZ9WzY7jb+3z4yGUNhFshnbJdYOxkHKakdnB7d610f7nx359Dk8WgmfaIjtm5WwRweOnAKCPb4Q==,19.02.2020 15:27,NMC (Madeira),NC,http://www.ipma.pt,Portugal,Madeira,32.651111,-16.909722,Instituto Português do Mar e da Atmosfera,06.10.2019 21:46,Published,GISC Toulouse,PRT
1bdc1050-3ce9-e911-a9a5-000d3a44b27c,a65Rdz/uK0S5Tw11LC5diMPXcJ/wpb08vmiyPh3tQeALoh80dORmnE9FlWB9NJtu6eQF0TlyEGGZrL+90vw20Q==,25.01.2020 16:20,NMC (Madrid),NC,www.aemet.es/es/portada,Spain,Madrid,40.420000,-3.710000,Agencia Estatal de Meteorología (AEMET),07.10.2019 21:55,Published,GISC Toulouse,ESP
65cf3bca-6ae8-e911-a9af-000d3a442d08,QDMmwOoqdYgl2GrZn2n6wgiEWX7mS8ysI0KSEizTcUqb9k2ZrXsS/I8AiisI9I3+spEzi4ag69ibSZpAY+mGTw==,25.01.2020 16:20,NMC (Malé),NC,www.meteorology.gov.mv,Maldives,Malé,42.350000,73.533333,Maldives Meteorological Service,06.10.2019 20:55,Published,GISC New Delhi,MDV
f40d95f3-68e8-e911-a99e-000d3a44bf07,byaOQJJ1L1B8iZOF9/OAHRd0lCgxh6UiC3XIwTH4VmQR7gGQLkevMWkLr5HwXoBksUPnO83e6vcMlXU6Q6vR8A==,25.01.2020 08:38,NMC (Malé),NC,www.meteorology.gov.mv,Mali,Malé,42.350000,73.533333,Direction nationale de l'Hydraulique du Mali,06.10.2019 20:41,Published,GISC Casablanca,MLI
da044cb6-6fe8-e911-a9a5-000d3a44b27c,rt/iBLDux/7WCIYCLYMJJOAiI03w/F8Ppyu9iwpyD2u49tb0QOKs+PxKWkpQXlSnE4NJ43EoM2PsDXAUjhUGpQ==,25.01.2020 16:20,NMC (Managua),NC,www.ineter.gob.ni/,Nicaragua,Managua,12.150000,-86.270000,Instituto Nicaragüense de Estudios Territoriales (INETER),06.10.2019 21:30,Published,GISC Washington,NIC
08edd240-79e8-e911-a99f-000d3a4421be,0u15Exb3UqBeY8PL+IeMt0weM2sKZotAfRD50Q8IhZuOo8b3PWwPS4Wq86z/PodcckEOEDNiPop49bntBc1+gw==,25.01.2020 16:20,NMC (Manama),NC,no.url.available,Bahrain,Manama,26.216667,50.583333,Bahrain Meteorological Directorate,06.10.2019 22:38,Published,GISC Jeddah,BHR
2c12f6eb-71e8-e911-a9a5-000d3a44b27c,lTcqOpK1h2/4uxE50OF13KyzvVNvh0ReFsIWYgY1+xiCpx+aSsfUXIHs+OPtyFnAUSLIDdOkkocq6/FHOvbJmA==,25.01.2020 16:20,NMC (Manila),NC,www.pagasa.dost.gov.ph/,Philippines,Manila,14.600000,120.980000,"Philippine Atmospheric, Geophysical and Astronomical Services Administration (PAGASA)",06.10.2019 21:46,Published,GISC Tokyo,PHL
23dc1050-3ce9-e911-a9a5-000d3a44b27c,Lkgjbn/Heb+FqwbeHUcVtIBKPeSHr6sBlUZANqctA+WPRYYxAAXkpN/fGcNMVNP3Rs0E5uZtYFXWzbeeBR4o3A==,25.01.2020 16:20,NMC (Manzini),NC,www.swazimet.gov.sz/,Eswatini,Manzini,-26.483333,31.366667,Eswatini Meteorological Service,07.10.2019 21:55,Published,GISC Pretoria,SWZ
49e192c6-6ce8-e911-a9af-000d3a442d08,+7qunWfdIe8hyWT5pEFsDTpnxvkHvvjmWm9JVVG1e0dkCb+4iKPX8rKpNxKb/p5L+UyoFrqEJ6F8J6Pao0f73A==,25.01.2020 16:20,NMC (Maputo),NC,www.inam.gov.mz/,Mozambique,Maputo,-25.950000,32.570000,National Institute of Meteorology,06.10.2019 21:09,Published,GISC Pretoria,MOZ
cc3ac789-46e9-e911-a9af-000d3a4429b3,UIONcQDlc4G5AO5MVArgkQvgtPUwzeAck/347eHGPtJb5nNxwvTlj1b1a6JdWwOI5d5ttBmE06PRDTGshCrWqw==,25.01.2020 08:39,NMC (Maracay),NC,www.inameh.gob.ve,Venezuela,Maracay,10.330000,-67.470000,Instituto Nacional de Meteorología e Hidrología (INAMEH),07.10.2019 23:08,Published,GISC Brasilia,VEN
738f2df7-67e8-e911-a9a5-000d3a44b27c,c440e4AFg4VzDwtnO9G3FU1U6f5WNVxNJwaRbZTRSbVLAzlFDmjMlmvmgQ+QuYryIfNn5iuuTIixvfT0AGJR8Q==,25.01.2020 16:20,NMC (Maseru),NC,www.lesmet.org.ls/,Lesotho,Maseru,-29.300000,27.466667,Lesotho Meteorological Services,06.10.2019 20:35,Published,GISC Pretoria,LSO
9c9f4406-76e8-e911-a99f-000d3a4421be,F2cHIToXzxTn8emWsPO7PjVT+iTVbe2XredNEmQlxr3HbNpjtkqIs1++tb/D/8gsio7cU1LMpQVytm5ceIhw7Q==,25.01.2020 16:20,NMC (Melbourne),NC,www.bom.gov.au,Australia,Melbourne,-37.810000,144.960000,Bureau of Meteorology,06.10.2019 22:15,Published,GISC Melbourne,AUS
a94aa1b3-6be8-e911-a9af-000d3a442d08,vUdAz7s+GAcYRkdaIWHsd7ZrTem5vSI59HAqvY5TEk57YQWdWPHaWHKjTSsMHPigi9HsZd7tX5D1PdmOsoMwEg==,25.01.2020 16:20,NMC (Mexico City),NC,smn.cna.gob.mx/,Mexico,Mexico City Mexico City,19.683333,-99.216667,Servicio Meteorológico Nacional de Mexico,06.10.2019 21:01,Published,GISC Washington,MEX
0aedd240-79e8-e911-a99f-000d3a4421be,lok+g3OXT0O7Ud2o4uVYmf/nEAhHSlEYZCZt80l/fw3dJoYhA+d1g/DUvgKNcxCaUXJ/DTqgRX5wzl5wb7r3MA==,25.01.2020 08:44,NMC (Minsk),NC,www.pogoda.by/,Belarus,Minsk,53.910000,27.550000,"BELHYDROMET-Republican center for hydrometeorology, control of radioactive contamination and environmental monitoring, Belarus",06.10.2019 22:38,Published,GISC Moscow,BLR
0bdc1050-3ce9-e911-a9a5-000d3a44b27c,yT0osw3KokYdnl+wU6mSYVQZGccDPu4fbf64aXWR9SefKALiewek+IGcvMzSROCR1QiGfyOWCxxnaA9qEzqjqA==,25.01.2020 16:20,NMC (Mogadishu),NC,no.url.available,Somalia,Mogadishu,2.066667,45.366667,c/o Permanent Mission of the Federal Republic of Somalia to the Office of the United Nations,07.10.2019 21:55,Published,GISC Casablanca,SOM
a6ab2dba-6ee8-e911-a99f-000d3a4421be,bRHo+g1G2k0JESxcWvMHHJ1MMsBrJ//jyP0h6rercItPHuED3zDggqPb7bnRnrPE3MUuOWDgd0tJPPUnONKKgA==,25.01.2020 16:20,NMC (Monaco),NC,www.monaco-un.org/,Monaco,Monaco,43.733333,7.400000,,06.10.2019 21:23,Published,GISC Toulouse,MCO
758f2df7-67e8-e911-a9a5-000d3a44b27c,9oZVLI+D0QrgHtjjEsi5UH7MEMRpGActjgQwoExAoBC/lSiEik+3cCHx/GE7j8B5e3WhejX4ocOPKgNGyHXImA==,25.01.2020 16:20,NMC (Monrovia),NC,no.url.available,Liberia,Monrovia,6.310000,-10.800000,Ministry of Transport,06.10.2019 20:35,Published,GISC Casablanca,LBR
8c8c78ba-44e9-e911-a9a5-000d3a44b27c,6gspekR3F+maw1WaglnTP5xP7/2jOBCkGZwBfmAeB6E7DpZ00SloKXTgia730dL9Ky2DYQyBA6FEt7h+CVmsVw==,25.01.2020 08:39,NMC (Montevideo),NC,www.meteorologia.com.uy/,Uruguay,Montevideo,-34.870000,-56.170000,Dirección Nacional de Meteorología,07.10.2019 22:55,Published,GISC Brasilia,URY
79290124-7de8-e911-a99e-000d3a44bf07,5pJhrD+OiFBoGqisokwZGrp4j8mdY/FUEN89qr+925Dh/mhSpRuQbT7wXt5KDXhA/o+O23g9w+o9me1AWJwTJA==,25.01.2020 16:20,NMC (Montreal),NC,weather.gc.ca,Canada,Montreal,45.520000,-73.570000,Meteorological Service of Canada (MSC),06.10.2019 23:06,Published,GISC Washington,CAN
91290124-7de8-e911-a99e-000d3a44bf07,55wwUS7MsNIgy5nBbymK/iivrL/u9ZccHz0RzbBRsXuFuwYrnDvy55DknXbT3OfaO1N663WmjYEm2Cznx0l2uA==,25.01.2020 16:20,NMC (Moroni),NC,no.url.available,Comoros,Moroni,-11.750000,43.200000,"Direction de la météorologie, Agence nationale de l'Aviation Civile et de la météorologie (ANACM), Comores",06.10.2019 23:06,Published,GISC Casablanca,COM
b273e691-73e8-e911-a99f-000d3a4421be,adqUXTxk2ZdpI1ATZZgaSP19KTK0t85XG6p47QM5HLxrZgHW9+RaevE7U6smr8AxK/UwDLQwqtGk+5lMoaQbIw==,25.01.2020 16:20,NMC (Moscow),NC,www.meteorf.ru/,Russian Federation,Moscow,55.750000,37.620000,Russian Federal Service for Hydrometeorology and Environmental Monitoring (ROSHYDROMET),06.10.2019 21:58,Published,GISC Moscow,RUS
2012f6eb-71e8-e911-a9a5-000d3a44b27c,OwwaqkPJS2R7HsVYLfy2JjwVk2Uw0UMakyxmziMC+z+MyluMOUbWz9HUc3t3LLI3PL1fpa6KXIv0cofWjo6UnQ==,25.01.2020 08:38,NMC (Muscat),NC,www.met.gov.om/,Oman,Muscat,23.616667,58.600000,"Public Authority for Civil Aviation, Directorate General of Meteorology",06.10.2019 21:46,Published,GISC Jeddah,OMN
4a63d7a0-21e9-e911-a9b0-000d3a44bd9c,5HDjO2keko14X46c8lOofmDO45wF1CzlT/t20zHryDZnEYVOjtuLol/tk+4wHw8ZMuCcSGZofT687ln4l4mnCw==,25.01.2020 16:20,NMC (Nadi),NC,www.met.gov.fj/,Fiji,Nadi,-17.480000,177.250000,Fiji Meteorological Service,07.10.2019 18:44,Published,GISC Melbourne,FJI
52720406-66e8-e911-a9b0-000d3a44bd9c,tg2fdDJdjkAhtdai0rpOWxF91VwIOVcBqHzpgNB182qPwIvH4EUP37/MyACdOoPv3fgpSIfhBmp2dwu3LxMPXA==,25.01.2020 16:20,NMC (Nairobi),NC,www.meteo.go.ke/,Kenya,Nairobi,-1.290000,36.820000,Kenya Meteorological Department,06.10.2019 20:21,Published,GISC Offenbach,KEN
52e509f3-4ae8-e911-a9b0-000d3a44bd9c,6254raE9pfzOTQx2GTYsnGiro8Ohk24+8yhpslmAjAea61tLMLu6MwUDm5sTOH+OMnCzuWuF9cRmYWGa8iCxbg==,25.01.2020 16:20,NMC (Nassau),NC,no.url.available,Bahamas,Nassau,25.050000,-77.333333,Bahamas Department of Meteorology,06.10.2019 17:07,Published,GISC Washington,BHS
81290124-7de8-e911-a99e-000d3a44bf07,UD6W2Xh1BUjJ68Q531lj7H7LU+CqoU29OV7H3L0lG0jOqMwIptG5pcQA9kqHqbbtITgkMIwzFu1Va25+C6RImw==,25.01.2020 16:20,NMC (N'Djaména),NC,no.url.available,Chad,N'Djaména,12.110000,15.050000,Direction de la météorologie nationale,06.10.2019 23:06,Published,GISC Casablanca,TCD
97c55af3-50e8-e911-a9af-000d3a4429b3,OEO0k4OmymHN7MzHoaJTEmTZUkb+dD1Oc9qk8bvTGyZ0+U+CZWBIRq75arE5DISKGENAXdZDqTKdwe+YPNzkLw==,25.01.2020 16:20,NMC (New Delhi),NC,www.imd.gov.in/,India,New Delhi,28.633333,77.216667,India Meteorological Department,06.10.2019 17:50,Published,GISC New Delhi,IND
de044cb6-6fe8-e911-a9a5-000d3a44b27c,qNs/gP3/G3F4h6nIQvRu1uwTohaqgcHcp9rapHsnJKby/8jdyVhCsB+xl4C9mn4tWotTbUUeiVkv/Q4FjeAG2A==,25.01.2020 08:38,NMC (Niamey),NC,www.meteo-niger.net/,Niger,Niamey,13.520000,2.120000,Direction de la météorologie nationale du Niger,06.10.2019 21:30,Published,GISC Casablanca,NER
76c55af3-50e8-e911-a9af-000d3a4429b3,3yiPt8jUWuwuh29tKYtMzqUo4NaMfkMp0OubxygO5YVJ081HRxpMIFK8zJMQw9cU5PktNwSxgOed4kKXTtst6g==,25.01.2020 16:20,NMC (Nicosia),NC,www.moa.gov.cy/ms,Cyprus,Nicosia,35.166667,33.350000,Meteorological Service,06.10.2019 17:50,Published,GISC Offenbach,CYP
25dc1050-3ce9-e911-a9a5-000d3a44b27c,MWrIJBWVBMZYUi3ZShrZZ9cAoAdCSPCrcTr9q6epQ9mz8T1TCDhHHmciM1wZq4o0mQ6HvgIipMRp0IIuJbB1JQ==,25.01.2020 16:20,NMC (Norrköping),NC,www.smhi.se/,Sweden,Norrköping,58.600000,16.200000,Swedish Meteorological and Hydrological Institute (SMHI),07.10.2019 21:55,Published,GISC Offenbach,SWE
67cf3bca-6ae8-e911-a9af-000d3a442d08,A5bZ2zCNEHYBMK1afAvzfpCZDQSF/bF8/nw1eQHtSAmN4+7BlXdmwlFBWis7mVF6D87rJbCZN7HxMbgx3QkYzA==,25.01.2020 08:38,NMC (Nouakchott),NC,www.onm.mr/,Mauritania,Nouakchott,18.090000,-15.980000,Service de météorologie,06.10.2019 20:55,Published,GISC Casablanca,MRT
8a9f2da4-23e9-e911-a99e-000d3a44bf07,/aVd5peyUgi8bj+RmRyI/yauieqPdjcToBSVlF58ozK0iBROUfm3bJBdqJKQF7eqUfTpuC5KDMRjygGnVzPKiQ==,25.01.2020 16:20,NMC (Nouméa),NC,www.meteo.nc/,France,"Nouméa,  New Caledonia",-22.283333,-166.450000,Météo-France (Toulouse),07.10.2019 18:58,Published,GISC Melbourne,FRA
39dc1050-3ce9-e911-a9a5-000d3a44b27c,Ut40/ZL0yWVe0FUskeV0iZfORwWLj0jPrg4/dH1xmhdmU51z23yvLbgwW6asiCu478Rd0kRU0dIXtV1AevtZWg==,25.01.2020 16:20,NMC (Nuku'Alofa),NC,www.met.gov.to/,Tonga,Nuku'Alofa,-21.133333,-175.200000,Tonga Meteorological Service,07.10.2019 21:55,Published,GISC Melbourne,TON
23afee12-30e9-e911-a9af-000d3a4429b3,9gMW6MGnqldPaftOQcFvQm1Nx/6X4Bnr2UwMhLPw/YmEpgszrs6BMqo5r6JqUzTbmMAXzc0cgafVM+KMcGhM2w==,25.01.2020 16:20,NMC (Offenbach),NC,www.dwd.de/,Germany,Offenbach,50.133333,8.783333,Deutscher Wetterdienst (DWD),07.10.2019 20:27,Published,GISC Offenbach,DEU
2de064f3-64e8-e911-a9b0-000d3a44bd9c,UVlWHeQ+obMTJLR4lrUwhvoMbgIBYAgQKWGVQCwNluc3606b0rP7n6BNJ66djnxzydCF5f4HyuW1sVFHLzDWGg==,25.01.2020 16:20,NMC (Oslo),NC,www.met.no/,Norway,Oslo,59.910000,10.750000,Norwegian Meteorological Institute,06.10.2019 20:13,Published,GISC Offenbach,NOR
1cedd240-79e8-e911-a99f-000d3a4421be,wbbzG1kxZcqcmQy5Ava/3VEPp0lnKMlkUUtS9Lz3mNkGP3o0vvZ1mCH7t6LxMmsHZ4+ptk2rsBRCAn3bxHns7A==,25.01.2020 08:38,NMC (Ouagadougou),NC,www.meteo-burkina.net/,Burkina Faso,Ouagadougou,12.370000,-1.530000,National Meteorological Agency,06.10.2019 22:38,Published,GISC Casablanca,BFA
2412f6eb-71e8-e911-a9a5-000d3a44b27c,FePD/ZtHZ7qdOj7UpTh7oCmsdJAtcpixP22rxkp4SNIf0rcSfBZYg/NXbDLsM3LcEbcRznr/HCS8aC5jf86U6A==,25.01.2020 16:20,NMC (Panama City),NC,www.hidromet.com.pa/,Panama,Panama City,8.966667,-79.533333,Departamento de Meteorología Aeronautica,06.10.2019 21:46,Published,GISC Washington,PAN
8c9f2da4-23e9-e911-a99e-000d3a44bf07,R0R9mcpsGWxk2G9GuZLJ7NQlx5I6Agl2S49V37Uja4Fl1trKtD9WecC09cUFF1fbB1PlEem7/NR9t7Vn6nVMsQ==,25.01.2020 16:20,"NMC (Papeete, French Polynesia)",NC,no.url.available,France,"Papeete,  French Polynesia",-17.533333,-149.566667,Météo-France (Toulouse),07.10.2019 18:58,Published,GISC Melbourne,FRA
21dc1050-3ce9-e911-a9a5-000d3a44b27c,nFiLvoIt5Ub84H/paXKqb7/ZBx/vjUnr5mc9lZEkSiB9L3cOfB9GsYYstKyhnnRl9nDNqllsxqfQktptTfuezg==,25.01.2020 08:39,NMC (Paramaribo),NC,www.meteosur.sr/,Suriname,Paramaribo,5.866667,-55.166667,Meteorological Department of Suriname,07.10.2019 21:55,Published,GISC Brasilia,SUR
75290124-7de8-e911-a99e-000d3a44bf07,LaDVJGerW/wTrB0Eu1jz8/xEyzQXxjt8H6IG02u9ENFT9tW3H9e14zSsAt5mN2uwiluJMNtBqrhnBokwT7OtrQ==,25.01.2020 16:20,NMC (Phnum Pénh),NC,www.cambodiameteo.com,Cambodia,Phnum Pénh,11.570000,104.920000,Ministry of Water Resources and Meteorology (MOWRAM),06.10.2019 23:06,Published,GISC Tokyo,KHM
bdc55af3-50e8-e911-a9af-000d3a4429b3,RXZbVBC1dzIKKBKWjNdpfDEprkUor78rQj9nFftUPVrx6dpZAoEK1k9HswVVior8KomYNAn07FBkssqgs3oRhA==,25.01.2020 16:20,NMC (Phoenix Islands),NC,no.url.available,Kiribati,South Tarawa,1.316667,172.966667,,06.10.2019 17:50,Published,GISC Melbourne,KIR
3fe192c6-6ce8-e911-a9af-000d3a442d08,xGynIjwszSXa+DvwvGSOYSA+jTecYr1kicKepykJuQfAPFOoEHiHS8tiwRiieAXrOOcdGwcVrwXgiO0hINnOxA==,25.01.2020 16:20,NMC (Podgorica),NC,www.hmz.gov.me,Montenegro,Podgorica,42.466667,19.283333,Institute of Hydrometeorology and Seismology of Montenegro,06.10.2019 21:09,Published,GISC Offenbach,MNE
7f932015-5be8-e911-a9a5-000d3a44b27c,HcWK8Qf7soULULjNJXWAPoA/o3LKtmX2KFYjt+hRtWVsGtiL3Dg22SnGQ9ddEU5FL+PE5FvNooySQnfAZWlfzQ==,25.01.2020 08:38,NMC (Port Louis),NC,metservice.intnet.mu,Mauritius,Port Louis,-20.166667,57.516667,Mauritius Meteorological Service,06.10.2019 19:02,Published,GISC Casablanca,MUS
2612f6eb-71e8-e911-a9a5-000d3a44b27c,VHNKqz0kA9moIJ/Op54cmevN2XsEjz1yVyhLXB2cS0lRVyokW0hnL1ogiEt/4SA3+hqy6zpJrQ42Mb6/z21Vzg==,25.01.2020 16:20,NMC (Port Moresby),NC,no.url.available,Papua New Guinea,Port Moresby,-9.500000,147.200000,PNG National Weather Service,06.10.2019 21:46,Published,GISC Melbourne,PNG
3bdc1050-3ce9-e911-a9a5-000d3a44b27c,cwqkEfWQa7ZTIsbdqlyPQaWxBHJ0GbCKLxhQZFXDtBMGPVOQpRDIhyMCqYIvRPQdkt7MPWZ9TEZ+URgrt8gESQ==,25.01.2020 16:20,NMC (Port of Spain),NC,www.metoffice.gov.tt/,Trinidad and Tobago,Port of Spain,10.666667,-61.516667,Meteorological Service,07.10.2019 21:55,Published,GISC Washington,TTO
ca3ac789-46e9-e911-a9af-000d3a4429b3,AtaR13C0DnREvIw6PSyxQj2uIvq2DE9kLPeaF7CRo41amXoiJXP+lpo6FmsB1VCWZCaTBx9v921AjsYCtjB/ww==,25.01.2020 16:20,NMC (Port Vila),NC,www.meteo.gov.vu/,Vanuatu,Port Vila,-17.750000,168.300000,Vanuatu Meteorology and Geo-hazards Department,07.10.2019 23:08,Published,GISC Melbourne,VUT
3dafee12-30e9-e911-a9af-000d3a4429b3,0mA4piGogH8DcNsAmv4Q12Fo/+fIY34B36APKwtax9rFsaNm/nvOC0U/9LVCBpDWyT6fP7MQxPKgZwhbB1OfAw==,25.01.2020 16:20,NMC (Port-au-Prince),NC,www.meteo-haiti.gouv.ht/,Haiti,Port-au-Prince,18.540000,-72.340000,Centre de la météorologie nationale,07.10.2019 20:27,Published,GISC Washington,HTI
a1290124-7de8-e911-a99e-000d3a44bf07,5WezEhj2SCsuse9yLLiAFhtE79UW7z78XNBI8k2yC1gnsTW3PJrlcf2y+l6fCNcRKO9XSDvuLpWP+TzpaEgAZQ==,25.01.2020 16:20,NMC (Prague),NC,www.chmi.cz/,Czech Republic,Prague,50.080000,14.430000,Czech Hydrometeorological Institute (CHMI),06.10.2019 23:06,Published,GISC Offenbach,CZE
0ddc1050-3ce9-e911-a9a5-000d3a44b27c,HW53eRDufV7LJ6n4yKy64ZOeWcbUh1qCFCw8Yf6y05/Y4dTeO7lToIlXXZUQ6q4ZQ7XHCCVO80q8Xy3TmQx0dw==,25.01.2020 16:20,NMC (Pretoria),NC,www.weathersa.co.za/,South Africa,Pretoria,-25.730000,28.220000,South African Weather Service,07.10.2019 21:55,Published,GISC Pretoria,ZAF
58720406-66e8-e911-a9b0-000d3a44bd9c,ZzFZYa/Tex7+YuvW9I/Lh0iMsfSt9LsO3QJnGG218Xd61SpE+rYl9P6tB1qUotB4fMhCn0GD9RaomBClIa3koA==,25.01.2020 16:20,NMC (Py?ngyang),NC,no.url.available,"Korea, Democratic People's Republic of",Py?ngyang,39.020000,125.750000,,06.10.2019 20:21,Published,GISC Beijing,PRK
3663d7a0-21e9-e911-a9b0-000d3a44bd9c,9N7F4sL1h6HTdNABhVuBZL48Q5rtTvgao+UlEGjNJJtFle09snIsqwteuWoc1EZY1UbScNLm4ibxzlrrt2ghnw==,25.01.2020 08:39,NMC (Quito),NC,www.inamhi.gob.ec,Ecuador,Quito,-0.190000,-78.500000,"Instituto Nacional de Meteorología e Hidrología (INAMHI), Ecuador",07.10.2019 18:44,Published,GISC Brasilia,ECU
95c55af3-50e8-e911-a9af-000d3a4429b3,OVpXBvCJ+YJRcc7MKyuxf50ssn6487Nua5LbXf+M9obnVpxRwI3Lfq9WMN7rKor8E+6QXTz5tGI6GwdHZgH9VA==,25.01.2020 08:39,NMC (Reykjavík),NC,www.vedur.is/,Iceland,Reykjavík,64.133333,-21.933333,Icelandic Meteorological Office,06.10.2019 17:50,Published,GISC Exeter,ISL
77932015-5be8-e911-a9a5-000d3a44b27c,moLsvYY7TDzxNGYC+AWGBVpKVgScCw7dM4t5sPhpBlWmFdpZ19GQHPk8x2JPuUb+lx/VndTiYF1Sk01+jqvgGw==,25.01.2020 16:20,NMC (Riga),NC,www.meteo.lv/,Latvia,Riga,56.966667,24.133333,"Latvian Environment, Geology and Meteorology Centre (LEGMC)",06.10.2019 19:02,Published,GISC Offenbach,LVA
2ef7ae20-34e9-e911-a9b0-000d3a44bd9c,4XRjqe9er45bYFLm795niOxsQy6yhXoJe4X7yqDOuIsMSxLX5S9Ailr2iYSO5q8ciTkyBH7jNA7we/NJd53UjQ==,25.01.2020 16:20,NMC (Rome),NC,www.meteoam.it,Italy,Rome,41.890000,12.500000,Italian Meteorological Service,07.10.2019 20:56,Published,GISC Offenbach,ITA
3263d7a0-21e9-e911-a9b0-000d3a44bd9c,yX3ulsB3vMqh8tM8GY8z0R6nsucJeYK/P7mQh7f5oErxx2ZA70ELVARrP2pPLkr+vnkN0sYATD6OezuW1GGqdA==,25.01.2020 16:20,NMC (Roseau),NC,www.weather.gov.dm/,Dominica,Roseau,15.500000,-61.650000,Dominica Meteorological Service,07.10.2019 18:44,Published,GISC Washington,DMA
7d290124-7de8-e911-a99e-000d3a44bf07,Y/3cUloN55Drs2qdbrIYd+3bv22gSg9jxgR5sB6unGvdTMxOAeyQEkF3l5Cv2d3zRgn+x97rHmlcjYJexo5f+A==,25.01.2020 08:38,NMC (Sal),NC,www.meteo.cv/,Cabo Verde,Sal,16.716667,-22.933333,National Institute of Meteorology and Geophysics,06.10.2019 23:06,Published,GISC Casablanca,CPV
97290124-7de8-e911-a99e-000d3a44bf07,2PI7JqMJkuuB5O3JalEKqMpgeSY7Sjv3woMVKcxWnlhw2tDNE6wvwrgymONXvwvmlQsyQHOkHWogtTTWrnbF/w==,25.01.2020 16:20,NMC (San José),NC,www.imn.ac.cr/,Costa Rica,San José,9.933333,-84.083333,Instituto Meteorológico Nacional de Costa Rica,06.10.2019 23:06,Published,GISC Washington,CRI
4263d7a0-21e9-e911-a9b0-000d3a44bd9c,bqwSxp37uohn448cKcTuLKc7+Vcs0ieO2lQA7cAj/85g0Ur6Khzf32vwKEu+Scyq691NHmtVjLuRQM5ZXDG8Ew==,25.01.2020 16:20,NMC (San Salvador),NC,www.snet.gob.sv/,El Salvador,San Salvador,13.690000,-89.190000,"Dirección General del Observatorio de Amenazas y Recursos Naturales,   Ministerio de Medio Ambiente y Recursos Naturales",07.10.2019 18:44,Published,GISC Washington,SLV
d03ac789-46e9-e911-a9af-000d3a4429b3,7Ga0Mdnf9Lt2R8aaQq2zyCE4gdyrU8AHMcbCNWoS646JlAtdvvJQwhX3YQILYyvwMrBIBr7/dvNxWMoYhkrEeg==,25.01.2020 08:39,NMC (?an'?),NC,www.yms.gov.ye/,Yemen,?an'?,15.380000,44.210000,"Civil Aviation and Meteorological Authority, Yemen Meteorological Service",07.10.2019 23:08,Published,GISC Jeddah,YEM
83290124-7de8-e911-a99e-000d3a44bf07,8OIj2oDeaAEq5A4bcT3wKu5m8XHO6DYi9rXGPJ/S5nbd+7P5Sa49iQMatFFEj4+wIJH4PymIk/jvFs/0FhjWeA==,09.03.2020 15:19,NMC (Santiago),NC,http://www.meteochile.gob.cl,Chile,Santiago,-33.460000,-70.640000,Dirección Meteorológica de Chile,06.10.2019 23:06,Published,GISC Brasilia,CHL
3463d7a0-21e9-e911-a9b0-000d3a44bd9c,f8MXDVuEYPhogWIchBdgIc3kEqoupX2kX0iQzfhePPdbK2hRK1RqVw8FBm4mIoknsAnakg5IkaNWhAF9d/QvZQ==,25.01.2020 16:20,NMC (Santo Domingo),NC,www.onamet.gov.do/,Dominican Republic,Santo Domingo,18.480000,-69.910000,Oficina Nacional de Meteorología,07.10.2019 18:44,Published,GISC Washington,DOM
e7db1050-3ce9-e911-a9a5-000d3a44b27c,u8tdUo4VYsIGsTu6qJ6RmfNEAxnD6xyTFnGFCvhnTQU392bui5YNje9PZJoOToMCK5TxJRzK5CN04FiyZ3p9Ig==,25.01.2020 16:20,NMC (São Tomé),NC,no.url.available,Sao Tome and Principe,São Tomé,0.333333,6.683333,Institut national de météorologie,07.10.2019 21:55,Published,GISC Casablanca,STP
006bae9b-4fe8-e911-a9af-000d3a4429b3,2RSMMzCib6M4s3I5GkIExjiNC8Evn23iBddnTZVif9bOtG0mXglpEdZj+DZO/nNli1205Gy1M3YTcW8A5CgKxg==,25.01.2020 16:20,NMC (Sarajevo),NC,www.fhmzbih.gov.ba,Bosnia and Herzegovina,Sarajevo,43.866667,18.416667,Federal Hydrometeorological  Institute of the Federation of Bosnia and Herzegovina,06.10.2019 17:40,Published,GISC Offenbach,BIH
13dc1050-3ce9-e911-a9a5-000d3a44b27c,8ixicYusvEuzLFwvGmmgriRoOe3pTD/i6dHeVWXqxCccNM+Z77gIh/ColidFVXdOnR25Uq4Vuh6oIYSnIz6kIg==,25.01.2020 16:20,NMC (Seoul),NC,nc.seoul.kma.go.kr,"Korea, Republic of",Seoul,37.550000,126.983333,Korea Meteorological Administration (KMA),07.10.2019 21:55,Published,GISC Seoul,KOR
7a8c78ba-44e9-e911-a9a5-000d3a44b27c,gR4HeKkgzHDjHCp6dEEurE8eNebXllb04QswbqpQYINNbdExb7/BCYjYMRXDUTxPUW/Wnd51LrHbfYf+4y3mkQ==,25.01.2020 16:20,NMC (Silver Spring),NC,www.weather.gov/,United States of America,Silver Spring,38.989836,-77.025146,National Oceanic and Atmospheric Administration (NOAA),07.10.2019 22:55,Published,GISC Washington,USA
03dc1050-3ce9-e911-a9a5-000d3a44b27c,BCV8OBHtvA2xyAK3+wQ+7zVujFwPmGCqe4GKZwtoD8hCW7qtbD6e1aNh/SwLPCKE1TI8T74tNrFlg9Z1nQ3QDQ==,25.01.2020 16:20,NMC (Singapore),NC,www.nea.gov.sg/,Singapore,Singapore,1.300000,103.850000,Meteorological Service Singapore,07.10.2019 21:55,Published,GISC Melbourne,SGP
7d932015-5be8-e911-a9a5-000d3a44b27c,rqhTTrjnHFXR1CwAQcsZ/jVufQNE2A3hEbOWiwjIJkS3l/XMjWtsTjY6aPe3e54VuqCJkAtB/usvA/4Ug5wXxQ==,25.01.2020 16:20,NMC (Skopje),NC,meteo.gov.mk/,North Macedonia,Skopje,42.000000,21.433333,Hydrometeorological Service,06.10.2019 19:02,Published,GISC Offenbach,MKD
7e5014c9-63e8-e911-a9b0-000d3a44bd9c,VA9RjVfHV5KIGP+G0bRt+Tjxhyhify+nj4JGYset/ykd9GB6Nr8KC7YrO43EiQMH9AZ4sbQbABQZgFpv9n2l4A==,25.01.2020 16:20,NMC (Skopje),NC,meteo.gov.mk/,North Macedonia,Skopje,42.000000,21.433333,Hydrometeorological Service,06.10.2019 20:05,Published,GISC Offenbach,MKD
1aedd240-79e8-e911-a99f-000d3a4421be,RVs6FL8AEkF/FfqHvSDVtxbFZwwYm84Uk0eLRThP+e+TZg31GFgSPSqZTXTRFKkFxeTcgKuWCJQO7qrkFj8Vyg==,25.01.2020 16:20,NMC (Sofia),NC,www.meteo.bg/,Bulgaria,Sofia,42.690000,23.310000,National Institute of Meteorology and Hydrology,06.10.2019 22:38,Published,GISC Offenbach,BGR
869f4406-76e8-e911-a99f-000d3a4421be,cALQ2SJTXC/aotfan4o980guoDZ9CisXf3zoXjUqU+QOdBxJthFiy2hmUvLeXhrNt2hdOuUNJBDpssbvnAMKuA==,25.01.2020 16:20,NMC (St John's),NC,www.antiguamet.com/,Antigua and Barbuda,St John's,17.116667,-61.850000,Antigua and Barbuda Meteorological Services,06.10.2019 22:15,Published,GISC Washington,ATG
8e8c78ba-44e9-e911-a9a5-000d3a44b27c,XTZj0LwHc5I/QwED3UnInb5i1qR0Kq/+LfueC6M9iw+uBiObDpBUJFLWDJSizvjJ3qFPrK7ew6mmwGJDfDH2UA==,25.01.2020 16:20,NMC (Tashkent),NC,www.meteo.uz/uzb/index.php,Uzbekistan,Tashkent,41.310000,69.300000,Centre of Hydrometeorological Service of the Republic of Uzbekistan (Uzhydromet),07.10.2019 22:55,Published,GISC Moscow,UZB
19afee12-30e9-e911-a9af-000d3a4429b3,DvTbhFvB4MC5tC08rJujY1q+DCVVMA7DZB3L49ylcUVwApZWUPa1CCCYP1nHybRgMatNJvGy3yeO9sgHE7AGJA==,25.01.2020 16:20,NMC (Tbilisi),NC,www.meteo.gov.ge/,Georgia,Tbilisi,41.720000,44.790000,National Hydrometeorological Service,07.10.2019 20:27,Published,GISC Moscow,GEO
c37e910f-32e9-e911-a9a5-000d3a44b27c,+cvVly8BYcDvqxkCtyQGNGuR9SU5820zgMbUtK1hXjQvRx+WISKr2KkMg9Mjsz5HiLbsEFh/R7GBZxBQg9aBKA==,25.01.2020 16:20,NMC (Tegucigalpa),NC,www.smn.gob.hn/,Honduras,Tegucigalpa,14.090000,-87.220000,Servicio Meteorologico Nacional de Honduras,07.10.2019 20:41,Published,GISC Washington,HND
a06c4c14-47e9-e911-a9af-000d3a4429b3,BKR1DtcqaqCc5TBj07L1yDC2NzpIzE9PrjQB3G4kFhq3fG8wcy5JpLQOQyqnDeFwMY0TE/waURw4RWCSR6fsxw==,25.01.2020 16:20,NMC (Tehr?n),NC,www.bmkg.go.id/,"Iran, Islamic Republic of",Tehr?n,35.670000,51.430000,Islamic Republic of Iran Meteorological Organization (IRIMO),07.10.2019 23:12,Published,GISC Tehran,IRN
9fc55af3-50e8-e911-a9af-000d3a4429b3,JWqUeGafVPlsIb2HhBRuJ0oAMsUlcOW1hFCbyj64RByCjKV2Um03/pwveccGdvor8Fb8cJ/1ZPckbYPtrDRt4g==,25.01.2020 16:20,NMC (Tel Aviv),NC,www.ims.gov.il/,Israel,Tel Aviv,32.083333,34.800000,Israel Meteorological Service,06.10.2019 17:50,Published,GISC Offenbach,ISR
fc6aae9b-4fe8-e911-a9af-000d3a4429b3,ctzgVG5wNZH47rkvD5QBeHM5lqpQknHGSFXmlc39/i0um0WiQX9ZWPuMWyWMKIwhE/VntlZ/e3AYWZbtmW9QJg==,09.03.2020 05:30,NMC (Thimphu),NC,http://www.nchm.gov.bt,Bhutan,Thimphu,27.466667,89.633333,National Center for Hydrology and Meteorology,06.10.2019 17:40,Published,GISC New Delhi,BTN
323359d3-76e8-e911-a9af-000d3a4429b3,NvHGMd9hZgN9Nn1s8PCVHFQYO3wwZeJJSILSs8KTPNG/VrYwIGaX0eC8bYc5oxU2gu0lRdBf1rrXWEF2bS3kpA==,25.01.2020 16:20,NMC (Tirana),NC,no.url.available,Albania,Tirana,41.330000,19.820000,Hydrometeorological Institute,06.10.2019 22:21,Published,,ALB
745014c9-63e8-e911-a9b0-000d3a44bd9c,u0BF/oauT1GrQdaUCn0gDT/GAkxUCJ4+ZI51p+uKs7WSBANeFPjY+cJCAeymLuibUogvbA1dFMBeLkmnRY3BSg==,25.01.2020 16:20,NMC (Tokelau),NC,no.url.available,New Zealand,Tokelau,-9.166667,-171.833333,"MetService, New Zealand",06.10.2019 20:05,Published,GISC Melbourne,NZL
6f932015-5be8-e911-a9a5-000d3a44b27c,zl0fRUnLMNUIRouL2ZHK0Ta+PtDenRy5w6RXDjKTvD9g5zpv0Nf+zT4ESzLz9xQ+MKgHBS9wQtR3MgpjKIMCUQ==,25.01.2020 16:20,NMC (Tokyo),NC,www.jma.go.jp/,Japan,Tokyo,35.683333,139.766667,Japan Meteorological Agency (JMA),06.10.2019 19:02,Published,GISC Tokyo,JPN
8e9f2da4-23e9-e911-a99e-000d3a44bf07,vww0lVkeKoBVizxRC6Ig8f4vvX+2BPzFWiGFbzZdzSCFb5og3/euA7v/1599MghXhsUN58ADg5uYD65uBGh6vw==,25.01.2020 16:20,NMC (Toulouse),NC,www.meteo.fr/,France,Toulouse,43.604444,1.443889,Météo-France (Toulouse),07.10.2019 18:58,Published,GISC Toulouse,FRA
7b932015-5be8-e911-a9a5-000d3a44b27c,ge6QdJyCVe1mqXxGBObIQ3WVnbk9VEqF+LFKyQkDNdsMyJyKh30p2vxoTPyoXS55vQhEeglJWE8SUsYVEeEEyg==,25.01.2020 16:20,NMC (Tripoli),NC,no.url.available,Libya,Tripoli,32.900000,13.183333,Libyan National Meteorological Centre,06.10.2019 19:02,Published,GISC Casablanca,LBY
3ddc1050-3ce9-e911-a9a5-000d3a44b27c,/oSEYM56B8a9Kp8qqvLlKcR38ubTE9cLqFd2qbl8ZdZBwfsq3ksdfBaO2H7qgCvc67HmcXnLfGqtbr9n81vqyQ==,25.01.2020 16:20,NMC (Tunis),NC,www.meteo.tn/htmlen/accueil.php,Tunisia,Tunis,36.840000,10.220000,National Institute of Meteorology,07.10.2019 21:55,Published,GISC Toulouse,TUN
a8ab2dba-6ee8-e911-a99f-000d3a4421be,FsIfYZ8kHQ6l4shXZeqXlUCa+nwb1t+sIytgbmMxtUHhQS8R+rEEfy2uIYIgOP1q6+Td4mnvFb6IjcplfTAPrA==,25.01.2020 16:20,NMC (Ulaanbaatar),NC,no.url.available,Mongolia,Ulaanbaatar,47.930000,106.910000,National Agency for Meteorology and Environmental Monitoring (NAMEM),06.10.2019 21:23,Published,GISC Beijing,MNG
cbc55af3-50e8-e911-a9af-000d3a4429b3,a0yzfoHSHg9nXjNvRAYjVHYIN8P5BfGjXMttHOuJ9AGERs/aGDPRmxOyz17LGMAC7tV/6Fvw8kaC/KdV4TZQpA==,25.01.2020 08:38,NMC (Valletta),NC,www.maltairport.com/weather/,Malta,Valletta,35.900000,14.516667,Meteorological Office,06.10.2019 17:50,Published,GISC Exeter,MLT
fddb1050-3ce9-e911-a9a5-000d3a44b27c,wGPaKID5NOloAv5nPPl8hPMzNQDee5/1ked3fAZtiRJZKqY/rPv+WWS5GOA3R1iPvOi762V/kozVxWm3sr9wsg==,25.01.2020 08:38,NMC (Victoria),NC,www.pps.gov.sc/,Seychelles,Victoria,-4.616667,55.450000,Seychelles Meteorological Authority (SMA),07.10.2019 21:55,Published,GISC Casablanca,SYC
a29f4406-76e8-e911-a99f-000d3a4421be,Jxsom9k1WJUUMtOkdlVz0hmxNl+6WOSXSeATHgbUhe6p+lfnKuGZRpU5gJ7ODLXlJMK8n9yyU2ARwVVZDXJbLQ==,25.01.2020 16:20,NMC (Vienna),NC,www.zamg.ac.at/,Austria,Vienna,48.220000,16.370000,Central Institute of Meteorology and Geodynamics (ZAMG),06.10.2019 22:15,Published,GISC Offenbach,AUT
c1c55af3-50e8-e911-a9af-000d3a4429b3,a2KEpekkxBuSa5SjxbCQc3zIm97gCyTpMByLsnPtxkcaapf6gE/LF84VFvfIS8w8EtszeQTo5YxIEbGLXmKv3g==,25.01.2020 16:20,NMC (Vientiane),NC,dmhlao.etllao.com/,Lao People's Democratic Republic,Vientiane,17.966667,102.600000,Department of Meteorology and Hydrology,06.10.2019 17:50,Published,GISC Tokyo,LAO
778f2df7-67e8-e911-a9a5-000d3a44b27c,KUx8S1KF3ewunmvqjOOi5Q9CtjhT7y1/6QGKAUBNtLXQXK0ShI5dwtn2YjPunIPb5ZflhC0Ke6+xMR1IYotuQg==,25.01.2020 16:20,NMC (Vilnius),NC,www.meteo.lt/,Lithuania,Vilnius,54.700000,25.270000,Lithuanian Hydrometeorological Service,06.10.2019 20:35,Published,GISC Offenbach,LTU
2e12f6eb-71e8-e911-a9a5-000d3a44b27c,A3ObtvA499Wy17KTTB9wYFI070nSvmXXyyXqBEbqpFMf76+bDjzjUwWMzQfJB4sns4eIuk3ccKDQyMDsMwAKLA==,25.01.2020 16:20,NMC (Warsaw),NC,www.imgw.pl/,Poland,Warsaw,52.260000,21.020000,Institute of Meteorology and Water Management (IMGW),06.10.2019 21:46,Published,GISC Offenbach,POL
765014c9-63e8-e911-a9b0-000d3a44bd9c,NGjfANQStlckbMsS4gEnfg3KTXX72rvxbXD0NxEA6YZfQPLZv8F6obCRzalal0D94ndlmtHQrpzhQmfc+r+NNg==,26.02.2020 01:54,NMC (Wellington),NC,www.metservice.com/national/home,New Zealand,Wellington,-41.283333,174.783333,"MetService, New Zealand",06.10.2019 20:05,Published,GISC Melbourne,NZL
9f290124-7de8-e911-a99e-000d3a44bf07,79Tt0Dq7YjseETw1W9p2AimKuJCuMnYloirHIMGlATucOltL+WoSJukFv3N/iXb88uJorF1K3xWNMRza5Its+Q==,25.01.2020 16:20,NMC (Willemstad),NC,www.meteo.cw,Curaçao,Willemstad,12.116667,-68.933333,"Meteorological Department, Ministry of Traffic, Transport and Urban Planning",06.10.2019 23:06,Published,GISC Washington,CUW
83932015-5be8-e911-a9a5-000d3a44b27c,Boz7MoMG5yb1Y/tT8rQpe9Qz8QyF/ODx7FdFwOM7avCcLSshS0KsUFG8nSXdzD7KHp6+z7cwm6YoYznFmOxpuQ==,25.01.2020 16:20,NMC (Windhoek),NC,www.meteona.com/,Namibia,Windhoek,-22.566667,17.083333,Meteorological Services,06.10.2019 19:02,Published,GISC Pretoria,NAM
d1c55af3-50e8-e911-a9af-000d3a4429b3,7PT/xTe8bxSRI4lJXQ1m6q97bMm1d5Z+jyd30RUUZ7ivYvbNBhtx+M8rA5ye3N8CsRWmwqT0w/CFquUD6u071A==,25.01.2020 16:20,NMC (Yangon),NC,www.dmh.gov.mm/,Myanmar,Yangon,16.800000,96.150000,Department of Meteorology and Hydrology,06.10.2019 17:50,Published,GISC Tokyo,MMR
929f4406-76e8-e911-a99f-000d3a4421be,5Kv23lOvh29Zku+NC4pJg4QzCg1urKGA2/99bH2Yt4x4v2CT0a1RJbhUsAWtQ9ABpk980bTjAmW7df8e6zPCQA==,25.01.2020 16:20,NMC (Yerevan),NC,www.meteo.am/,Armenia,Yerevan,40.170000,44.520000,Armstatehydromet,06.10.2019 22:15,Published,GISC Moscow,ARM
9b290124-7de8-e911-a99e-000d3a44bf07,9PnfUD1N2nwdYUwHsdQftAB9AAb/n3e6humBlITSQT2Ld7Y1RvIbU0Ug9abKcxIfDzuTo8eOMmUHKQa5PK2PnA==,25.01.2020 16:20,NMC (Zagreb),NC,www.meteo.hr,Croatia,Zagreb,45.800000,15.970000,Meteorological and Hydrological Service of Croatia,06.10.2019 23:06,Published,GISC Offenbach,HRV
29dc1050-3ce9-e911-a9a5-000d3a44b27c,RVpmbx/4KcP/hobrELKJrXqQcJYQvg6HUeVZao6Oa5DmapuGRYWxDbOOvYujhvSUrk+65uwrXn7O9fGLzGH6dw==,25.01.2020 16:20,NMC (Zürich),NC,www.meteoswiss.ch/,Switzerland,Zürich,47.366667,8.550000,MétéoSwiss,07.10.2019 21:55,Published,GISC Offenbach,CHE
9f0b5407-3a58-ea11-b698-0003ff4a2720,SGeSipteC56g42K3UkINMbAyLCu7GHXQk7Yb0vmITxkKfq6N7M7P/bjtWAA6jWVJJBGpoL6ayH4JhbG4j27E+w==,03.04.2020 21:52,NMC Rartotonga,NC,https://www.met.gov.ck/,Cook Islands,Avarua,-21.200000,-159.817000,Cook Islands Meteorological Service,26.02.2020 02:48,Unpublished,GISC Melbourne,NZL
40e6f217-67e8-e911-a9a5-000d3a44b27c,f2cU8+nBeFZL5DugdE6rvwoSyMuJg1agmnJXNSHj74m+gt2/OQax53GygfRKc1/5pwZe47aP7Hq+pMJ6Y1uBPA==,25.01.2020 09:54,NMSC (Seoul),DCPC,dcpc.nmsc.kma.go.kr/openwis-user-portal/srv/en/main.home,"Korea, Republic of",Seoul,37.550000,126.983333,Korea Meteorological Administration (KMA),06.10.2019 20:28,Published,GISC Seoul,KOR
2fe064f3-64e8-e911-a9b0-000d3a44bd9c,+8JxYt2Qax0WtUsfneJOKGrncKKE0jjWalZfbXGZfgbj4le/4PPpA7cDvbGT4xdUKabb0X6YjLQUEB314kQp9g==,25.01.2020 09:54,Norwegian Institute for Air Research (NILU-EBAS) (Kjeller),DCPC,ebas.nilu.no/,Norway,Kjeller,59.974815,11.047740,Norwegian Meteorological Institute,06.10.2019 20:13,Published,GISC Offenbach,NOR
54213818-38e7-e911-a9af-000d3a4429b3,EErGhQsAJGBNNLARNp2XBqiMAU06PZftBa8r38nuuY4N0ZDbcK5ffw5EizVNaMo51zhUrJsp8gmutbreXurTqQ==,25.01.2020 16:20,Norwegian Meteorological Arctic Data Centre,NC,arcticdata.met.no/,Norway,Oslo,59.913900,10.752200,Norwegian Meteorological Institute,05.10.2019 08:19,Published,GISC Offenbach,NOR
9a6c4c14-47e9-e911-a9af-000d3a4429b3,1IhQfXju6TnIkb3ofcIo0vG6uyDvurb/rPG7Wz0DIMIqJC4ytyEPoDPL+cjpahMmGLMxvc5DkVh8RyQ4QP7/Rw==,25.01.2020 09:54,NWP Atmospheric Transport - SE Asia (Jakarta),DCPC,wis.bmkg.go.id/index.php?portal=dcpc&lang=en,Indonesia,Jakarta,-6.180000,106.830000,"Meteorological, Climatological and Geophysical Agency (BMKG)",07.10.2019 23:12,Published,GISC Melbourne,IDN
588c78ba-44e9-e911-a9a5-000d3a44b27c,TCzCjI8NEHjtBhcZK0mBmMEamub5oCWrVg/0FfPhJLIVnJG63qMlUE+OlL7MkneFguzLS1xQI5lLjpDStIDtdw==,25.01.2020 13:44,Opera Data Centre (ODC Exeter),DCPC,,United Kingdom,Exeter,50.716667,-3.533333,Met Office,07.10.2019 22:55,Published,GISC Exeter,GBR
909f2da4-23e9-e911-a99e-000d3a44bf07,1iCOFd4W4vx/mXM0skEYlWGA/d3o+/1bBMypb+krBPrlKrUouJbv0Il3Ucp4O/CM7MSYU633oCKMz1lHGZcOGg==,25.01.2020 09:54,Radar Data Centre (ODC Toulouse),DCPC,dcpc-odc.meteo.fr,France,Toulouse,43.604444,1.443889,Météo-France (Toulouse),07.10.2019 18:58,Published,GISC Toulouse,FRA
c1921f37-6ee8-e911-a99f-000d3a4421be,X7J9yDWwCQ+nLJm3gpbp/XyoNSINpiCNgHpk1hDT690J6yMI0f9SXZCWHgMANDtpt56vmMEfW8BtjPSyG2qEag==,25.01.2020 09:54,"RCC (AE De Bilt, Lead RA VI on Climate Data)",DCPC,,Netherlands,De Bilt,52.120000,5.180000,Royal Netherlands Meteorological Institute (KNMI),06.10.2019 21:19,Published,GISC Exeter,NLD
89290124-7de8-e911-a99e-000d3a44bf07,0XIJlzLM/2trQA5s24EHKQJ8HsOUqyjQIs7cP98wXqn3seXrUlgNYbf6RsnE/z3MB19ZXmCbdsQlH5/3HVA9vw==,25.01.2020 09:54,"RCC (Beijing NCC, - RA II)",DCPC,,China,Beijing,39.900000,116.383333,China Meteorological Administration (CMA),06.10.2019 23:06,Published,GISC Beijing,CHN
fbdb1050-3ce9-e911-a9a5-000d3a44b27c,lvmWmEpuNze1ouZPjmX+7sdztknnpYKhwRm0wnTVD6p5H16DQycCSiDZxuggmBeXXafC9L7iVyfdPvYdhiqI4w==,25.01.2020 09:54,"RCC (Belgrade, RA VI Network Member)",DCPC,wis-geo.hidmet.gov.rs,Serbia,Belgrade,44.800000,20.466667,Republic Hydrometeorological Service of Serbia,07.10.2019 21:55,Published,GISC Offenbach,SRB
380077cc-41e9-e911-a9af-000d3a4429b3,PEWklXKnMHDvKxFy8QOuwMN6zqyXnEyEPmd9Hx6UOWaY49vEWTvvR5m/keIfBOp0U7DjqA6Y75Nc4K8ev17r0A==,25.01.2020 09:54,RCC (EMCC - RA VI) (Ankara),DCPC,dcpc.mgm.gov.tr,Turkey,Ankara,39.930000,32.850000,Turkish State Meteorological Service (TSMS),07.10.2019 22:34,Published,GISC Offenbach,TUR
b473e691-73e8-e911-a99f-000d3a4421be,vSIwA2TJmY0Ieo1Inz42fAPWoq5AEcCW4HBxRXPm0urp/k07Ydkr0ZHoQC5/yYjSVWU6Bm17hsn1cdypuF7BJg==,25.01.2020 09:54,"RCC (Moscow, Lead RA II, Lead RA VI LRF)",DCPC,,Russian Federation,Moscow,55.750000,37.620000,Russian Federal Service for Hydrometeorology and Environmental Monitoring (ROSHYDROMET),06.10.2019 21:58,Published,GISC Moscow,RUS
8a469c43-70e8-e911-a9a5-000d3a44b27c,s6lHl/h3eIPhmbxGXuIuiw7yhiFXkTskkMx581wAOyPbvBOQt3lJFbBkd59neK8u7ipgJUPmtOHwypfV7Im3ig==,25.01.2020 09:54,RCC (Niamey),DCPC,acmad.org/,Niger,Niamey,13.520000,2.120000,African Centre of Meteorological Applications for Development (ACMAD),06.10.2019 21:34,Published,GISC Casablanca,NER
25afee12-30e9-e911-a9af-000d3a4429b3,7YLxl5E6xq3cWfcVYR2i6jlNY038IGmzIS+R4F7W02V4XZ5qER9zJGvz/V8JgIbn+LUDJ1nyoZQ+VvFvl4qwpg==,25.01.2020 09:54,"RCC (Offenbach, Lead RA VI )",DCPC,rcc.dwd.de/DWD-RCC/EN/network/rcccm/rcccm_node.html,Germany,Offenbach,50.133333,8.783333,Deutscher Wetterdienst (DWD),07.10.2019 20:27,Published,GISC Offenbach,DEU
6b932015-5be8-e911-a9a5-000d3a44b27c,G3Bgc1IkKGOI9DDcLtZblLo7casgxyr49jg9/1CAIYNxG2gqe0oGAbn/EPz9hn+QbpLRfxF3VhqzdB3Y0kL6iA==,25.01.2020 09:54,"RCC (Tokyo NCC, RA II)",DCPC,ds.data.jma.go.jp/tcc/tcc/index.html,Japan,Tokyo,35.683333,139.766667,Japan Meteorological Agency (JMA),06.10.2019 19:02,Published,GISC Tokyo,JPN
929f2da4-23e9-e911-a99e-000d3a44bf07,gyVtJi5ugPIqh4zXLUspWObNSkP6rc7YI1FImUbbgJgKfups7gUVGC1G/Xe7M4hyLfnVJzj5PUXv/be5kuEJ1A==,25.01.2020 09:54,"RCC (Toulouse, Lead RA VI on LRF)",DCPC,,France,Toulouse,43.604444,1.443889,Météo-France (Toulouse),07.10.2019 18:58,Published,GISC Toulouse,FRA
ebdb1050-3ce9-e911-a9a5-000d3a44b27c,t9M/ldCeHGeXE8kWH9lAmHxQTqA24dwp1zuPO4RQ/xdqmzKecAJn75lZCvalFOas4noGUf8sMR0gmZ2VqTnM+A==,25.01.2020 08:39,RDMEC (Drought) (Jeddah),NC,jrcc.sa,Saudi Arabia,Jeddah,21.833333,39.266667,General Authority of Meteorology and Environmental Protection (GAMEP),07.10.2019 21:55,Published,GISC Jeddah,SAU
5d932015-5be8-e911-a9a5-000d3a44b27c,DwOLNNdwgOQ9ZK0jlmQz0gdvUQCXM0e/IFTYwb3y5KqKr8ZY6in2Mf7LfJe1yiIlxsDBoTQj4Uuap0i0/NPfQw==,25.01.2020 09:54,REC-MMO-MED (Rome),DCPC,medcpc.meteoam.it,Italy,Rome,41.900000,12.483333,Italian Meteorological Service,06.10.2019 19:02,Published,GISC Offenbach,ITA
949f2da4-23e9-e911-a99e-000d3a44bf07,EM8xwIQZOESgpJnuYQSkg3il3nu2aOfNrIDo37ZimicAWDnfS3Dl8y1gr4Fsdj0i2ypWhbBmNsJNeBYD27FqXA==,25.01.2020 09:54,Regional NWP support (Toulouse),DCPC,,France,Toulouse,43.604444,1.443889,Météo-France (Toulouse),07.10.2019 18:58,Published,GISC Toulouse,FRA
8a9f4406-76e8-e911-a99f-000d3a4421be,72R+mNgspANZaVIKmgIhaKl94WYuGxqokp6wIcBSI0mymqeP8qEMcCsbn1povsxDXtii01t7lIzzPn3+O+kbqw==,25.01.2020 09:54,Regional Ozone Centre (Buenos Aires),DCPC,,Argentina,Buenos Aires,-34.610000,-58.370000,Servicio Meteorológico Nacional (SMN),06.10.2019 22:15,Published,GISC Brasilia,ARG
3a63d7a0-21e9-e911-a9b0-000d3a44bd9c,GWWa/pafU6n1Xjnz3Mbd+KMotCtmf0LYhOyCkbswKmFbTEOyujKc4YWj+4Cq0LFFgKlXuycRWDqWHiLb+2ShJA==,25.01.2020 09:54,Regional Ozone Centre (Cairo),DCPC,,Egypt,Cairo,30.060000,31.250000,The Egyptian Meteorological Authority,07.10.2019 18:44,Published,GISC Casablanca,EGY
45e192c6-6ce8-e911-a9af-000d3a442d08,jBYqpXj5Zo4A33WjHX81CE1foJxssfm5uU8eAC66Rw6EfeNLEp7aqukJqcr80/bz4zS7q6ZfFHNhrfIp2ghGdw==,25.01.2020 08:50,RIC/RMIC (Casablanca),Other,www.marocmeteo.ma/,Morocco,Casablanca,33.600000,-7.620000,Department of National Meteorology of Morocco,06.10.2019 21:09,Published,,MAR
7c8c78ba-44e9-e911-a9a5-000d3a44b27c,V/SUTL5aEzTWPB3oUQzcqpmOt9r/llap8X/YKvtfHJaHvqqlTJnHtOCKLesKgRz4ugRn4yldXR1qGWnzddcECQ==,25.01.2020 09:54,RMSC-Geographical / NESDIS,DCPC,www.nesdis.noaa.gov/,United States of America,Washington,38.910000,-77.020000,National Oceanic and Atmospheric Administration (NOAA),07.10.2019 22:55,Published,GISC Washington,USA
b673e691-73e8-e911-a99f-000d3a4421be,JDaWkJQ4zCF9wkGYgfTnBjbGVGg4nrwUXpANzJTjl/5SeVZqiQ9I6j5OgP3sVhYSE/GzY6YInprU4zKiCG6R8Q==,25.01.2020 09:54,RNODC and GDC (Obninsk),DCPC,,Russian Federation,Obninsk,55.091140,36.609879,Russian Federal Service for Hydrometeorology and Environmental Monitoring (ROSHYDROMET),06.10.2019 21:58,Published,GISC Moscow,RUS
3c63d7a0-21e9-e911-a9b0-000d3a44bd9c,vFfP+agH8AgsH8OLYQ7808dm9ENLEHsBBbDbilXzJWzfUcuQn0oELZ5ANZ1tMMqoaY6BTSU2bm6y8k/tfTU+tQ==,25.01.2020 09:54,RRC (Cairo),DCPC,,Egypt,Cairo,30.060000,31.250000,The Egyptian Meteorological Authority,07.10.2019 18:44,Published,GISC Casablanca,EGY
8c469c43-70e8-e911-a9a5-000d3a44b27c,f4C6nbaTLmacOPkZaslYY8EMPyyNprkEyTGnATt+JhajpM3y4MZiessWmDU7Tv9+6mvaBg38bL0g7VNonIO/LQ==,25.01.2020 09:54,RSMC (Niamey),DCPC,acmad.org/,Niger,Niamey,13.520000,2.120000,African Centre of Meteorological Applications for Development (ACMAD),06.10.2019 21:34,Published,GISC Casablanca,NER
785014c9-63e8-e911-a9b0-000d3a44bd9c,KDLZMFGt5C/w1jgJTsKZ13sk7CxEfH4yflWAk/FcCk/86rGsvkRCz8BP/rXqS7fIEHwgzsdm/Z62r+Pcnmkk/w==,13.02.2020 02:23,RSMC (Wellington),DCPC,https://www.metservice.com,New Zealand,Wellington,-41.283333,174.783333,"MetService, New Zealand",06.10.2019 20:05,Published,GISC Melbourne,NZL
5a8c78ba-44e9-e911-a9a5-000d3a44b27c,+27UMcG8cPocN+7vp/3WIFobOvwfogv3aKZLS5mTo38E04J30jySLN6Jb4kb+rIqI2eQlp2zlwtZ10Q+7F6cNA==,25.01.2020 13:44,RSMC-Activity-ATM (Exeter),DCPC,,United Kingdom,Exeter,50.716667,-3.533333,Met Office,07.10.2019 22:55,Published,GISC Exeter,GBR
67a8705a-673f-ea11-b698-0003ff43d654,O9XxaOuL7atq0evO7TBRF+Yl+35crULrwwvpeOkWsgKVUCjAyA4UwclO/xlfpf6pELFKhvFhJx4AZkcHZ1sC8w==,25.01.2020 12:03,RSMC-Activity-ATM (Melbourne),Other,http://www.bom.gov.au/wmo/operational.shtml,Australia,Melbourne,-37.810000,144.960000,Bureau of Meteorology,25.01.2020 12:39,Published,,AUS
7b290124-7de8-e911-a99e-000d3a44bf07,Z15NtGJCR+Dc6QgTcSnMHbGS5sAvK0zyhP27Z6FU1G8nBqRykSUa/uDX29u3nzb+jCuJsFvVTU1tLQWQyJDelA==,25.01.2020 09:54,RSMC-Activity-ATM (Montreal),DCPC,weather.gc.ca,Canada,Montreal,45.520000,-73.570000,Meteorological Service of Canada (MSC),06.10.2019 23:06,Published,GISC Washington,CAN
8b290124-7de8-e911-a99e-000d3a44bf07,lGSUpRFvhwSAdC/vOT8RF710Rw7Hmw03pWmEt7xEK7xcpcnsKr75nMBTyuyFm7ZhKaVm+xmblfZ7beaO6w5uxQ==,25.01.2020 09:54,RSMC-Activity-ATM (NMC) (Beijing),DCPC,,China,Beijing,39.900000,116.383333,China Meteorological Administration (CMA),06.10.2019 23:06,Published,GISC Beijing,CHN
b873e691-73e8-e911-a99f-000d3a4421be,yOte/RhxvFPatpDSW2vqYOBAXy0V0z/to3O4CId2sEp0+ft9bn+/BjezirwzJ0f4c79yGQInDM29UM8mXtPnZw==,25.01.2020 09:54,RSMC-Activity-ATM (Obninsk),DCPC,,Russian Federation,Obninsk,55.091140,36.609879,Russian Federal Service for Hydrometeorology and Environmental Monitoring (ROSHYDROMET),06.10.2019 21:58,Published,GISC Moscow,RUS
65932015-5be8-e911-a9a5-000d3a44b27c,MhVMwTBRXBdZKQi+QcQAR5wb0vb4o3o9PYA7Ncmh8Ez7J2gbKGayCnlzFpDd+8UjDX5QQJyjMoIRA/JuUNrRMA==,25.01.2020 09:54,RSMC-Activity-ATM (Tokyo),DCPC,,Japan,Tokyo,35.683333,139.766667,Japan Meteorological Agency (JMA),06.10.2019 19:02,Published,GISC Tokyo,JPN
969f2da4-23e9-e911-a99e-000d3a44bf07,DedFXpNHCFhM2vTfQuW1Kmi4kgr4atJfMMxRrTaTo7wh2MIwKyiwHK6OQ1t/plqM5H5E1AkTgB3oIbcVNXvVpw==,25.01.2020 09:54,RSMC-Activity-ATM (Toulouse),DCPC,,France,Toulouse,43.604444,1.443889,Météo-France (Toulouse),07.10.2019 18:58,Published,GISC Toulouse,FRA
7e8c78ba-44e9-e911-a9a5-000d3a44b27c,qgQQdh56YDKgcYezGfyPe3nF1n6TvnnKUIcb+T5nIMlAQqi15QlXKiKcRA3QaczXFF/pb8EEMoQHY6sGoaOgSQ==,25.01.2020 09:54,RSMC-Activity-ATM (Washington),DCPC,,United States of America,Washington,38.910000,-77.020000,National Oceanic and Atmospheric Administration (NOAA),07.10.2019 22:55,Published,GISC Washington,USA
673ef35b-833f-ea11-b698-0003ff43d654,XKF7p7yasgG2ORy2dYuMMlYJV2RiOmxZrb14wCPrrVEBQOQjWfJ2EcF8PXm8gsdVAhYjUXrn+fly5m+uU1BmGg==,25.01.2020 15:20,RSMC-Activity-LA-NWP (Moscow),Other,http://government.ru/en/department/49/,Russian Federation,Moscow,55.750000,37.620000,Russian Federal Service for Hydrometeorology and Environmental Monitoring (ROSHYDROMET),25.01.2020 16:00,Published,,RUS
d6bcf241-843f-ea11-b698-0003ff43d654,ftGdZyS26JptSMi8Uuz9jvE/72MxzFgtHWb3xCR2wymfJBmYxbMw6+UmlA+mSbYHfQH5APeWAJvuLyLyOLErvA==,25.01.2020 15:20,RSMC-Activity-LA-NWP (Offenbach),Other,http://www.dwd.de,Germany,Offenbach,50.133330,8.783333,Deutscher Wetterdienst (DWD),25.01.2020 16:06,Published,,DEU
d20ddcd6-833f-ea11-b698-0003ff43d654,afkGZOb/fAjVjbs66w9R2FjzaB2LxuIHT9K0WMC7TsPM0V5ysvrdJ7DxRgKGQ8GyloW5ylBDKeP40+WgtDuOcg==,25.01.2020 15:20,RSMC-Activity-LA-NWP (Pretoria),Other,http://www.weathersa.co.za/,South Africa,Pretoria,-25.730000,28.220000,South African Weather Service,25.01.2020 16:03,Published,,ZAF
242602c5-843f-ea11-b698-0003ff43d654,RKMmbDPbx29ohty2y90UXxrW3uRaqhFG6Qc4KlNtoPPCpS8YgyD+3W6WDKsrAU+2cDfPOLT+v24k1DOBQor1VQ==,25.01.2020 15:19,RSMC-Activity-LA-NWP (Rome),Other,http://medcpc.meteoam.it,Italy,Rome,41.900000,12.483333,Italian Meteorological Service,25.01.2020 16:10,Published,,ITA
da778ffc-683f-ea11-b698-0003ff43d654,AHqXzoxQhK/mkHXuY9EujVVP0+p4l+adbN/3JnNdbn/1J1fB5I2yucsM7FjsqZdyGQH80uglGCeZoPF1jkb8kw==,25.01.2020 12:03,RSMC-Activity-NWP (Beijing),Other,http://www.cma.gov.cn/,China,Beijing,39.900000,116.383000,China Meteorological Administration (CMA),25.01.2020 12:51,Published,,CHN
94c6ee9b-793f-ea11-b698-0003ff43d654,0j0ee21340kVWoTCWNscWFmv6vklCzluPROunZMY61OPZH/1a/UVXmAwBX0ScDH1YoSpAxoSVGieUfjrX5Yj+Q==,25.01.2020 15:18,RSMC-Activity-NWP (Exeter),Other,https://www.metoffice.gov.uk/,United Kingdom,Exeter,51.716666,-3.533333,Met Office,25.01.2020 14:50,Published,,GBR
a6bbbbe7-753f-ea11-b698-0003ff43d654,axlff+GOh+qO7xyG5xfZmC/CiVk/2eLTemAzMGrhaix3gVC4+n5ZYkRgOeZ7k3qOWsdYXQMXvwdqYuSnhV6RTw==,25.01.2020 13:40,RSMC-Activity-NWP (Montreal),Other,https://weather.gc.ca/,Canada,Montreal,45.520000,-73.570000,Meteorological Service of Canada (MSC),25.01.2020 14:23,Published,,CAN
9e4dff8a-823f-ea11-b698-0003ff43d654,FNXYK792HLaRdxnyo8fHPX0c+bftk3H2xvk4oD5l/6HKOHxgBSFqlPdgHfxiPxwn1H2bRsVGN/ULYBvRoDGbFw==,25.01.2020 15:18,RSMC-Activity-NWP (Moscow),Other,http://government.ru/en/department/49/,Russian Federation,Moscow,55.750000,37.620000,Russian Federal Service for Hydrometeorology and Environmental Monitoring (ROSHYDROMET),25.01.2020 15:54,Published,,RUS
4ccaf4dd-813f-ea11-b698-0003ff43d654,g3mNkcxWArqvpEmnvMU3M1SVJTxhY914QcJB3Kc9HaXpWB5xOf17Un81Jada5JLFmYtz3CV0TYzvD8jS7VC4qQ==,25.01.2020 15:17,RSMC-Activity-NWP (Tokyo),Other,http://www.jma.go.jp,Japan,Tokyo,35.683000,139.766660,Japan Meteorological Agency (JMA),25.01.2020 15:49,Published,,JPN
808c78ba-44e9-e911-a9a5-000d3a44b27c,eEsqBEfkxyMxuJY+5y/Woqs8ijXjbRPTDseIsCWGNgeQjZ3Lo/PDqEDRSQ4PsmYNYFRGGIQKcGCSUDytw5iMBw==,25.01.2020 09:54,RSMC-Activity-TC (Honolulu),DCPC,www.prh.noaa.gov/hnl/cphc/,United States of America,"Honolulu,  Hawaii",21.300000,-157.833333,National Oceanic and Atmospheric Administration (NOAA),07.10.2019 22:55,Published,GISC Washington,USA
989f2da4-23e9-e911-a99e-000d3a44bf07,tF5l1TF11fgdMyl/ty/lritE9EmHgHinHzjpSglMGOEZ51uKCR1R1p0ad/GpKsxvpjp4mXrNjpKeryhIbdH9Zw==,25.01.2020 09:54,RSMC-Activity-TC (La Réunion),DCPC,,France,La Réunion,-21.114444,55.532500,Météo-France (Toulouse),07.10.2019 18:58,Published,GISC Casablanca,FRA
828c78ba-44e9-e911-a9a5-000d3a44b27c,dvmjY3c4JW+OquNWRmxPvWqngixf59JTuaM2650oidctk7QpIL4pYfSRUsaG6MNBdD4oBIUZNQRTC2hDduUwOw==,25.01.2020 09:54,RSMC-Activity-TC (Miami),DCPC,www.nhc.noaa.gov/?,United States of America,"Miami,  Florida",25.783333,-80.216667,National Oceanic and Atmospheric Administration (NOAA),07.10.2019 22:55,Published,GISC Washington,USA
829f2da4-23e9-e911-a99e-000d3a44bf07,12JRPsnDEEMU3eCu4dryP2T+5QctlTEBQpxbgaIF7Eo+ZueSHxkCTu+DldRahxRicNmTrbrh+Q95QOMTpjnSxQ==,25.01.2020 09:54,RSMC-Activity-TC (Nadi),DCPC,,Fiji,Nadi,-17.480000,177.250000,Fiji Meteorological Service,07.10.2019 18:58,Published,GISC Melbourne,FJI
9bc55af3-50e8-e911-a9af-000d3a4429b3,hiXprhWgLA1KqgQwvitHHe9ql1qBT9xQS1s8JfuE6ygnOLpadB1wZFU79Gle5Egoj8AYps0NwVN7Hs7+ZcimLA==,25.01.2020 09:54,RSMC-Activity-TC (New Delhi),DCPC,,India,New Delhi,28.633333,77.216667,India Meteorological Department,06.10.2019 17:50,Published,GISC New Delhi,IND
67932015-5be8-e911-a9a5-000d3a44b27c,Q17T8f2Dh4zrkehEhwB7vRfRDWfi4gVs6EMcwYE+o5IkRtKqY8JbouDCVN80fvaJUdVIpUmcQNI3N7K24km53A==,25.01.2020 09:54,RSMC-Activity-TC (Tokyo),DCPC,www.jma.go.jp/jma/jma-eng/jma-center/rsmc-hp-pub-eg/RSMC_HP.htm,Japan,Tokyo,35.683333,139.766667,Japan Meteorological Agency (JMA),06.10.2019 19:02,Published,GISC Tokyo,JPN
f5db1050-3ce9-e911-a9a5-000d3a44b27c,btG3vQeEdE4Ra3CKaD9ZuzYY3HOuFEliNLD+4qSQtGcN5Bn9ULVov4E6dOhrFM+qWMqoE2KiF3YGByWzmdu1xQ==,25.01.2020 09:54,RSMC-Geographical (ANACIM) (Dakar),DCPC,,Senegal,Dakar,14.720000,-17.480000,Agence nationale de l'Aviation Civile et de la Météorologie (ANACIM),07.10.2019 21:55,Published,GISC Casablanca,SEN
bc8ca51d-7b3f-ea11-b698-0003ff43d654,rwcYrLD3rdd2BFtvYRLZKb2y64f++BHmant4fxKq29hj+I0mku8Y8xEFxI3YLyHgEim2AsPOs51i/MFecjRFCw==,25.01.2020 15:17,RSMC-Geographical (Brasilia),Other,http://inmet.gov.br,Brazil,Brasilia,-15.780000,-47.910000,Instituto Nacional de Meteorología (INMET),25.01.2020 15:01,Published,,BRA
8c9f4406-76e8-e911-a99f-000d3a4421be,2rkUTzr0oEBDJzdJVZL/vBNHeSUr6YVtyHx5u9GkjfhQMmoQjlPgPV2Jau6ND07zGStMAqlMWpz13nrh3OnbEA==,25.01.2020 09:54,RSMC-Geographical (Buenos Aires),DCPC,,Argentina,Buenos Aires,-34.610000,-58.370000,Servicio Meteorológico Nacional (SMN),06.10.2019 22:15,Published,GISC Brasilia,ARG
3e63d7a0-21e9-e911-a9b0-000d3a44bd9c,luP0SV+VHalRuMX1B0mao8RwuAy06WAnJ5LbF09CWLJDpHLBfNUGdaBc73GgAtpFNriJhqmIsyHEka7NrW1iUg==,25.01.2020 09:54,RSMC-Geographical (Cairo),DCPC,wis.ema.gov.eg,Egypt,Cairo,30.060000,31.250000,The Egyptian Meteorological Authority,07.10.2019 18:44,Published,GISC Casablanca,EGY
47e192c6-6ce8-e911-a9af-000d3a442d08,FTZcyyd50xaVwJekPcItFyEbk/GDM4XIQQp9aPVpV0JY88fKUUHb2dxEQwUS5obm8K0XBX+6ZSULdC2zmOpCDw==,25.01.2020 09:54,RSMC-Geographical (Casablanca),DCPC,www.marocmeteo.ma/,Morocco,Casablanca,33.600000,-7.620000,Department of National Meteorology of Morocco,06.10.2019 21:09,Published,GISC Casablanca,MAR
4ee509f3-4ae8-e911-a9b0-000d3a44bd9c,nrJIDsLyfDHdH6lV/tWFgL3/PaietgWNSFUxun7GFCRfVNqMRzAVNn9bdImYox68hisINzZoKkEnSnUUMK6YKw==,18.12.2019 12:27,RSMC-Geographical (Darwin),DCPC,www.bom.gov.au/global/rsmc/,Australia,"Darwin,  Northern Territory",-12.450000,130.833333,Bureau of Meteorology,06.10.2019 17:07,Published,GISC Melbourne,AUS
5c8c78ba-44e9-e911-a9a5-000d3a44b27c,sWqoMY1BMB3OWbcD/ieRNNP2o/EAAUcMkLV7Rh6UG7IVLJh2RNw6279neUVhhNhVwX/k92uJwa2jJbgEzYwcXg==,25.01.2020 13:44,RSMC-Geographical (Exeter),DCPC,,United Kingdom,Exeter,50.716667,-3.533333,Met Office,07.10.2019 22:55,Published,GISC Exeter,GBR
eddb1050-3ce9-e911-a9a5-000d3a44b27c,3jk3i0fjVFFw7sXf8q1UZRewnj6fkzjFB+2VlVycySLCnOU3yaMrPxbWYKsqcCck2Oh04j7urNGO/U614todEg==,25.01.2020 09:54,RSMC-Geographical (Jeddah),DCPC,jrcc.sa,Saudi Arabia,Jeddah,21.833333,39.266667,General Authority of Meteorology and Environmental Protection (GAMEP),07.10.2019 21:55,Published,GISC Jeddah,SAU
85ddf52e-7f3f-ea11-b698-0003ff43d654,ewWJLRLTJEZNhRdJzyuBWYazlSr0z4+vSp6kdnxIiCYclix0HKUJ7rOzPZM8SClQWWVrtaHnttm9cH6MrgNUMg==,25.01.2020 15:17,RSMC-Geographical (Miami),Other,https://www.weather.gov/mfl/,United States of America,Miami,25.761700,-80.191800,NOAA National Weather Service,25.01.2020 15:30,Published,,USA
f541083b-753f-ea11-b698-0003ff43d654,YFKPuiuvFWPeFij24JNpFIUNMOSZ7LzvAVdeXjwGP6WR8wq/KemZJZ/eY9IHLQaoSaevrG1GIc745l3bgXt00g==,25.01.2020 13:39,RSMC-Geographical (Montreal),Other,https://weather.gc.ca/,Canada,Montreal,45.520000,-73.570000,Meteorological Service of Canada (MSC),25.01.2020 14:18,Published,,CAN
ba73e691-73e8-e911-a99f-000d3a4421be,hBFVdKwaQvz2iz3+/HIr73VVl5Nh1tqnqJAeWfRZv36TZK5d6UYmL5HrF+OurtMaEV9nwSvJxMW1ChQeeSYlhg==,25.01.2020 09:54,RSMC-Geographical (Moscow),DCPC,,Russian Federation,Moscow,55.750000,37.620000,Russian Federal Service for Hydrometeorology and Environmental Monitoring (ROSHYDROMET),06.10.2019 21:58,Published,GISC Moscow,RUS
54720406-66e8-e911-a9b0-000d3a44bd9c,UdNEf6T5qMh8tbEgU4upiwNObWAFqxAs88E9oTt6VABEk8nIvibxfA+VzmK3Oub2N/lsBaOZwcavtfbP2zSoNA==,25.01.2020 09:54,RSMC-Geographical (Nairobi),DCPC,,Kenya,Nairobi,-1.290000,36.820000,Kenya Meteorological Department,06.10.2019 20:21,Published,GISC Offenbach,KEN
00266e99-7d3f-ea11-b698-0003ff43d654,t50WSgvYxnrO7Ri4kHfqw/iBUA7v1lOH66/eR7rP/N3YsFtCCDhT1740HjQT1BoIEZ8j1XiT0iapUsY6wHNLgg==,25.01.2020 15:16,RSMC-Geographical (New Delhi),Other,https://mausam.imd.gov.in/,India,New Delhi,28.633330,77.216667,India Meteorological Department,25.01.2020 15:18,Published,,IND
8d290124-7de8-e911-a99e-000d3a44bf07,fJ+c9FHceFjIrkPCePUUlbUddA8wt1WBwU1NZ8uhrVxOp60mq5a/DACLpPDATaJA5oVhO8KVM8seIbK5h1DCqg==,25.01.2020 09:54,RSMC-Geographical (NMC) (Beijing),DCPC,,China,Beijing,39.900000,116.383333,China Meteorological Administration (CMA),06.10.2019 23:06,Published,GISC Beijing,CHN
27afee12-30e9-e911-a9af-000d3a4429b3,HD+azbXtHfLbbnN5NIVsmghBrmggVCkrI8KNfV61DYuL4487NUhJwTRIF6uuTOgth4udjEKvzGkdURb+Aauv4Q==,25.01.2020 09:54,RSMC-Geographical (Offenbach),DCPC,kunden.dwd.de/uvi/,Germany,Offenbach,50.133333,8.783333,Deutscher Wetterdienst (DWD),07.10.2019 20:27,Published,GISC Offenbach,DEU
05b06ea4-7f3f-ea11-b698-0003ff43d654,VYGv1/EIaYIHFJjjkKR+JAy+LJcFbBgiZvO3jC49zM7lWe+10qw4x1jumsFu9MDgNDPQzgmbuO5NPMp0tryKsQ==,25.01.2020 15:15,RSMC-Geographical (Pretoria),Other,http://www.weathersa.co.za/,South Africa,Pretoria,-25.730000,28.220000,South African Weather Service,25.01.2020 15:33,Published,,ZAF
b2442d70-803f-ea11-b698-0003ff43d654,dlnmobjw9kL1TsbdvvTvR8UKdX3zDqGYopKg4t1Zt+Fc0QK9z/olx14ayQKndcHlrC9i2XOfI76hIGYOgx5Hjg==,25.01.2020 15:15,RSMC-Geographical (Rome),Other,http://www.meteomont.gov.it/infoMeteo/,Italy,Rome,41.900000,12.483333,Italian Meteorological Service,25.01.2020 15:39,Published,,ITA
02e43202-813f-ea11-b698-0003ff43d654,SRPPJNSmKBEWCqtjcqX/3g9Jk7Wc08qTgCVFOjNOHOyxi1tQcTju8aiwi09jk/tpxAOMGMX6DX9kM6ap7VjO+g==,25.01.2020 15:14,RSMC-Geographical (Tashkent),Other,http://www.meteo.uz/#/en,Uzbekistan,Tashkent,41.310000,69.300000,Centre of Hydrometeorological Service of the Republic of Uzbekistan (Uzhydromet),25.01.2020 15:43,Published,,UZB
63932015-5be8-e911-a9a5-000d3a44b27c,wQE0E2a4XLgTUaqO8EAA48UdUYss52FL2zJlpNkLrAJ3zQuEr/3if+fIChOBH+hihM0s7nvh7DkxZ/yUFMW9Yg==,25.01.2020 09:54,RSMC-Geographical (Tokyo),DCPC,www.jma.go.jp/jma/jma-eng/jma-center/nwp/nwp-top.htm,Japan,Tokyo,35.683333,139.766667,Japan Meteorological Agency (JMA),06.10.2019 19:02,Published,GISC Tokyo,JPN
4463d7a0-21e9-e911-a9b0-000d3a44bd9c,8go+g37+cw0Gt37bdeEQtSDOOiL/TnWf6B9TG6p9aLNf0vJGSaU6GQqdQqwpxraHaLkOWfyi41mNkcK74f9ltQ==,25.01.2020 12:59,RSMC-Medium-Range-Forecasting (ECMWF),DCPC,dcpc.ecmwf.int,United Kingdom,Reading,51.270000,-0.580000,European Centre for Medium-Range Weather Forecasts (ECMWF),07.10.2019 18:44,Published,GISC Exeter,ECM
4063d7a0-21e9-e911-a9b0-000d3a44bd9c,kd8GfZ5PhcWYBlLNvkKuiE/3z+EurPkgjyCF95bt/8LfU/zFcv94pbGLD0d6lkUBd8YaWM2u57Mrh94iYU285Q==,25.01.2020 10:00,RTC (Cairo),Other,http://nwp.gov.eg/index.php/en/,Egypt,Cairo,30.060000,31.250000,The Egyptian Meteorological Authority,07.10.2019 18:44,Published,,EGY
33dc1050-3ce9-e911-a9a5-000d3a44b27c,GmGblscVXZkrFnB49yfzgQ4rTbRpH1YGoChmsdovcjMM/RFUgUnNLNJNv+4VQbga7MIq4jiusus8TbTK8VIiwg==,10.04.2020 02:04,RTH (Bangkok),DCPC,http://wis.tmd.go.th,Thailand,Bangkok,13.750000,100.516667,Thai Meteorological Department,07.10.2019 21:55,Published,GISC Tokyo,THA
8f290124-7de8-e911-a99e-000d3a44bf07,PdEWLblQA8PujvhWjBuvD2QMDuXulg1QnPdeIzBRbkP+ElEedYuIWRF5vKGb5wLnjxzCHUv4OAIfqPEkTheVdw==,25.01.2020 09:54,RTH (Beijing),DCPC,,China,Beijing,39.900000,116.383333,China Meteorological Administration (CMA),06.10.2019 23:06,Published,GISC Beijing,CHN
16edd240-79e8-e911-a99f-000d3a4421be,1CPffTTKSdlt5p0J5foqoismt0ctIxhMRdbeNgFz5Lh7x8VjbbBoBqm97z//QfY8niZOODjIlQHsZ5m0d6g1Mw==,25.01.2020 09:54,RTH (Brasilia),DCPC,gisc.inmet.gov.br/,Brazil,Brasília,-15.780000,-47.910000,Instituto Nacional de Meteorología (INMET),06.10.2019 22:38,Published,GISC Brasilia,BRA
93290124-7de8-e911-a99e-000d3a44bf07,F+TGuJTdf/huhk8/Ggl32uHL0XHgpjvZB7qzbHDrJg3/VsQ6IvylpcvdialpYmQhJ3k7fGWtPwtT3z6Namva9w==,25.01.2020 09:54,RTH (Brazzaville),DCPC,www.meteo-congo-brazza.net/,"Congo, Republic of the",Brazzaville,-4.266667,15.283333,"Direction de la météorologie, Congo",06.10.2019 23:06,Published,GISC Casablanca,COG
8e9f4406-76e8-e911-a99f-000d3a4421be,6Z4jR04hwXxbORSBO9VOrlF+J9DQWDt72pkoSnNbzhvjBkaYPtEgH4y7pAQiaujG9igPgo5ig/Isr59MHzXEDQ==,25.01.2020 09:54,RTH (Buenos Aires),DCPC,dcpc.smn.gov.ar/,Argentina,Buenos Aires,-34.610000,-58.370000,Servicio Meteorológico Nacional (SMN),06.10.2019 22:15,Published,GISC Brasilia,ARG
7ec55af3-50e8-e911-a9af-000d3a4429b3,OgA8NdE1jCbIFx2aP0An5MZ4Dna2dzl8oetFLoBq3XxAHWwiKKslomNTr9HUR3C2DyJ5tknzTpgjzu5Bmtdsdw==,25.01.2020 09:54,RTH (Cairo),DCPC,wis.ema.gov.eg,Egypt,Cairo,30.050000,31.366667,The Egyptian Meteorological Authority,06.10.2019 17:50,Published,GISC Casablanca,EGY
f7db1050-3ce9-e911-a9a5-000d3a44b27c,8I5lRlaEhBCO/p56zBlykFkPXFp/DDVTjGr9lHaXy32eOQT8+QZa4Q8sHYz/LzCqMoJoo+kE0WnaNXAiLA7mfQ==,25.01.2020 09:54,RTH (Dakar) ANACIM-ASECNA,DCPC,,Senegal,Dakar,14.720000,-17.480000,Agence nationale de l'Aviation Civile et de la Météorologie (ANACIM),07.10.2019 21:55,Published,GISC Casablanca,SEN
5e8c78ba-44e9-e911-a9a5-000d3a44b27c,i9Z2FcS56KH8e0YA4lvm9vjfTHy6ivnAGB5QtMy+EtXbQX/4jghPkpDGjnqKgFcIMypgHNIEFHWq2MYG3RLTaA==,25.01.2020 13:44,RTH (Exeter),DCPC,,United Kingdom,Exeter,50.716667,-3.533333,Met Office,07.10.2019 22:55,Published,GISC Exeter,GBR
efdb1050-3ce9-e911-a9a5-000d3a44b27c,96niRgWLemCwYoO/F+k52IWUb3ruK38LH47J4oRLaluuEZvmIsgk8Uza7sgMC7PYqWa+1EOTeh3BNlHNWzRpKg==,25.01.2020 09:54,RTH (Jeddah),DCPC,wis.pme.gov.sa#http://wis.pme.gov.sa,Saudi Arabia,Jeddah,21.833333,39.266667,General Authority of Meteorology and Environmental Protection (GAMEP),07.10.2019 21:55,Published,GISC Jeddah,SAU
56720406-66e8-e911-a9b0-000d3a44bd9c,7CMOS5hCnBuUE7Jiq7T0u8ml6w4cZRZORUd0WonhcQQ14nsqTAy+fMyaDwefQ0Half5jdGPe0nQ10XbK5UrRUw==,25.01.2020 09:54,RTH (Nairobi) (Nairobi),DCPC,wis.meteo.go.ke,Kenya,Nairobi,-1.290000,36.820000,Kenya Meteorological Department,06.10.2019 20:21,Published,GISC Offenbach,KEN
99c55af3-50e8-e911-a9af-000d3a4429b3,8Kgr0gGb2HZtsZVUSBI5O4WeZEJD0X3ocbaop9KdNmVi10ZPb35p9gX4/jT10gCaoenMC8nhsNDjilSTFIsvOw==,25.01.2020 09:54,RTH (New Delhi),DCPC,,India,New Delhi,28.633333,77.216667,India Meteorological Department,06.10.2019 17:50,Published,GISC New Delhi,IND
e4044cb6-6fe8-e911-a9a5-000d3a44b27c,OBCZnoGaBPgefx8O6IGJRbbB537TbLsMoS1ZqqZRTHtaQP6s2xwO05C6ru8JQMCtHbKhll3OXtsvqlHzPpshow==,25.01.2020 09:54,RTH (Niamey),DCPC,,Niger,Niamey,13.520000,2.120000,Direction de la météorologie nationale du Niger,06.10.2019 21:30,Published,GISC Casablanca,NER
27dc1050-3ce9-e911-a9a5-000d3a44b27c,Vs/PnxN7ZXrkU9V3lnmU89zO2fbGEZsFQAEHoVEnI+6G1eCuS9KM0gIPhSDJQNHzqqnuy+7zWUZCXRIQ8UglhQ==,25.01.2020 09:54,RTH (Norrköping),DCPC,,Sweden,Norrköping,58.600000,16.200000,Swedish Meteorological and Hydrological Institute (SMHI),07.10.2019 21:55,Published,GISC Offenbach,SWE
29afee12-30e9-e911-a9af-000d3a4429b3,0ricTUOCyYSDSGiF6MU5mR5KUM9zbFBwLNfb64Dmt1GpnzM78fBEG295T9EzLFdf/LljB5d4zVZ99cfEaPG01Q==,25.01.2020 09:54,RTH (Offenbach),DCPC,gisc.dwd.de,Germany,Offenbach,50.133333,8.783333,Deutscher Wetterdienst (DWD),07.10.2019 20:27,Published,GISC Offenbach,DEU
a3290124-7de8-e911-a99e-000d3a44bf07,dRqguVNTuUcBSnthHrZ4cU9qH66Y6Jh3ogrrYJwNGzbs0y9bBnex/SgK8akyWHkY+28pczSt+Zl7Y7AZUHOn9Q==,25.01.2020 09:54,RTH (Prague),DCPC,dcpc.chmi.cz/,Czech Republic,Prague,50.083333,14.433333,Czech Hydrometeorological Institute (CHMI),06.10.2019 23:06,Published,GISC Offenbach,CZE
0fdc1050-3ce9-e911-a9a5-000d3a44b27c,LS5D7ESAFx+zRCC5zm0M4PBjMScaFVcM+49VfNR26B+BKYgQbT2WMUfJiuetxdODdL0Wu9BHBLaXHEJIdsTjuQ==,25.01.2020 09:54,RTH (Pretoria),DCPC,,South Africa,Pretoria,-25.730000,28.220000,South African Weather Service,07.10.2019 21:55,Published,GISC Pretoria,ZAF
5f932015-5be8-e911-a9a5-000d3a44b27c,Y6dbNUo+wjM4AzyfidzFrNwsc7Ye/l3MveEZnynmzj7vdCsI0mEZDaLVv/uE6lgsMqdmGZ97UjgPESNg4owpBA==,25.01.2020 09:54,RTH (Rome),DCPC,dcpc.meteoam.it,Italy,Rome,41.900000,12.483333,Italian Meteorological Service,06.10.2019 19:02,Published,GISC Offenbach,ITA
62e509f3-4ae8-e911-a9b0-000d3a44bd9c,clF20EnG0lC3LouwvU0kEZiJ4uFK2XaR2iXzCIbD1Zd8SuR3/jW7sNSS1kUnI2aYIQEpmyktKf2Lr311d8raxQ==,25.01.2020 09:54,RTH (Sofia),DCPC,www.meteo.bg/,Bulgaria,Sofia,42.700000,23.333333,National Institute of Meteorology and Hydrology,06.10.2019 17:07,Published,GISC Offenbach,BGR
908c78ba-44e9-e911-a9a5-000d3a44b27c,/TpRJx6ic2YGjySgiif7aVBCLoJy3Iet2tGXelfvJ1ihixUhZAOOQGCtwiTMJ9yu4Iano7Y01jv1e5SMXr8nCg==,25.01.2020 09:54,RTH (Tashkent),DCPC,,Uzbekistan,Tashkent,41.310000,69.300000,Centre of Hydrometeorological Service of the Republic of Uzbekistan (Uzhydromet),07.10.2019 22:55,Published,GISC Moscow,UZB
5b932015-5be8-e911-a9a5-000d3a44b27c,W8lwzcirnWpIq6MbAJWG8krWoChjim83TBF/FwCMj7GCAcFSN+7kbLT+F4kY9DmZ6RM7NWYtAYshKtzkNElTfw==,25.01.2020 09:54,RTH (Tehran),DCPC,,"Iran, Islamic Republic of",Tehran,35.700000,51.416667,Islamic Republic of Iran Meteorological Organization (IRIMO),06.10.2019 19:02,Published,GISC Tehran,IRN
71932015-5be8-e911-a9a5-000d3a44b27c,wcrhdsArTbB0jgODlvYgelHDusghhQUSTZTrFoTi6oi9ty1FGLqfA2BHlPJ+Sfzaf+MGgSifyIN9a6eXt3EbOw==,25.01.2020 09:54,RTH (Tokyo),DCPC,www.jma.go.jp/jma/jma-eng/jma-center/rth/RTH_Tokyo.html,Japan,Tokyo,35.683333,139.766667,Japan Meteorological Agency (JMA),06.10.2019 19:02,Published,GISC Tokyo,JPN
9a9f2da4-23e9-e911-a99e-000d3a44bf07,95QvHQMOcCzkp9XG+ds5xcjJVO17LhBtXc2DY5Fu3/fKPEsMeTd2nh915kcS5SDj7WuF+AMYv01eQE6cS+IiIQ==,25.01.2020 09:54,RTH (Toulouse),DCPC,,France,Toulouse,43.604444,1.443889,Météo-France (Toulouse),07.10.2019 18:58,Published,GISC Toulouse,FRA
a49f4406-76e8-e911-a99f-000d3a4421be,Bo8IvssbWX1J2ewj8g1Q57Cx4VbmZAcxvJ/YwaX/avQ1hAbumOtgywHUjzNut1/xPVvABZ53Z1OVH2tgdQw5pA==,25.01.2020 09:54,RTH (Vienna),DCPC,,Austria,Vienna,48.220000,16.370000,Central Institute of Meteorology and Geodynamics (ZAMG),06.10.2019 22:15,Published,GISC Offenbach,AUT
7a5014c9-63e8-e911-a9b0-000d3a44bd9c,VNsXSwUlzqIIHeZ4n5dKTSWHlA/zIIBenGhmY6btI0DN440QaNJSFn6ZoTsgV5ROzY8Sjd+UCqemx4wscH8ZHw==,25.01.2020 09:54,RTH (Wellington),DCPC,http://www.metservice.com/maps-radar/wis-search/search,New Zealand,Wellington,-41.283333,174.783333,"MetService, New Zealand",06.10.2019 20:05,Published,GISC Melbourne,NZL
ea6aae9b-4fe8-e911-a9af-000d3a4429b3,5B52hFHaztZlauReODwh63MjOQr8+q5MDwWCCur6P0Cr5thUtSy0m/iUPTTI1WNtY1oq6mHQ+dcoOfvU+0aZ3A==,25.01.2020 09:54,RTH / RSMC-Geographical (Algiers),DCPC,,Algeria,Algiers,36.783333,3.066667,Office national de la météorologie (ONM),06.10.2019 17:40,Published,GISC Toulouse,DZA
bc73e691-73e8-e911-a99f-000d3a4421be,hh6L6eDeFzVO4LKdqnODXrddNCwHFmOv7v73EFP94Di3SzPc0fuBaHC6ziiUiyL6d8Ax8hSvEg8/XUtBs7b7Aw==,25.01.2020 09:54,RTH/RSMC-Geographical (Khabarovsk),DCPC,,Russian Federation,Khabarovsk,48.420000,135.120000,Russian Federal Service for Hydrometeorology and Environmental Monitoring (ROSHYDROMET),06.10.2019 21:58,Published,GISC Moscow,RUS
be73e691-73e8-e911-a99f-000d3a4421be,curQvcJxcWdFrpSksCpt8CFEqj3dRXa266GmCUSMN2R2ILJol4e9O6jdHpdnLWa/7zYsiOFoOzh2QMxfvyDi/Q==,25.01.2020 09:54,RTH/RSMC-Geographical (Novosibirsk),DCPC,,Russian Federation,Novosibirsk,55.040000,82.930000,Russian Federal Service for Hydrometeorology and Environmental Monitoring (ROSHYDROMET),06.10.2019 21:58,Published,GISC Moscow,RUS
1e28d2fa-30e9-e911-a9af-000d3a4429b3,gkcUdG3PI5scls/l2prtIHJFBDaNHBmDarz0q+HxFG88TFirwlzAbCO7D7QBsqlHxZr5rJCLF3xFoZgTC3T08g==,25.01.2020 09:54,Satellite Centre (EUMETSAT),DCPC,,Germany,Darmstadt,49.876938,8.652077,European Organisation for the Exploitation of Meteorological Satellites (EUMETSAT),07.10.2019 20:33,Published,GISC Offenbach,EUM
69932015-5be8-e911-a9a5-000d3a44b27c,GgpsqGyYZtdiIuWNVE8aXP/M4uJucbjlGOKzW7lX0vEZgQzwJtdeptKDl3Jj6YIkrSQX2PqsKcJ00UlBm0qlyg==,25.01.2020 09:54,Satellite Centre (Tokyo),DCPC,www.jma.go.jp/jma/jma-eng/satellite/index.html,Japan,Tokyo,35.683333,139.766667,Japan Meteorological Agency (JMA),06.10.2019 19:02,Published,GISC Tokyo,JPN
608c78ba-44e9-e911-a9a5-000d3a44b27c,aC1e/SgRXD6beeg603nUVFzC7ThAXZ3cNcDI7AZZQ63mdVfH6lNvQ/5FbppPT6jmugb54ybuPr48Pzk0AuhaHA==,25.01.2020 13:44,Specialised Ocean/Wave Centre (Exeter),DCPC,,United Kingdom,Exeter,50.716667,-3.533333,Met Office,07.10.2019 22:55,Published,GISC Exeter,GBR
9c6c4c14-47e9-e911-a9af-000d3a4429b3,1MPIG/TR3oZ6yJp4W2Vd39ticlLGgc9nQZLHKvgyApt2FDgbp6dIoGV4b+Nb1obh4jvVxzm+tf8MO8UFeV/ouw==,25.01.2020 09:54,TCWC (Jakarta),DCPC,wis.bmkg.go.id/index.php?portal=dcpc&lang=en,Indonesia,Jakarta,-6.180000,106.830000,"Meteorological, Climatological and Geophysical Agency (BMKG)",07.10.2019 23:12,Published,GISC Melbourne,IDN
16dca596-e262-ea11-a811-000d3a25bdee,qu1rfgutd5/HK2+qKSxrm7Ya6t+4ExfSVa1G7NqjCPPHa6iL+LIuE5Rt69HKt/hhzqxublwLWXxzMM8QBpogJA==,10.03.2020 15:20,test centre,Other,http://my.web,Australia,melbourne,-35.000000,135.000000,Bureau of Meteorology,10.03.2020 16:20,Unpublished,,AUS
7c4a97c9-7842-ea11-b698-0003ff43d654,8tmZR4qYVLB91/Xlq0/in3I3lje6Gc8IslSsyCRX+qJGvhcq35STC7SWmRkb9QIZ2aoV/ddwuJO+pcfBnEn2kg==,28.03.2020 18:35,Test NMC,Other,https://ethz.ch/en.html,Switzerland,Geneva,46.890000,8.090000,ETH Zürich,29.01.2020 10:21,Published,,xxx
bfdfad7b-ac4a-ea11-b698-0003ff43d654,7OXcu+8HE9Cns7vAfhpt+GEB5H/DrirdM3gBjWm0g0Zl4w1Hb8i+UJdFnax28N+nMzvj8AgeNT18d4wDTm4fGg==,08.02.2020 19:52,Test WSO,Other,http://www.wmo.int,Switzerland,Zurich,47.376900,8.541700,Botswana Meteorological Services,08.02.2020 20:52,Unpublished,GISC Offenbach,xxx
dbf10a12-4d73-ea11-a811-000d3a24c087,83QehMV6CxBW9URGqFf06VIfDanUFUHeJWnn1kqT193xN0vlkntLJdmb42T6P19hHZ9jN/rA7KWGQ+Y4TA65qw==,31.03.2020 12:42,TestPro centre,Other,https://wiswiki.wmo.int,Australia,Melbourne,-33.000000,140.000000,Bureau of Meteorology,31.03.2020 14:42,Unpublished,,xxx
9e6c4c14-47e9-e911-a9af-000d3a4429b3,daq2IRsJXAdtaA/MOWTLsWyJPOIoRZg05iFMy17fJZZXsENVXT61oYQ57zuvDxPobAh12Qp2RDluUPMlhO01qw==,25.01.2020 09:54,Trans-boundary Forest Fires (Jakarta),DCPC,wis.bmkg.go.id/index.php?portal=dcpc&lang=en,Indonesia,Jakarta,-6.180000,106.830000,"Meteorological, Climatological and Geophysical Agency (BMKG)",07.10.2019 23:12,Published,GISC Melbourne,IDN
909f4406-76e8-e911-a99f-000d3a4421be,RFawXmyEii4xfhzkMD2CAN/LBPE+4lj2r0P13bNzjRNTKoqNmSLmQryc6hXtXFWxIg/xV5FQN/KaEJx43Cnvuw==,25.01.2020 09:54,VAAC (Buenos Aires),DCPC,,Argentina,Buenos Aires,-34.610000,-58.370000,Servicio Meteorológico Nacional (SMN),06.10.2019 22:15,Published,GISC Brasilia,ARG
628c78ba-44e9-e911-a9a5-000d3a44b27c,s9dD1PcxxDZdBCLciUOHfhvnqPzDQx1viHSyRoFEtdQ9zY61f1mYhFWL11lAvN7w97TE1x2OSx1ZytuP93peZQ==,25.01.2020 09:54,VAAC (London),DCPC,,United Kingdom,"Exeter,  England",50.716667,-3.533333,Met Office,07.10.2019 22:55,Published,GISC Exeter,GBR
9c9f2da4-23e9-e911-a99e-000d3a44bf07,XSCuUMc+646/67RThOkkH6SkLL1EHkflJn440EjXSRBPoMCkKfHJtPC994stmd1tiT3WcOKs5UG7VTFlS9/j+g==,25.01.2020 09:54,VAAC (Toulouse),DCPC,,France,Toulouse,43.604444,1.443889,Météo-France (Toulouse),07.10.2019 18:58,Published,GISC Toulouse,FRA
7c5014c9-63e8-e911-a9b0-000d3a44bd9c,KowxljFVagPp0qLUyWxqa+PCzKSxzpG6+L4wJzxI+5Sg2HEk2dS27BcLyYLDM05ySfDqC701cK52A/9aaK+CBg==,25.01.2020 09:54,VAAC (Wellington),DCPC,vaac.metservice.com,New Zealand,Wellington,-41.283333,174.783333,"MetService, New Zealand",06.10.2019 20:05,Published,GISC Melbourne,NZL
648c78ba-44e9-e911-a9a5-000d3a44b27c,ZhY6Q4sdUvRj8CryiGPqIY4n0aI1JgnNfQvyaeSlLEOs6ZKn6I/aBQ0jlw83FvyNqwxOyhRkuvdZPBsgkFBrAg==,25.01.2020 09:54,WAFC (London),DCPC,,United Kingdom,"Exeter,  England",50.716667,-3.533333,Met Office,07.10.2019 22:55,Published,GISC Exeter,GBR
848c78ba-44e9-e911-a9a5-000d3a44b27c,Q49pPa6dK+32fO9oYbuAEAJyWQ0CsyK5QV3KTi8EBfkfI1Z6eNLTZGijAs3YCfcpF3CgS92iKeD6sLzd0meqiw==,25.01.2020 09:54,WAFC (Washington),DCPC,www.nws.noaa.gov/tg/metarwfs.php,United States of America,Washington,38.910000,-77.020000,National Oceanic and Atmospheric Administration (NOAA),07.10.2019 22:55,Published,GISC Washington,USA
15dc1050-3ce9-e911-a9a5-000d3a44b27c,JN6+QN5mFMlvWgk3ASsAMxgLuhD1qWZM5MgCvsgNQ3ExXDvonQStxNxkgOINGyKojWcpr4tRSbB2b5ksPG0F3w==,25.01.2020 09:54,WAMIS (Seoul),DCPC,dcpc.wamis.kma.go.kr,"Korea, Republic of",Seoul,37.550000,126.983333,Korea Meteorological Administration (KMA),07.10.2019 21:55,Published,GISC Seoul,KOR
c073e691-73e8-e911-a99f-000d3a4421be,J1QJhrR/xGt1W6SrK/a9Cgd3eNVaGdcZyIaKwOphFwQtfdFx/1Go/IsKWF+qKM5PUlsTVnkFQjPOsFsxNVJepQ==,25.01.2020 09:54,WDC (ICE) (St. Petersburg),DCPC,,Russian Federation,Saint Petersburg,59.930000,30.320000,Russian Federal Service for Hydrometeorology and Environmental Monitoring (ROSHYDROMET),06.10.2019 21:58,Published,GISC Moscow,RUS
2dafee12-30e9-e911-a9af-000d3a4429b3,81uGIaxysWLKo+WEM2iPwWYsO4MEVyBNKvT+uJH+ZWgaTEHmT58Kqkt0T9Ehw/F+h/SKXkNgZ/HxRnFqpCpw9g==,25.01.2020 09:54,WDCC (Hamburg),DCPC,www.dkrz.de,Germany,Hamburg,53.566667,10.033333,Deutscher Wetterdienst (DWD),07.10.2019 20:27,Published,GISC Offenbach,DEU
6d932015-5be8-e911-a9a5-000d3a44b27c,A00RucqAVRCTIBQvWJxis+VSQvJ1ZuOVGQafmSiz4+5snTdXMDXClbLivE6Uf7VOGpLJO8iJ6/3ha/Dv8Xg/kA==,25.01.2020 09:54,WDC-GHG (Tokyo),DCPC,ds.data.jma.go.jp/gmd/wdcgg/wdcgg.html,Japan,Tokyo,35.683333,139.766667,Japan Meteorological Agency (JMA),06.10.2019 19:02,Published,GISC Tokyo,JPN
2fafee12-30e9-e911-a9af-000d3a4429b3,5WjW+dAQnjm8sCKlZqYTWl9ZGFWpyxPqvSa4gP9RQ73VriE+IJVxrAFLWHmq6bTZ64OfQnh6mc4Tp/1RcJSTJQ==,25.01.2020 09:54,WDC-RSAT (Oberpfaffenhofen),DCPC,wdc.dlr.de/,Germany,Oberpfaffenhofen,48.074810,11.263561,Deutscher Wetterdienst (DWD),07.10.2019 20:27,Published,GISC Offenbach,DEU
688b343a-683f-ea11-b698-0003ff43d654,9Qn6rIm4jITSZDuUalcuwOANjkrem2syw+aZypDFt5XT4su5Y881xBAXWgDUvKNfCi8qvL6pTyFAneRhZvewbQ==,25.01.2020 12:05,WMC (Beijing),Other,http://www.cma.gov.cn/,China,Biejing,39.900000,116.380000,China Meteorological Administration (CMA),25.01.2020 12:45,Published,,CHN
7ce6a669-6c3f-ea11-b698-0003ff43d654,gpu31yK9cf7oArDT1yODLVhVZQyeTcqedzYzkz9V44sxRkBFhC0STuiiM6WY6tU64jQChwbOB0JUeL309a9UCw==,25.01.2020 12:21,WMC (ECMWF),Other,https://www.ecmwf.int/,United Kingdom,Reading,51.270000,-0.580000,European Centre for Medium-Range Weather Forecasts (ECMWF),25.01.2020 13:15,Published,,ECM
89e6274d-6f3f-ea11-b698-0003ff43d654,CGGLvkk+tPMh0ai//VrIGsEbqQMKaTbqh5CCyP1V6nCFrf9LQ+VCNbPpTD2HGYuHeoO5Wd2CzeR5DvDs31fJzw==,25.01.2020 12:38,WMC (Exeter),Other,https://www.metoffice.gov.uk/,United Kingdom,Exeter,50.710000,-3.533333,Met Office,25.01.2020 13:36,Published,,GBR
9e9f4406-76e8-e911-a99f-000d3a4421be,GP2sahGgS+D8BN5uh03xGrWeICb8j5agmdvzEXu1YqAL6UcdHDcBA3aEyFVw8tSU+W40VWHIUlAn3IupTPhUmA==,18.12.2019 12:41,WMC (Melbourne),DCPC,www.bom.gov.au/wmo/operational.shtml,Australia,Melbourne,-37.810000,144.960000,Bureau of Meteorology,06.10.2019 22:15,Published,GISC Melbourne,AUS
3cf771cb-743f-ea11-b698-0003ff43d654,iA9QvHMiGBhnmrUsKGj2nLsopT0mSlBwxlDe+DmjN6EFfsTwvSC4W81ra3+2gBrHQjbT9+753t/QACpVoWXncw==,25.01.2020 13:38,WMC (Montreal),Other,https://weather.gc.ca/,Canada,Montreal,45.520000,-73.570000,Meteorological Service of Canada (MSC),25.01.2020 14:15,Published,,CAN
c273e691-73e8-e911-a99f-000d3a4421be,2evQOKgaBy633IGQM9lhE5WuSXus6BW5dBLBUJaKvDZXe8bp9ENMXQbkHwu/PkM8VRzKKSs/FCmSamwEBNz0JQ==,25.01.2020 09:54,WMC (Moscow),DCPC,,Russian Federation,Moscow,55.750000,37.616667,Russian Federal Service for Hydrometeorology and Environmental Monitoring (ROSHYDROMET),06.10.2019 21:58,Published,GISC Moscow,RUS
ef8dac4a-7a3f-ea11-b698-0003ff43d654,XLi7MXLm9D0xlSZ/GpZeJV3sCB3b7xgcVBPLEYwp3qdEHMw0kJVH2tuC3cGJYNnTWicGz+wmcrol9VyIHhuDdA==,25.01.2020 15:13,WMC (Tokyo),Other,http://www.jma.go.jp,Japan,Tokyo,35.683300,139.683333,Japan Meteorological Agency (JMA),25.01.2020 14:55,Published,,JPN
868c78ba-44e9-e911-a9a5-000d3a44b27c,mGkSXMDn88b2Uptniwhyx6dUK0Cn55KTisl+XPgM4yTtlhakgmLTy2ib+tpqlpJeMnaqOH2wI76OLZAcSbudng==,25.01.2020 09:54,WMC (Washington),DCPC,www.nws.noaa.gov/tg/,United States of America,Washington,38.910000,-77.020000,National Oceanic and Atmospheric Administration (NOAA),07.10.2019 22:55,Published,GISC Washington,USA
31afee12-30e9-e911-a9af-000d3a4429b3,SkfjOvMVL1VhsAShyeG+WLaXokSBh5PMu4R1q9xs5RxS1uEELqPqxe5wEQY2z5HyYvBuIWhmwfYxlvwMTnD9Pg==,25.01.2020 09:54,WRMC (Bremerhaven),DCPC,www.pangaea.de,Germany,Bremerhaven,53.548467,8.583069,Deutscher Wetterdienst (DWD),07.10.2019 20:27,Published,GISC Offenbach,DEU
9e9f2da4-23e9-e911-a99e-000d3a44bf07,Ro9WxiolbFMqYINvvQM9OS2q0F2T3OY/JH3WVqy9hKtqkfV7RKgQHGp/YSrK3rgO91bjU4sQBcA7bpp1wR66Eg==,25.01.2020 16:20,"WSO  (Guadeloupe, Saint Martin, Saint Barthélemy)",NC,no.url.available,France,"Guadeloupe, Saint Martin, Saint Barthélemy",16.250000,-61.583333,Météo-France,07.10.2019 18:58,Published,GISC Toulouse,FRA
849f4406-76e8-e911-a99f-000d3a4421be,EvY+6K6yXgW4N3/XjEBRxvAe/qvsZXrap/mEw5/glRFhEs6L/Vj3X3RL43gczURYkIphAubucjvdyqr+A9h93g==,25.01.2020 16:20,WSO (Anguilla),NC,www.cmo.org.tt/,Anguilla,the Valley,18.220833,-63.051667,Caribbean Meteorological Organization,06.10.2019 22:15,Published,GISC Washington,
a03ac789-46e9-e911-a9af-000d3a4429b3,CmeQWmxdiGJ12g0sO4cvTMLhl3Eizk96S76GVXeD9Dpc9jTgwnD7AjDcWopTjtgD0suWAkq/9EE8QeMndpxkPQ==,25.01.2020 16:20,WSO (Ascension Island),NC,no.url.available,United Kingdom,"Georgetown, Ascension Island",-7.928611,-14.411667,Met Office,07.10.2019 23:08,Published,GISC Exeter,GBR
09de3050-7ae8-e911-a9b0-000d3a44bd9c,8jh2Ue+ft8mRPosSnradF4l4rNjMhJX4qiJxYpnCMxVbM+o9EAYwLl+fIObOc/RYNrAzHExiWRZpY8ijNW8ORw==,25.01.2020 16:20,WSO (Bermuda),NC,no.url.available,United Kingdom,Hamilton,32.300000,-64.783333,Met Office,06.10.2019 22:46,Published,GISC Exeter,GBR
18edd240-79e8-e911-a99f-000d3a4421be,nhpWBeAuM6P4maRhiUpW/IbfzR5pDO8jC06nbomtfbJQOevYTGXk7upMvLIyJebiaP/u9RQu4QaaqJMt4r4M3Q==,25.01.2020 16:20,WSO (British Virgin Islands),NC,no.url.available,British Virgin Islands,Road Town,18.431389,-64.623056,Caribbean Meteorological Organization,06.10.2019 22:38,Published,GISC Washington,
a09f4406-76e8-e911-a99f-000d3a4421be,I9HZ7wwzag/RouBNTTpGjVlUgj+/MjSZCsfF/JwyeA22FH2ewD6m1sEN9n0cgpI32l1SJ/WRUtIFAouqRqcsgQ==,25.01.2020 16:20,WSO (Christmas Island),NC,www.bom.gov.au/wa/cocos_island/,Australia,Cocos Island,-12.116667,96.900000,Bureau of Meteorology,06.10.2019 22:15,Published,GISC Melbourne,AUS
a09f2da4-23e9-e911-a99e-000d3a44bf07,zfFih/GlzQ5pV3oyoo7niYhPYF00nwyYjmxKLGssT9fBsgVCGx8wj64gKigpGeQQ7oQajgdwK7D1pfmgere7vg==,25.01.2020 16:20,WSO (Clipperton),NC,no.url.available,France,Clipperton Island,10.300000,-109.216667,Météo-France,07.10.2019 18:58,Published,GISC Toulouse,FRA
a29f2da4-23e9-e911-a99e-000d3a44bf07,dDo1t6PdBdIZ+Xxaelo7BTqk+biMu2frOZUC3P+0oj95ZXmMj4uX4D5zMhVLEczOZjH+jHkJi5pCwvG3ZD85dg==,25.01.2020 16:20,WSO (French Guiana),NC,no.url.available,France,French Guiana,4.000000,-53.000000,Météo-France,07.10.2019 18:58,Published,GISC Toulouse,FRA
688c78ba-44e9-e911-a9a5-000d3a44b27c,EYQKxWuTU5XWRn/3+zmc+HLC1Nhf1af3TUYX4r/f2B5/VPSLB0IEwJQn1GFfdcKreYVvi8nvw4He/Ho7vp2rsw==,25.01.2020 16:20,WSO (Gibraltar),NC,no.url.available,United Kingdom,Gibraltar,36.133333,-5.350000,Met Office,07.10.2019 22:55,Published,GISC Exeter,GBR
6a8c78ba-44e9-e911-a9a5-000d3a44b27c,XHF+n43NJj3+TayA7nd/0pjASbQJdapT5AaafD0ZYN7rIZ2IWnYlLJmSD5UCpBmUFUvPyDbD0pM98bhVPcNKgw==,25.01.2020 16:20,WSO (Guam),NC,no.url.available,United States of America,"Dededo,  Guam",13.516667,144.833333,National Oceanic and Atmospheric Administration (NOAA),07.10.2019 22:55,Published,GISC Washington,USA
a49f2da4-23e9-e911-a99e-000d3a44bf07,z5g+6ytFpoS2d/0LB+vwMd43Ro/iJRlRMfL1lMhLygCjxh/GMwjJRYvhiBew5R7/NcslFz9CjdGDOcQEYjkqWQ==,25.01.2020 16:20,WSO (Kerguelen),NC,no.url.available,France,Kerguelen,-49.250000,69.166667,Météo-France,07.10.2019 18:58,Published,GISC Toulouse,FRA
c473e691-73e8-e911-a99f-000d3a4421be,4TrHvvK5sPHVaOSqV722aSqx0vuov1bLNuviBzoJ1hpYsry7KFm1OUS1MV3lbzJ0Rl2oM0w34pvwUj57W8CXrg==,25.01.2020 16:20,WSO (Khabarovsk),NC,no.url.available,Russian Federation,Khabarovsk,48.420000,135.120000,Russian Federal Service for Hydrometeorology and Environmental Monitoring (ROSHYDROMET),06.10.2019 21:58,Published,GISC Moscow,RUS
a69f2da4-23e9-e911-a99e-000d3a44bf07,8ZXCjL8ibtGWcpsRRcxGd5M5fEpmw9wfElRqv2KfLghCf0hZqKkWtT2KzJslZSxptFek3ZUs6M8PRD9jrig5Rw==,25.01.2020 16:20,WSO (La Réunion),NC,no.url.available,France,La Réunion,-21.114444,55.532500,Météo-France,07.10.2019 18:58,Published,GISC Toulouse,FRA
888c78ba-44e9-e911-a9a5-000d3a44b27c,oy+aV+tkRMau2c4Fvn0wWYRWxnaH15rotFWxtqpRUBhokAfct/FxwZ/38XiPcQiYnXw1cERW836ZIOLzmRxr2Q==,25.01.2020 16:20,WSO (Line Islands),NC,no.url.available,United States of America,Line Islands,-2.000000,-156.500000,National Oceanic and Atmospheric Administration (NOAA),07.10.2019 22:55,Published,GISC Washington,USA
ec0d95f3-68e8-e911-a99e-000d3a44bf07,08r8qe5qY4OaNwIlWRqfTV1vC3vklhCJYTjnfi+wY6k9qO1kVfCLy263yfFDzv+An2Lab6gpDDbJu4iKbEUQaA==,15.02.2020 09:29,WSO (Macau),NC,www.smg.gov.mo/,"Macao, China",Macau,22.166667,113.550000,Meteorological and Geophysical Bureau,06.10.2019 20:41,Published,GISC Beijing,MAC
a89f2da4-23e9-e911-a99e-000d3a44bf07,S9Jcmu5Uk1GBpuApkIwlraPKh6Sj5qj9EGHWL+vcktUnxbihmoFnE8KyR2CmKZ1HOrkPR5ymbwaGEYq1QxWm5Q==,25.01.2020 16:20,WSO (Martinique),NC,no.url.available,France,Martinique,14.666667,-61.000000,Météo-France,07.10.2019 18:58,Published,GISC Toulouse,FRA
41e192c6-6ce8-e911-a9af-000d3a442d08,0ZKhqD1P9X4FRel3Zgk0rdmXOoYH3TbuXMVzIJgGFiCZuIVxIbRCDm+hAwLE/NCmraPKPGFUcE6Lz7OIGbB5Vw==,25.01.2020 16:20,WSO (Montserrat) (Plymouth),NC,no.url.available,Montserrat,Plymouth,16.706389,-62.215833,Caribbean Meteorological Organization,06.10.2019 21:09,Published,GISC Washington,
c673e691-73e8-e911-a99f-000d3a4421be,ZM7i8bAfUOlmcoB+0KajpT+EmOz1fgbl3jotx54jXccn8YqMg/hCWBvUqfPpH1KB6VSA3sAU/dNRAOHpyhZB9A==,25.01.2020 16:20,WSO (Novosibirsk),NC,no.url.available,Russian Federation,Novosibirsk,55.040000,82.930000,Russian Federal Service for Hydrometeorology and Environmental Monitoring (ROSHYDROMET),06.10.2019 21:58,Published,GISC Moscow,RUS
8a8c78ba-44e9-e911-a9a5-000d3a44b27c,0gZrLgl7ZvRyNGsYUOaz1oEwSMr3DwHAgLwCU1tN5+5k+mkh1H6ze9n/00rujJzDGPiV1wdboC5stJpD/10tFQ==,25.01.2020 16:20,WSO (Puerto Rico),NC,no.url.available,United States of America,"San Juan, Puerto Rico",18.450000,-66.100000,National Oceanic and Atmospheric Administration (NOAA),07.10.2019 22:55,Published,GISC Washington,USA
aa9f2da4-23e9-e911-a99e-000d3a44bf07,tBjX3cIK0/7OSX7Gq4Lzvg8RdQluPC6MlfTI6fREahaViDKLciuqOfsf88vuffrF3vPbwkG8Qx42cqlD4QKKeA==,25.01.2020 16:20,WSO (Saint Pierre and Miquelon),NC,no.url.available,France,Saint Pierre and Miquelon,46.783333,-56.200000,Météo-France,07.10.2019 18:58,Published,GISC Toulouse,FRA
dfdb1050-3ce9-e911-a9a5-000d3a44b27c,1pB1DnKobXGUZYz57bk/DUVNOikoynj5fIuTf68ACQWZ02JIjR7vSAoX1u2BoyNje+UkUOjYsebM3poVdPgyqw==,03.04.2020 21:23,WSO (St. Helena Island) (Jamestown),NC,no.url.available,United Kingdom,Jamestown,-15.924444,-5.718056,Met Office,07.10.2019 21:55,Published,GISC Exeter,GBR
3c0077cc-41e9-e911-a9af-000d3a4429b3,f8EMggBUV8nQv9A/+p0EVKMnvvRHbivvYJyaVxbHKY1ldobXCURko43BdPoTxFsvTZf5oqSEPHZnjv0llX3gEg==,25.01.2020 16:20,WSO (Turks and Caicos Islands),NC,no.url.available,Turks and Caicos Islands,Cockburn Town,21.458889,-71.138889,Caribbean Meteorological Organization,07.10.2019 22:34,Published,GISC Washington,
ac9f2da4-23e9-e911-a99e-000d3a44bf07,ntbkAZVT2LEVC346GR0NpRWAQJevlTpUfPosxFa+r7o0O/w5WTcN4rncoZ98pGYUyLORy9beYJ6niiQi3wR90g==,25.01.2020 16:20,WSO (Wallis and Futuna),NC,no.url.available,France,Wallis and Futuna,-13.300000,-176.200000,Météo-France,07.10.2019 18:58,Published,GISC Toulouse,FRA
c87e910f-32e9-e911-a9a5-000d3a44b27c,NXb7fg7iHN+1SMsZdmlnuoCf/jSfWIqDTApzGd92kzmqNt0tA37huK4tu2ntw+W+tncEefn3hIwcvGKqOVChnQ==,25.01.2020 09:54,WWIS (Hong Kong),DCPC,dcpc.worldweather.org/,"Hong Kong, China",Hong Kong,22.283333,114.133333,Hong Kong Observatory,07.10.2019 20:41,Published,GISC Tokyo,HKG
